<?xml version="1.0" encoding="UTF-8"?>
<gpx version="1.1" creator="StrataRoute-RaceMap" xmlns="http://www.topografix.com/GPX/1/1">
  <metadata>
    <name>London Marathon</name>
    <time>2026-04-21T09:30:17Z</time>
  </metadata>
  <wpt lat="51.472800" lon="0.007500">
    <ele>45.0</ele>
    <name>Start: Greenwich Park</name>
    <sym>flag_start</sym>
  </wpt>
  <wpt lat="51.482800" lon="-0.009800">
    <ele>12.0</ele>
    <name>Cutty Sark (Mile 6.5)</name>
    <sym>ship</sym>
  </wpt>
  <wpt lat="51.498400" lon="-0.046800">
    <ele>6.0</ele>
    <name>Surrey Quays</name>
    <sym>water</sym>
  </wpt>
  <wpt lat="51.505500" lon="-0.075400">
    <ele>18.0</ele>
    <name>Tower Bridge (Halfway!)</name>
    <sym>bridge</sym>
  </wpt>
  <wpt lat="51.503300" lon="-0.018900">
    <ele>8.0</ele>
    <name>Canary Wharf (Mile 19)</name>
    <sym>buildings</sym>
  </wpt>
  <wpt lat="51.508100" lon="-0.075900">
    <ele>14.0</ele>
    <name>Tower of London (Mile 22.5)</name>
    <sym>castle</sym>
  </wpt>
  <wpt lat="51.511300" lon="-0.116000">
    <ele>11.0</ele>
    <name>Victoria Embankment</name>
    <sym>landmark</sym>
  </wpt>
  <wpt lat="51.500700" lon="-0.124600">
    <ele>12.0</ele>
    <name>Big Ben &amp; Westminster (Mile 25.5)</name>
    <sym>clock</sym>
  </wpt>
  <wpt lat="51.504400" lon="-0.136500">
    <ele>15.0</ele>
    <name>Finish: The Mall &amp; Palace</name>
    <sym>flag_finish</sym>
  </wpt>
  <trk>
    <name>London Marathon</name>
    <type>running</type>
    <trkseg>
      <trkpt lat="51.472800" lon="0.007530">
        <ele>45.0</ele>
        <time>2026-04-21T09:30:17Z</time>
      </trkpt>
      <trkpt lat="51.473028" lon="0.007908">
        <ele>44.9</ele>
        <time>2026-04-21T09:30:35Z</time>
      </trkpt>
      <trkpt lat="51.473281" lon="0.008313">
        <ele>44.9</ele>
        <time>2026-04-21T09:30:52Z</time>
      </trkpt>
      <trkpt lat="51.473551" lon="0.008746">
        <ele>44.9</ele>
        <time>2026-04-21T09:31:10Z</time>
      </trkpt>
      <trkpt lat="51.473836" lon="0.009212">
        <ele>44.9</ele>
        <time>2026-04-21T09:31:27Z</time>
      </trkpt>
      <trkpt lat="51.474143" lon="0.009713">
        <ele>44.9</ele>
        <time>2026-04-21T09:31:45Z</time>
      </trkpt>
      <trkpt lat="51.474479" lon="0.010252">
        <ele>44.9</ele>
        <time>2026-04-21T09:32:02Z</time>
      </trkpt>
      <trkpt lat="51.474847" lon="0.010829">
        <ele>44.9</ele>
        <time>2026-04-21T09:32:20Z</time>
      </trkpt>
      <trkpt lat="51.475248" lon="0.011443">
        <ele>44.9</ele>
        <time>2026-04-21T09:32:37Z</time>
      </trkpt>
      <trkpt lat="51.475673" lon="0.012093">
        <ele>44.8</ele>
        <time>2026-04-21T09:32:55Z</time>
      </trkpt>
      <trkpt lat="51.476112" lon="0.012775">
        <ele>44.8</ele>
        <time>2026-04-21T09:33:12Z</time>
      </trkpt>
      <trkpt lat="51.476553" lon="0.013484">
        <ele>44.8</ele>
        <time>2026-04-21T09:33:30Z</time>
      </trkpt>
      <trkpt lat="51.476988" lon="0.014216">
        <ele>44.8</ele>
        <time>2026-04-21T09:33:47Z</time>
      </trkpt>
      <trkpt lat="51.477417" lon="0.014971">
        <ele>44.7</ele>
        <time>2026-04-21T09:34:05Z</time>
      </trkpt>
      <trkpt lat="51.477846" lon="0.015746">
        <ele>44.6</ele>
        <time>2026-04-21T09:34:22Z</time>
      </trkpt>
      <trkpt lat="51.478280" lon="0.016544">
        <ele>44.5</ele>
        <time>2026-04-21T09:34:40Z</time>
      </trkpt>
      <trkpt lat="51.478726" lon="0.017366">
        <ele>44.4</ele>
        <time>2026-04-21T09:34:57Z</time>
      </trkpt>
      <trkpt lat="51.479182" lon="0.018216">
        <ele>44.2</ele>
        <time>2026-04-21T09:35:15Z</time>
      </trkpt>
      <trkpt lat="51.479640" lon="0.019098">
        <ele>44.0</ele>
        <time>2026-04-21T09:35:32Z</time>
      </trkpt>
      <trkpt lat="51.480089" lon="0.020012">
        <ele>43.8</ele>
        <time>2026-04-21T09:35:50Z</time>
      </trkpt>
      <trkpt lat="51.480517" lon="0.020959">
        <ele>43.5</ele>
        <time>2026-04-21T09:36:07Z</time>
      </trkpt>
      <trkpt lat="51.480918" lon="0.021937">
        <ele>43.2</ele>
        <time>2026-04-21T09:36:25Z</time>
      </trkpt>
      <trkpt lat="51.481290" lon="0.022943">
        <ele>42.9</ele>
        <time>2026-04-21T09:36:42Z</time>
      </trkpt>
      <trkpt lat="51.481640" lon="0.023974">
        <ele>42.5</ele>
        <time>2026-04-21T09:37:00Z</time>
      </trkpt>
      <trkpt lat="51.482000" lon="0.025030">
        <ele>42.0</ele>
        <time>2026-04-21T09:37:17Z</time>
      </trkpt>
      <trkpt lat="51.482358" lon="0.026124">
        <ele>41.5</ele>
        <time>2026-04-21T09:37:35Z</time>
      </trkpt>
      <trkpt lat="51.482711" lon="0.027297">
        <ele>40.9</ele>
        <time>2026-04-21T09:37:52Z</time>
      </trkpt>
      <trkpt lat="51.483051" lon="0.028543">
        <ele>40.2</ele>
        <time>2026-04-21T09:38:10Z</time>
      </trkpt>
      <trkpt lat="51.483379" lon="0.029857">
        <ele>39.5</ele>
        <time>2026-04-21T09:38:27Z</time>
      </trkpt>
      <trkpt lat="51.483703" lon="0.031234">
        <ele>38.7</ele>
        <time>2026-04-21T09:38:45Z</time>
      </trkpt>
      <trkpt lat="51.484031" lon="0.032670">
        <ele>37.9</ele>
        <time>2026-04-21T09:39:02Z</time>
      </trkpt>
      <trkpt lat="51.484369" lon="0.034156">
        <ele>37.0</ele>
        <time>2026-04-21T09:39:20Z</time>
      </trkpt>
      <trkpt lat="51.484718" lon="0.035684">
        <ele>36.1</ele>
        <time>2026-04-21T09:39:37Z</time>
      </trkpt>
      <trkpt lat="51.485072" lon="0.037244">
        <ele>35.1</ele>
        <time>2026-04-21T09:39:55Z</time>
      </trkpt>
      <trkpt lat="51.485421" lon="0.038824">
        <ele>34.2</ele>
        <time>2026-04-21T09:40:12Z</time>
      </trkpt>
      <trkpt lat="51.485756" lon="0.040413">
        <ele>33.2</ele>
        <time>2026-04-21T09:40:30Z</time>
      </trkpt>
      <trkpt lat="51.486069" lon="0.041998">
        <ele>32.2</ele>
        <time>2026-04-21T09:40:47Z</time>
      </trkpt>
      <trkpt lat="51.486363" lon="0.043569">
        <ele>31.2</ele>
        <time>2026-04-21T09:41:05Z</time>
      </trkpt>
      <trkpt lat="51.486645" lon="0.045118">
        <ele>30.2</ele>
        <time>2026-04-21T09:41:22Z</time>
      </trkpt>
      <trkpt lat="51.486921" lon="0.046639">
        <ele>29.2</ele>
        <time>2026-04-21T09:41:40Z</time>
      </trkpt>
      <trkpt lat="51.487200" lon="0.048125">
        <ele>28.3</ele>
        <time>2026-04-21T09:41:57Z</time>
      </trkpt>
      <trkpt lat="51.487482" lon="0.049573">
        <ele>27.3</ele>
        <time>2026-04-21T09:42:15Z</time>
      </trkpt>
      <trkpt lat="51.487760" lon="0.050977">
        <ele>26.4</ele>
        <time>2026-04-21T09:42:32Z</time>
      </trkpt>
      <trkpt lat="51.488024" lon="0.052330">
        <ele>25.5</ele>
        <time>2026-04-21T09:42:50Z</time>
      </trkpt>
      <trkpt lat="51.488265" lon="0.053626">
        <ele>24.7</ele>
        <time>2026-04-21T09:43:07Z</time>
      </trkpt>
      <trkpt lat="51.488476" lon="0.054855">
        <ele>23.9</ele>
        <time>2026-04-21T09:43:25Z</time>
      </trkpt>
      <trkpt lat="51.488660" lon="0.056006">
        <ele>23.2</ele>
        <time>2026-04-21T09:43:42Z</time>
      </trkpt>
      <trkpt lat="51.488823" lon="0.057067">
        <ele>22.6</ele>
        <time>2026-04-21T09:44:00Z</time>
      </trkpt>
      <trkpt lat="51.489000" lon="0.058030">
        <ele>22.0</ele>
        <time>2026-04-21T09:44:17Z</time>
      </trkpt>
      <trkpt lat="51.489169" lon="0.058905">
        <ele>21.5</ele>
        <time>2026-04-21T09:44:35Z</time>
      </trkpt>
      <trkpt lat="51.489315" lon="0.059738">
        <ele>21.0</ele>
        <time>2026-04-21T09:44:52Z</time>
      </trkpt>
      <trkpt lat="51.489434" lon="0.060530">
        <ele>20.5</ele>
        <time>2026-04-21T09:45:10Z</time>
      </trkpt>
      <trkpt lat="51.489527" lon="0.061286">
        <ele>20.1</ele>
        <time>2026-04-21T09:45:27Z</time>
      </trkpt>
      <trkpt lat="51.489604" lon="0.062008">
        <ele>19.7</ele>
        <time>2026-04-21T09:45:45Z</time>
      </trkpt>
      <trkpt lat="51.489673" lon="0.062697">
        <ele>19.3</ele>
        <time>2026-04-21T09:46:02Z</time>
      </trkpt>
      <trkpt lat="51.489743" lon="0.063355">
        <ele>19.0</ele>
        <time>2026-04-21T09:46:20Z</time>
      </trkpt>
      <trkpt lat="51.489814" lon="0.063980">
        <ele>18.7</ele>
        <time>2026-04-21T09:46:37Z</time>
      </trkpt>
      <trkpt lat="51.489884" lon="0.064571">
        <ele>18.4</ele>
        <time>2026-04-21T09:46:55Z</time>
      </trkpt>
      <trkpt lat="51.489942" lon="0.065122">
        <ele>18.1</ele>
        <time>2026-04-21T09:47:12Z</time>
      </trkpt>
      <trkpt lat="51.489980" lon="0.065630">
        <ele>17.9</ele>
        <time>2026-04-21T09:47:30Z</time>
      </trkpt>
      <trkpt lat="51.489994" lon="0.066091">
        <ele>17.6</ele>
        <time>2026-04-21T09:47:47Z</time>
      </trkpt>
      <trkpt lat="51.489986" lon="0.066503">
        <ele>17.4</ele>
        <time>2026-04-21T09:48:05Z</time>
      </trkpt>
      <trkpt lat="51.489964" lon="0.066864">
        <ele>17.2</ele>
        <time>2026-04-21T09:48:22Z</time>
      </trkpt>
      <trkpt lat="51.489938" lon="0.067175">
        <ele>17.0</ele>
        <time>2026-04-21T09:48:40Z</time>
      </trkpt>
      <trkpt lat="51.489915" lon="0.067440">
        <ele>16.9</ele>
        <time>2026-04-21T09:48:57Z</time>
      </trkpt>
      <trkpt lat="51.489897" lon="0.067661">
        <ele>16.7</ele>
        <time>2026-04-21T09:49:15Z</time>
      </trkpt>
      <trkpt lat="51.489880" lon="0.067840">
        <ele>16.6</ele>
        <time>2026-04-21T09:49:32Z</time>
      </trkpt>
      <trkpt lat="51.489854" lon="0.067979">
        <ele>16.5</ele>
        <time>2026-04-21T09:49:50Z</time>
      </trkpt>
      <trkpt lat="51.489811" lon="0.068079">
        <ele>16.4</ele>
        <time>2026-04-21T09:50:07Z</time>
      </trkpt>
      <trkpt lat="51.489747" lon="0.068137">
        <ele>16.3</ele>
        <time>2026-04-21T09:50:25Z</time>
      </trkpt>
      <trkpt lat="51.489663" lon="0.068150">
        <ele>16.2</ele>
        <time>2026-04-21T09:50:42Z</time>
      </trkpt>
      <trkpt lat="51.489569" lon="0.068114">
        <ele>16.1</ele>
        <time>2026-04-21T09:51:00Z</time>
      </trkpt>
      <trkpt lat="51.489500" lon="0.068030">
        <ele>16.0</ele>
        <time>2026-04-21T09:51:17Z</time>
      </trkpt>
      <trkpt lat="51.489422" lon="0.067875">
        <ele>15.9</ele>
        <time>2026-04-21T09:51:35Z</time>
      </trkpt>
      <trkpt lat="51.489309" lon="0.067660">
        <ele>15.9</ele>
        <time>2026-04-21T09:51:52Z</time>
      </trkpt>
      <trkpt lat="51.489158" lon="0.067390">
        <ele>15.9</ele>
        <time>2026-04-21T09:52:10Z</time>
      </trkpt>
      <trkpt lat="51.488974" lon="0.067069">
        <ele>15.9</ele>
        <time>2026-04-21T09:52:27Z</time>
      </trkpt>
      <trkpt lat="51.488767" lon="0.066701">
        <ele>16.0</ele>
        <time>2026-04-21T09:52:45Z</time>
      </trkpt>
      <trkpt lat="51.488548" lon="0.066291">
        <ele>16.1</ele>
        <time>2026-04-21T09:53:02Z</time>
      </trkpt>
      <trkpt lat="51.488328" lon="0.065840">
        <ele>16.2</ele>
        <time>2026-04-21T09:53:20Z</time>
      </trkpt>
      <trkpt lat="51.488111" lon="0.065351">
        <ele>16.3</ele>
        <time>2026-04-21T09:53:37Z</time>
      </trkpt>
      <trkpt lat="51.487894" lon="0.064821">
        <ele>16.4</ele>
        <time>2026-04-21T09:53:55Z</time>
      </trkpt>
      <trkpt lat="51.487670" lon="0.064248">
        <ele>16.6</ele>
        <time>2026-04-21T09:54:12Z</time>
      </trkpt>
      <trkpt lat="51.487434" lon="0.063631">
        <ele>16.7</ele>
        <time>2026-04-21T09:54:30Z</time>
      </trkpt>
      <trkpt lat="51.487182" lon="0.062966">
        <ele>16.9</ele>
        <time>2026-04-21T09:54:47Z</time>
      </trkpt>
      <trkpt lat="51.486919" lon="0.062254">
        <ele>17.0</ele>
        <time>2026-04-21T09:55:05Z</time>
      </trkpt>
      <trkpt lat="51.486656" lon="0.061495">
        <ele>17.2</ele>
        <time>2026-04-21T09:55:22Z</time>
      </trkpt>
      <trkpt lat="51.486405" lon="0.060691">
        <ele>17.3</ele>
        <time>2026-04-21T09:55:40Z</time>
      </trkpt>
      <trkpt lat="51.486174" lon="0.059847">
        <ele>17.5</ele>
        <time>2026-04-21T09:55:57Z</time>
      </trkpt>
      <trkpt lat="51.485969" lon="0.058969">
        <ele>17.6</ele>
        <time>2026-04-21T09:56:15Z</time>
      </trkpt>
      <trkpt lat="51.485786" lon="0.058059">
        <ele>17.7</ele>
        <time>2026-04-21T09:56:32Z</time>
      </trkpt>
      <trkpt lat="51.485619" lon="0.057121">
        <ele>17.8</ele>
        <time>2026-04-21T09:56:50Z</time>
      </trkpt>
      <trkpt lat="51.485461" lon="0.056158">
        <ele>17.9</ele>
        <time>2026-04-21T09:57:07Z</time>
      </trkpt>
      <trkpt lat="51.485311" lon="0.055168">
        <ele>18.0</ele>
        <time>2026-04-21T09:57:25Z</time>
      </trkpt>
      <trkpt lat="51.485172" lon="0.054151">
        <ele>18.0</ele>
        <time>2026-04-21T09:57:42Z</time>
      </trkpt>
      <trkpt lat="51.485056" lon="0.053105">
        <ele>18.0</ele>
        <time>2026-04-21T09:58:00Z</time>
      </trkpt>
      <trkpt lat="51.485000" lon="0.052030">
        <ele>18.0</ele>
        <time>2026-04-21T09:58:17Z</time>
      </trkpt>
      <trkpt lat="51.484983" lon="0.050876">
        <ele>17.9</ele>
        <time>2026-04-21T09:58:35Z</time>
      </trkpt>
      <trkpt lat="51.484988" lon="0.049629">
        <ele>17.9</ele>
        <time>2026-04-21T09:58:52Z</time>
      </trkpt>
      <trkpt lat="51.485007" lon="0.048299">
        <ele>17.8</ele>
        <time>2026-04-21T09:59:10Z</time>
      </trkpt>
      <trkpt lat="51.485039" lon="0.046895">
        <ele>17.7</ele>
        <time>2026-04-21T09:59:27Z</time>
      </trkpt>
      <trkpt lat="51.485088" lon="0.045429">
        <ele>17.5</ele>
        <time>2026-04-21T09:59:45Z</time>
      </trkpt>
      <trkpt lat="51.485162" lon="0.043911">
        <ele>17.4</ele>
        <time>2026-04-21T10:00:02Z</time>
      </trkpt>
      <trkpt lat="51.485265" lon="0.042349">
        <ele>17.2</ele>
        <time>2026-04-21T10:00:20Z</time>
      </trkpt>
      <trkpt lat="51.485396" lon="0.040751">
        <ele>17.0</ele>
        <time>2026-04-21T10:00:37Z</time>
      </trkpt>
      <trkpt lat="51.485547" lon="0.039121">
        <ele>16.9</ele>
        <time>2026-04-21T10:00:55Z</time>
      </trkpt>
      <trkpt lat="51.485706" lon="0.037463">
        <ele>16.7</ele>
        <time>2026-04-21T10:01:12Z</time>
      </trkpt>
      <trkpt lat="51.485862" lon="0.035781">
        <ele>16.5</ele>
        <time>2026-04-21T10:01:30Z</time>
      </trkpt>
      <trkpt lat="51.486007" lon="0.034079">
        <ele>16.2</ele>
        <time>2026-04-21T10:01:47Z</time>
      </trkpt>
      <trkpt lat="51.486140" lon="0.032362">
        <ele>16.0</ele>
        <time>2026-04-21T10:02:05Z</time>
      </trkpt>
      <trkpt lat="51.486266" lon="0.030638">
        <ele>15.8</ele>
        <time>2026-04-21T10:02:22Z</time>
      </trkpt>
      <trkpt lat="51.486392" lon="0.028915">
        <ele>15.6</ele>
        <time>2026-04-21T10:02:40Z</time>
      </trkpt>
      <trkpt lat="51.486522" lon="0.027203">
        <ele>15.4</ele>
        <time>2026-04-21T10:02:57Z</time>
      </trkpt>
      <trkpt lat="51.486656" lon="0.025514">
        <ele>15.2</ele>
        <time>2026-04-21T10:03:15Z</time>
      </trkpt>
      <trkpt lat="51.486785" lon="0.023857">
        <ele>15.0</ele>
        <time>2026-04-21T10:03:32Z</time>
      </trkpt>
      <trkpt lat="51.486897" lon="0.022243">
        <ele>14.8</ele>
        <time>2026-04-21T10:03:50Z</time>
      </trkpt>
      <trkpt lat="51.486980" lon="0.020679">
        <ele>14.6</ele>
        <time>2026-04-21T10:04:07Z</time>
      </trkpt>
      <trkpt lat="51.487028" lon="0.019170">
        <ele>14.4</ele>
        <time>2026-04-21T10:04:25Z</time>
      </trkpt>
      <trkpt lat="51.487039" lon="0.017723">
        <ele>14.3</ele>
        <time>2026-04-21T10:04:42Z</time>
      </trkpt>
      <trkpt lat="51.487018" lon="0.016340">
        <ele>14.1</ele>
        <time>2026-04-21T10:05:00Z</time>
      </trkpt>
      <trkpt lat="51.487000" lon="0.015030">
        <ele>14.0</ele>
        <time>2026-04-21T10:05:17Z</time>
      </trkpt>
      <trkpt lat="51.486961" lon="0.013751">
        <ele>13.9</ele>
        <time>2026-04-21T10:05:35Z</time>
      </trkpt>
      <trkpt lat="51.486889" lon="0.012489">
        <ele>13.8</ele>
        <time>2026-04-21T10:05:52Z</time>
      </trkpt>
      <trkpt lat="51.486781" lon="0.011246">
        <ele>13.7</ele>
        <time>2026-04-21T10:06:10Z</time>
      </trkpt>
      <trkpt lat="51.486641" lon="0.010025">
        <ele>13.6</ele>
        <time>2026-04-21T10:06:27Z</time>
      </trkpt>
      <trkpt lat="51.486478" lon="0.008831">
        <ele>13.5</ele>
        <time>2026-04-21T10:06:45Z</time>
      </trkpt>
      <trkpt lat="51.486304" lon="0.007664">
        <ele>13.4</ele>
        <time>2026-04-21T10:07:02Z</time>
      </trkpt>
      <trkpt lat="51.486127" lon="0.006527">
        <ele>13.3</ele>
        <time>2026-04-21T10:07:20Z</time>
      </trkpt>
      <trkpt lat="51.485951" lon="0.005417">
        <ele>13.2</ele>
        <time>2026-04-21T10:07:37Z</time>
      </trkpt>
      <trkpt lat="51.485774" lon="0.004334">
        <ele>13.1</ele>
        <time>2026-04-21T10:07:55Z</time>
      </trkpt>
      <trkpt lat="51.485588" lon="0.003274">
        <ele>13.1</ele>
        <time>2026-04-21T10:08:12Z</time>
      </trkpt>
      <trkpt lat="51.485385" lon="0.002231">
        <ele>13.0</ele>
        <time>2026-04-21T10:08:30Z</time>
      </trkpt>
      <trkpt lat="51.485163" lon="0.001204">
        <ele>12.9</ele>
        <time>2026-04-21T10:08:47Z</time>
      </trkpt>
      <trkpt lat="51.484926" lon="0.000189">
        <ele>12.9</ele>
        <time>2026-04-21T10:09:05Z</time>
      </trkpt>
      <trkpt lat="51.484683" lon="-0.000813">
        <ele>12.8</ele>
        <time>2026-04-21T10:09:22Z</time>
      </trkpt>
      <trkpt lat="51.484445" lon="-0.001802">
        <ele>12.7</ele>
        <time>2026-04-21T10:09:40Z</time>
      </trkpt>
      <trkpt lat="51.484222" lon="-0.002775">
        <ele>12.7</ele>
        <time>2026-04-21T10:09:57Z</time>
      </trkpt>
      <trkpt lat="51.484018" lon="-0.003728">
        <ele>12.6</ele>
        <time>2026-04-21T10:10:15Z</time>
      </trkpt>
      <trkpt lat="51.483828" lon="-0.004659">
        <ele>12.5</ele>
        <time>2026-04-21T10:10:32Z</time>
      </trkpt>
      <trkpt lat="51.483645" lon="-0.005565">
        <ele>12.4</ele>
        <time>2026-04-21T10:10:50Z</time>
      </trkpt>
      <trkpt lat="51.483463" lon="-0.006446">
        <ele>12.4</ele>
        <time>2026-04-21T10:11:07Z</time>
      </trkpt>
      <trkpt lat="51.483278" lon="-0.007305">
        <ele>12.3</ele>
        <time>2026-04-21T10:11:25Z</time>
      </trkpt>
      <trkpt lat="51.483095" lon="-0.008143">
        <ele>12.2</ele>
        <time>2026-04-21T10:11:42Z</time>
      </trkpt>
      <trkpt lat="51.482923" lon="-0.008965">
        <ele>12.1</ele>
        <time>2026-04-21T10:12:00Z</time>
      </trkpt>
      <trkpt lat="51.482800" lon="-0.009770">
        <ele>12.0</ele>
        <time>2026-04-21T10:12:17Z</time>
      </trkpt>
      <trkpt lat="51.482690" lon="-0.010568">
        <ele>11.9</ele>
        <time>2026-04-21T10:12:35Z</time>
      </trkpt>
      <trkpt lat="51.482564" lon="-0.011339">
        <ele>11.8</ele>
        <time>2026-04-21T10:12:52Z</time>
      </trkpt>
      <trkpt lat="51.482419" lon="-0.012081">
        <ele>11.7</ele>
        <time>2026-04-21T10:13:10Z</time>
      </trkpt>
      <trkpt lat="51.482258" lon="-0.012795">
        <ele>11.5</ele>
        <time>2026-04-21T10:13:27Z</time>
      </trkpt>
      <trkpt lat="51.482089" lon="-0.013478">
        <ele>11.4</ele>
        <time>2026-04-21T10:13:45Z</time>
      </trkpt>
      <trkpt lat="51.481925" lon="-0.014130">
        <ele>11.3</ele>
        <time>2026-04-21T10:14:02Z</time>
      </trkpt>
      <trkpt lat="51.481775" lon="-0.014751">
        <ele>11.2</ele>
        <time>2026-04-21T10:14:20Z</time>
      </trkpt>
      <trkpt lat="51.481640" lon="-0.015346">
        <ele>11.0</ele>
        <time>2026-04-21T10:14:37Z</time>
      </trkpt>
      <trkpt lat="51.481519" lon="-0.015916">
        <ele>10.9</ele>
        <time>2026-04-21T10:14:55Z</time>
      </trkpt>
      <trkpt lat="51.481403" lon="-0.016470">
        <ele>10.8</ele>
        <time>2026-04-21T10:15:12Z</time>
      </trkpt>
      <trkpt lat="51.481286" lon="-0.017011">
        <ele>10.6</ele>
        <time>2026-04-21T10:15:30Z</time>
      </trkpt>
      <trkpt lat="51.481163" lon="-0.017546">
        <ele>10.5</ele>
        <time>2026-04-21T10:15:47Z</time>
      </trkpt>
      <trkpt lat="51.481039" lon="-0.018079">
        <ele>10.4</ele>
        <time>2026-04-21T10:16:05Z</time>
      </trkpt>
      <trkpt lat="51.480923" lon="-0.018612">
        <ele>10.2</ele>
        <time>2026-04-21T10:16:22Z</time>
      </trkpt>
      <trkpt lat="51.480825" lon="-0.019145">
        <ele>10.1</ele>
        <time>2026-04-21T10:16:40Z</time>
      </trkpt>
      <trkpt lat="51.480756" lon="-0.019678">
        <ele>10.0</ele>
        <time>2026-04-21T10:16:57Z</time>
      </trkpt>
      <trkpt lat="51.480717" lon="-0.020210">
        <ele>9.8</ele>
        <time>2026-04-21T10:17:15Z</time>
      </trkpt>
      <trkpt lat="51.480706" lon="-0.020740">
        <ele>9.7</ele>
        <time>2026-04-21T10:17:32Z</time>
      </trkpt>
      <trkpt lat="51.480714" lon="-0.021267">
        <ele>9.6</ele>
        <time>2026-04-21T10:17:50Z</time>
      </trkpt>
      <trkpt lat="51.480735" lon="-0.021793">
        <ele>9.5</ele>
        <time>2026-04-21T10:18:07Z</time>
      </trkpt>
      <trkpt lat="51.480765" lon="-0.022321">
        <ele>9.3</ele>
        <time>2026-04-21T10:18:25Z</time>
      </trkpt>
      <trkpt lat="51.480808" lon="-0.022857">
        <ele>9.2</ele>
        <time>2026-04-21T10:18:42Z</time>
      </trkpt>
      <trkpt lat="51.480874" lon="-0.023406">
        <ele>9.1</ele>
        <time>2026-04-21T10:19:00Z</time>
      </trkpt>
      <trkpt lat="51.481000" lon="-0.023970">
        <ele>9.0</ele>
        <time>2026-04-21T10:19:17Z</time>
      </trkpt>
      <trkpt lat="51.481164" lon="-0.024565">
        <ele>8.9</ele>
        <time>2026-04-21T10:19:35Z</time>
      </trkpt>
      <trkpt lat="51.481349" lon="-0.025174">
        <ele>8.8</ele>
        <time>2026-04-21T10:19:52Z</time>
      </trkpt>
      <trkpt lat="51.481547" lon="-0.025793">
        <ele>8.7</ele>
        <time>2026-04-21T10:20:10Z</time>
      </trkpt>
      <trkpt lat="51.481760" lon="-0.026418">
        <ele>8.6</ele>
        <time>2026-04-21T10:20:27Z</time>
      </trkpt>
      <trkpt lat="51.481992" lon="-0.027043">
        <ele>8.5</ele>
        <time>2026-04-21T10:20:45Z</time>
      </trkpt>
      <trkpt lat="51.482252" lon="-0.027666">
        <ele>8.4</ele>
        <time>2026-04-21T10:21:02Z</time>
      </trkpt>
      <trkpt lat="51.482545" lon="-0.028283">
        <ele>8.3</ele>
        <time>2026-04-21T10:21:20Z</time>
      </trkpt>
      <trkpt lat="51.482870" lon="-0.028894">
        <ele>8.2</ele>
        <time>2026-04-21T10:21:37Z</time>
      </trkpt>
      <trkpt lat="51.483221" lon="-0.029499">
        <ele>8.1</ele>
        <time>2026-04-21T10:21:55Z</time>
      </trkpt>
      <trkpt lat="51.483587" lon="-0.030102">
        <ele>8.0</ele>
        <time>2026-04-21T10:22:12Z</time>
      </trkpt>
      <trkpt lat="51.483958" lon="-0.030705">
        <ele>8.0</ele>
        <time>2026-04-21T10:22:30Z</time>
      </trkpt>
      <trkpt lat="51.484326" lon="-0.031309">
        <ele>7.9</ele>
        <time>2026-04-21T10:22:47Z</time>
      </trkpt>
      <trkpt lat="51.484691" lon="-0.031915">
        <ele>7.8</ele>
        <time>2026-04-21T10:23:05Z</time>
      </trkpt>
      <trkpt lat="51.485060" lon="-0.032523">
        <ele>7.7</ele>
        <time>2026-04-21T10:23:22Z</time>
      </trkpt>
      <trkpt lat="51.485440" lon="-0.033129">
        <ele>7.6</ele>
        <time>2026-04-21T10:23:40Z</time>
      </trkpt>
      <trkpt lat="51.485837" lon="-0.033730">
        <ele>7.6</ele>
        <time>2026-04-21T10:23:57Z</time>
      </trkpt>
      <trkpt lat="51.486250" lon="-0.034321">
        <ele>7.5</ele>
        <time>2026-04-21T10:24:15Z</time>
      </trkpt>
      <trkpt lat="51.486673" lon="-0.034898">
        <ele>7.4</ele>
        <time>2026-04-21T10:24:32Z</time>
      </trkpt>
      <trkpt lat="51.487094" lon="-0.035456">
        <ele>7.3</ele>
        <time>2026-04-21T10:24:50Z</time>
      </trkpt>
      <trkpt lat="51.487502" lon="-0.035995">
        <ele>7.3</ele>
        <time>2026-04-21T10:25:07Z</time>
      </trkpt>
      <trkpt lat="51.487891" lon="-0.036514">
        <ele>7.2</ele>
        <time>2026-04-21T10:25:25Z</time>
      </trkpt>
      <trkpt lat="51.488262" lon="-0.037016">
        <ele>7.1</ele>
        <time>2026-04-21T10:25:42Z</time>
      </trkpt>
      <trkpt lat="51.488620" lon="-0.037502">
        <ele>7.1</ele>
        <time>2026-04-21T10:26:00Z</time>
      </trkpt>
      <trkpt lat="51.489000" lon="-0.037970">
        <ele>7.0</ele>
        <time>2026-04-21T10:26:17Z</time>
      </trkpt>
      <trkpt lat="51.489386" lon="-0.038454">
        <ele>6.9</ele>
        <time>2026-04-21T10:26:35Z</time>
      </trkpt>
      <trkpt lat="51.489770" lon="-0.038955">
        <ele>6.9</ele>
        <time>2026-04-21T10:26:52Z</time>
      </trkpt>
      <trkpt lat="51.490146" lon="-0.039467">
        <ele>6.8</ele>
        <time>2026-04-21T10:27:10Z</time>
      </trkpt>
      <trkpt lat="51.490517" lon="-0.039984">
        <ele>6.8</ele>
        <time>2026-04-21T10:27:27Z</time>
      </trkpt>
      <trkpt lat="51.490887" lon="-0.040499">
        <ele>6.7</ele>
        <time>2026-04-21T10:27:45Z</time>
      </trkpt>
      <trkpt lat="51.491268" lon="-0.041008">
        <ele>6.7</ele>
        <time>2026-04-21T10:28:02Z</time>
      </trkpt>
      <trkpt lat="51.491664" lon="-0.041506">
        <ele>6.6</ele>
        <time>2026-04-21T10:28:20Z</time>
      </trkpt>
      <trkpt lat="51.492077" lon="-0.041990">
        <ele>6.6</ele>
        <time>2026-04-21T10:28:37Z</time>
      </trkpt>
      <trkpt lat="51.492502" lon="-0.042461">
        <ele>6.6</ele>
        <time>2026-04-21T10:28:55Z</time>
      </trkpt>
      <trkpt lat="51.492928" lon="-0.042918">
        <ele>6.5</ele>
        <time>2026-04-21T10:29:12Z</time>
      </trkpt>
      <trkpt lat="51.493346" lon="-0.043363">
        <ele>6.5</ele>
        <time>2026-04-21T10:29:30Z</time>
      </trkpt>
      <trkpt lat="51.493751" lon="-0.043796">
        <ele>6.4</ele>
        <time>2026-04-21T10:29:47Z</time>
      </trkpt>
      <trkpt lat="51.494143" lon="-0.044217">
        <ele>6.4</ele>
        <time>2026-04-21T10:30:05Z</time>
      </trkpt>
      <trkpt lat="51.494529" lon="-0.044622">
        <ele>6.4</ele>
        <time>2026-04-21T10:30:22Z</time>
      </trkpt>
      <trkpt lat="51.494919" lon="-0.045007">
        <ele>6.3</ele>
        <time>2026-04-21T10:30:40Z</time>
      </trkpt>
      <trkpt lat="51.495319" lon="-0.045367">
        <ele>6.3</ele>
        <time>2026-04-21T10:30:57Z</time>
      </trkpt>
      <trkpt lat="51.495729" lon="-0.045696">
        <ele>6.3</ele>
        <time>2026-04-21T10:31:15Z</time>
      </trkpt>
      <trkpt lat="51.496145" lon="-0.045987">
        <ele>6.2</ele>
        <time>2026-04-21T10:31:32Z</time>
      </trkpt>
      <trkpt lat="51.496555" lon="-0.046235">
        <ele>6.2</ele>
        <time>2026-04-21T10:31:50Z</time>
      </trkpt>
      <trkpt lat="51.496951" lon="-0.046437">
        <ele>6.2</ele>
        <time>2026-04-21T10:32:07Z</time>
      </trkpt>
      <trkpt lat="51.497327" lon="-0.046592">
        <ele>6.1</ele>
        <time>2026-04-21T10:32:25Z</time>
      </trkpt>
      <trkpt lat="51.497684" lon="-0.046699">
        <ele>6.1</ele>
        <time>2026-04-21T10:32:42Z</time>
      </trkpt>
      <trkpt lat="51.498030" lon="-0.046760">
        <ele>6.0</ele>
        <time>2026-04-21T10:33:00Z</time>
      </trkpt>
      <trkpt lat="51.498400" lon="-0.046770">
        <ele>6.0</ele>
        <time>2026-04-21T10:33:17Z</time>
      </trkpt>
      <trkpt lat="51.498778" lon="-0.046722">
        <ele>6.0</ele>
        <time>2026-04-21T10:33:35Z</time>
      </trkpt>
      <trkpt lat="51.499156" lon="-0.046585">
        <ele>5.9</ele>
        <time>2026-04-21T10:33:52Z</time>
      </trkpt>
      <trkpt lat="51.499528" lon="-0.046364">
        <ele>5.9</ele>
        <time>2026-04-21T10:34:10Z</time>
      </trkpt>
      <trkpt lat="51.499892" lon="-0.046066">
        <ele>5.8</ele>
        <time>2026-04-21T10:34:27Z</time>
      </trkpt>
      <trkpt lat="51.500255" lon="-0.045696">
        <ele>5.8</ele>
        <time>2026-04-21T10:34:45Z</time>
      </trkpt>
      <trkpt lat="51.500625" lon="-0.045263">
        <ele>5.7</ele>
        <time>2026-04-21T10:35:02Z</time>
      </trkpt>
      <trkpt lat="51.501008" lon="-0.044772">
        <ele>5.6</ele>
        <time>2026-04-21T10:35:20Z</time>
      </trkpt>
      <trkpt lat="51.501403" lon="-0.044234">
        <ele>5.6</ele>
        <time>2026-04-21T10:35:37Z</time>
      </trkpt>
      <trkpt lat="51.501804" lon="-0.043662">
        <ele>5.5</ele>
        <time>2026-04-21T10:35:55Z</time>
      </trkpt>
      <trkpt lat="51.502200" lon="-0.043066">
        <ele>5.5</ele>
        <time>2026-04-21T10:36:12Z</time>
      </trkpt>
      <trkpt lat="51.502580" lon="-0.042461">
        <ele>5.4</ele>
        <time>2026-04-21T10:36:30Z</time>
      </trkpt>
      <trkpt lat="51.502938" lon="-0.041859">
        <ele>5.4</ele>
        <time>2026-04-21T10:36:47Z</time>
      </trkpt>
      <trkpt lat="51.503274" lon="-0.041271">
        <ele>5.3</ele>
        <time>2026-04-21T10:37:05Z</time>
      </trkpt>
      <trkpt lat="51.503594" lon="-0.040706">
        <ele>5.3</ele>
        <time>2026-04-21T10:37:22Z</time>
      </trkpt>
      <trkpt lat="51.503906" lon="-0.040173">
        <ele>5.2</ele>
        <time>2026-04-21T10:37:40Z</time>
      </trkpt>
      <trkpt lat="51.504215" lon="-0.039678">
        <ele>5.2</ele>
        <time>2026-04-21T10:37:57Z</time>
      </trkpt>
      <trkpt lat="51.504521" lon="-0.039227">
        <ele>5.1</ele>
        <time>2026-04-21T10:38:15Z</time>
      </trkpt>
      <trkpt lat="51.504818" lon="-0.038826">
        <ele>5.1</ele>
        <time>2026-04-21T10:38:32Z</time>
      </trkpt>
      <trkpt lat="51.505094" lon="-0.038481">
        <ele>5.1</ele>
        <time>2026-04-21T10:38:50Z</time>
      </trkpt>
      <trkpt lat="51.505339" lon="-0.038202">
        <ele>5.1</ele>
        <time>2026-04-21T10:39:07Z</time>
      </trkpt>
      <trkpt lat="51.505547" lon="-0.038000">
        <ele>5.0</ele>
        <time>2026-04-21T10:39:25Z</time>
      </trkpt>
      <trkpt lat="51.505718" lon="-0.037886">
        <ele>5.0</ele>
        <time>2026-04-21T10:39:42Z</time>
      </trkpt>
      <trkpt lat="51.505857" lon="-0.037873">
        <ele>5.0</ele>
        <time>2026-04-21T10:40:00Z</time>
      </trkpt>
      <trkpt lat="51.506000" lon="-0.037970">
        <ele>5.0</ele>
        <time>2026-04-21T10:40:17Z</time>
      </trkpt>
      <trkpt lat="51.506121" lon="-0.038197">
        <ele>5.0</ele>
        <time>2026-04-21T10:40:35Z</time>
      </trkpt>
      <trkpt lat="51.506205" lon="-0.038529">
        <ele>5.0</ele>
        <time>2026-04-21T10:40:52Z</time>
      </trkpt>
      <trkpt lat="51.506249" lon="-0.038957">
        <ele>5.0</ele>
        <time>2026-04-21T10:41:10Z</time>
      </trkpt>
      <trkpt lat="51.506255" lon="-0.039469">
        <ele>5.0</ele>
        <time>2026-04-21T10:41:27Z</time>
      </trkpt>
      <trkpt lat="51.506234" lon="-0.040053">
        <ele>5.1</ele>
        <time>2026-04-21T10:41:45Z</time>
      </trkpt>
      <trkpt lat="51.506196" lon="-0.040700">
        <ele>5.1</ele>
        <time>2026-04-21T10:42:02Z</time>
      </trkpt>
      <trkpt lat="51.506150" lon="-0.041400">
        <ele>5.1</ele>
        <time>2026-04-21T10:42:20Z</time>
      </trkpt>
      <trkpt lat="51.506100" lon="-0.042146">
        <ele>5.1</ele>
        <time>2026-04-21T10:42:37Z</time>
      </trkpt>
      <trkpt lat="51.506042" lon="-0.042931">
        <ele>5.2</ele>
        <time>2026-04-21T10:42:55Z</time>
      </trkpt>
      <trkpt lat="51.505968" lon="-0.043752">
        <ele>5.2</ele>
        <time>2026-04-21T10:43:12Z</time>
      </trkpt>
      <trkpt lat="51.505872" lon="-0.044605">
        <ele>5.3</ele>
        <time>2026-04-21T10:43:30Z</time>
      </trkpt>
      <trkpt lat="51.505751" lon="-0.045484">
        <ele>5.3</ele>
        <time>2026-04-21T10:43:47Z</time>
      </trkpt>
      <trkpt lat="51.505607" lon="-0.046384">
        <ele>5.4</ele>
        <time>2026-04-21T10:44:05Z</time>
      </trkpt>
      <trkpt lat="51.505450" lon="-0.047297">
        <ele>5.4</ele>
        <time>2026-04-21T10:44:22Z</time>
      </trkpt>
      <trkpt lat="51.505292" lon="-0.048213">
        <ele>5.5</ele>
        <time>2026-04-21T10:44:40Z</time>
      </trkpt>
      <trkpt lat="51.505141" lon="-0.049123">
        <ele>5.5</ele>
        <time>2026-04-21T10:44:57Z</time>
      </trkpt>
      <trkpt lat="51.505000" lon="-0.050014">
        <ele>5.6</ele>
        <time>2026-04-21T10:45:15Z</time>
      </trkpt>
      <trkpt lat="51.504867" lon="-0.050876">
        <ele>5.6</ele>
        <time>2026-04-21T10:45:32Z</time>
      </trkpt>
      <trkpt lat="51.504732" lon="-0.051698">
        <ele>5.7</ele>
        <time>2026-04-21T10:45:50Z</time>
      </trkpt>
      <trkpt lat="51.504590" lon="-0.052472">
        <ele>5.8</ele>
        <time>2026-04-21T10:46:07Z</time>
      </trkpt>
      <trkpt lat="51.504437" lon="-0.053191">
        <ele>5.8</ele>
        <time>2026-04-21T10:46:25Z</time>
      </trkpt>
      <trkpt lat="51.504276" lon="-0.053851">
        <ele>5.9</ele>
        <time>2026-04-21T10:46:42Z</time>
      </trkpt>
      <trkpt lat="51.504118" lon="-0.054447">
        <ele>5.9</ele>
        <time>2026-04-21T10:47:00Z</time>
      </trkpt>
      <trkpt lat="51.504000" lon="-0.054970">
        <ele>6.0</ele>
        <time>2026-04-21T10:47:17Z</time>
      </trkpt>
      <trkpt lat="51.503883" lon="-0.055451">
        <ele>6.1</ele>
        <time>2026-04-21T10:47:35Z</time>
      </trkpt>
      <trkpt lat="51.503736" lon="-0.055897">
        <ele>6.1</ele>
        <time>2026-04-21T10:47:52Z</time>
      </trkpt>
      <trkpt lat="51.503557" lon="-0.056308">
        <ele>6.1</ele>
        <time>2026-04-21T10:48:10Z</time>
      </trkpt>
      <trkpt lat="51.503349" lon="-0.056684">
        <ele>6.2</ele>
        <time>2026-04-21T10:48:27Z</time>
      </trkpt>
      <trkpt lat="51.503124" lon="-0.057025">
        <ele>6.2</ele>
        <time>2026-04-21T10:48:45Z</time>
      </trkpt>
      <trkpt lat="51.502892" lon="-0.057333">
        <ele>6.2</ele>
        <time>2026-04-21T10:49:02Z</time>
      </trkpt>
      <trkpt lat="51.502664" lon="-0.057609">
        <ele>6.3</ele>
        <time>2026-04-21T10:49:20Z</time>
      </trkpt>
      <trkpt lat="51.502444" lon="-0.057857">
        <ele>6.3</ele>
        <time>2026-04-21T10:49:37Z</time>
      </trkpt>
      <trkpt lat="51.502230" lon="-0.058082">
        <ele>6.3</ele>
        <time>2026-04-21T10:49:55Z</time>
      </trkpt>
      <trkpt lat="51.502014" lon="-0.058293">
        <ele>6.4</ele>
        <time>2026-04-21T10:50:12Z</time>
      </trkpt>
      <trkpt lat="51.501790" lon="-0.058495">
        <ele>6.4</ele>
        <time>2026-04-21T10:50:30Z</time>
      </trkpt>
      <trkpt lat="51.501557" lon="-0.058696">
        <ele>6.4</ele>
        <time>2026-04-21T10:50:47Z</time>
      </trkpt>
      <trkpt lat="51.501318" lon="-0.058901">
        <ele>6.5</ele>
        <time>2026-04-21T10:51:05Z</time>
      </trkpt>
      <trkpt lat="51.501083" lon="-0.059113">
        <ele>6.5</ele>
        <time>2026-04-21T10:51:22Z</time>
      </trkpt>
      <trkpt lat="51.500866" lon="-0.059335">
        <ele>6.6</ele>
        <time>2026-04-21T10:51:40Z</time>
      </trkpt>
      <trkpt lat="51.500674" lon="-0.059567">
        <ele>6.7</ele>
        <time>2026-04-21T10:51:57Z</time>
      </trkpt>
      <trkpt lat="51.500513" lon="-0.059809">
        <ele>6.8</ele>
        <time>2026-04-21T10:52:15Z</time>
      </trkpt>
      <trkpt lat="51.500380" lon="-0.060062">
        <ele>6.9</ele>
        <time>2026-04-21T10:52:32Z</time>
      </trkpt>
      <trkpt lat="51.500268" lon="-0.060326">
        <ele>7.0</ele>
        <time>2026-04-21T10:52:50Z</time>
      </trkpt>
      <trkpt lat="51.500170" lon="-0.060604">
        <ele>7.2</ele>
        <time>2026-04-21T10:53:07Z</time>
      </trkpt>
      <trkpt lat="51.500084" lon="-0.060901">
        <ele>7.4</ele>
        <time>2026-04-21T10:53:25Z</time>
      </trkpt>
      <trkpt lat="51.500016" lon="-0.061224">
        <ele>7.6</ele>
        <time>2026-04-21T10:53:42Z</time>
      </trkpt>
      <trkpt lat="51.499975" lon="-0.061580">
        <ele>7.8</ele>
        <time>2026-04-21T10:54:00Z</time>
      </trkpt>
      <trkpt lat="51.500000" lon="-0.061970">
        <ele>8.0</ele>
        <time>2026-04-21T10:54:17Z</time>
      </trkpt>
      <trkpt lat="51.500067" lon="-0.062434">
        <ele>8.3</ele>
        <time>2026-04-21T10:54:35Z</time>
      </trkpt>
      <trkpt lat="51.500155" lon="-0.062968">
        <ele>8.6</ele>
        <time>2026-04-21T10:54:52Z</time>
      </trkpt>
      <trkpt lat="51.500259" lon="-0.063564">
        <ele>9.0</ele>
        <time>2026-04-21T10:55:10Z</time>
      </trkpt>
      <trkpt lat="51.500377" lon="-0.064209">
        <ele>9.4</ele>
        <time>2026-04-21T10:55:27Z</time>
      </trkpt>
      <trkpt lat="51.500515" lon="-0.064893">
        <ele>9.8</ele>
        <time>2026-04-21T10:55:45Z</time>
      </trkpt>
      <trkpt lat="51.500681" lon="-0.065605">
        <ele>10.3</ele>
        <time>2026-04-21T10:56:02Z</time>
      </trkpt>
      <trkpt lat="51.500880" lon="-0.066336">
        <ele>10.8</ele>
        <time>2026-04-21T10:56:20Z</time>
      </trkpt>
      <trkpt lat="51.501111" lon="-0.067079">
        <ele>11.3</ele>
        <time>2026-04-21T10:56:37Z</time>
      </trkpt>
      <trkpt lat="51.501367" lon="-0.067828">
        <ele>11.9</ele>
        <time>2026-04-21T10:56:55Z</time>
      </trkpt>
      <trkpt lat="51.501638" lon="-0.068579">
        <ele>12.4</ele>
        <time>2026-04-21T10:57:12Z</time>
      </trkpt>
      <trkpt lat="51.501912" lon="-0.069329">
        <ele>13.0</ele>
        <time>2026-04-21T10:57:30Z</time>
      </trkpt>
      <trkpt lat="51.502182" lon="-0.070071">
        <ele>13.5</ele>
        <time>2026-04-21T10:57:47Z</time>
      </trkpt>
      <trkpt lat="51.502448" lon="-0.070801">
        <ele>14.0</ele>
        <time>2026-04-21T10:58:05Z</time>
      </trkpt>
      <trkpt lat="51.502716" lon="-0.071512">
        <ele>14.6</ele>
        <time>2026-04-21T10:58:22Z</time>
      </trkpt>
      <trkpt lat="51.502994" lon="-0.072193">
        <ele>15.1</ele>
        <time>2026-04-21T10:58:40Z</time>
      </trkpt>
      <trkpt lat="51.503285" lon="-0.072834">
        <ele>15.6</ele>
        <time>2026-04-21T10:58:57Z</time>
      </trkpt>
      <trkpt lat="51.503591" lon="-0.073424">
        <ele>16.0</ele>
        <time>2026-04-21T10:59:15Z</time>
      </trkpt>
      <trkpt lat="51.503903" lon="-0.073952">
        <ele>16.4</ele>
        <time>2026-04-21T10:59:32Z</time>
      </trkpt>
      <trkpt lat="51.504211" lon="-0.074409">
        <ele>16.8</ele>
        <time>2026-04-21T10:59:50Z</time>
      </trkpt>
      <trkpt lat="51.504503" lon="-0.074784">
        <ele>17.2</ele>
        <time>2026-04-21T11:00:07Z</time>
      </trkpt>
      <trkpt lat="51.504773" lon="-0.075074">
        <ele>17.5</ele>
        <time>2026-04-21T11:00:25Z</time>
      </trkpt>
      <trkpt lat="51.505021" lon="-0.075271">
        <ele>17.7</ele>
        <time>2026-04-21T11:00:42Z</time>
      </trkpt>
      <trkpt lat="51.505251" lon="-0.075373">
        <ele>17.9</ele>
        <time>2026-04-21T11:01:00Z</time>
      </trkpt>
      <trkpt lat="51.505500" lon="-0.075370">
        <ele>18.0</ele>
        <time>2026-04-21T11:01:17Z</time>
      </trkpt>
      <trkpt lat="51.505752" lon="-0.075287">
        <ele>18.1</ele>
        <time>2026-04-21T11:01:35Z</time>
      </trkpt>
      <trkpt lat="51.506002" lon="-0.075123">
        <ele>18.1</ele>
        <time>2026-04-21T11:01:52Z</time>
      </trkpt>
      <trkpt lat="51.506244" lon="-0.074882">
        <ele>18.0</ele>
        <time>2026-04-21T11:02:10Z</time>
      </trkpt>
      <trkpt lat="51.506479" lon="-0.074566">
        <ele>17.9</ele>
        <time>2026-04-21T11:02:27Z</time>
      </trkpt>
      <trkpt lat="51.506713" lon="-0.074175">
        <ele>17.7</ele>
        <time>2026-04-21T11:02:45Z</time>
      </trkpt>
      <trkpt lat="51.506954" lon="-0.073713">
        <ele>17.6</ele>
        <time>2026-04-21T11:03:02Z</time>
      </trkpt>
      <trkpt lat="51.507210" lon="-0.073182">
        <ele>17.3</ele>
        <time>2026-04-21T11:03:20Z</time>
      </trkpt>
      <trkpt lat="51.507481" lon="-0.072590">
        <ele>17.1</ele>
        <time>2026-04-21T11:03:37Z</time>
      </trkpt>
      <trkpt lat="51.507761" lon="-0.071943">
        <ele>16.8</ele>
        <time>2026-04-21T11:03:55Z</time>
      </trkpt>
      <trkpt lat="51.508039" lon="-0.071249">
        <ele>16.5</ele>
        <time>2026-04-21T11:04:12Z</time>
      </trkpt>
      <trkpt lat="51.508307" lon="-0.070519">
        <ele>16.2</ele>
        <time>2026-04-21T11:04:30Z</time>
      </trkpt>
      <trkpt lat="51.508557" lon="-0.069759">
        <ele>15.8</ele>
        <time>2026-04-21T11:04:47Z</time>
      </trkpt>
      <trkpt lat="51.508791" lon="-0.068977">
        <ele>15.5</ele>
        <time>2026-04-21T11:05:05Z</time>
      </trkpt>
      <trkpt lat="51.509016" lon="-0.068178">
        <ele>15.1</ele>
        <time>2026-04-21T11:05:22Z</time>
      </trkpt>
      <trkpt lat="51.509241" lon="-0.067367">
        <ele>14.7</ele>
        <time>2026-04-21T11:05:40Z</time>
      </trkpt>
      <trkpt lat="51.509471" lon="-0.066545">
        <ele>14.4</ele>
        <time>2026-04-21T11:05:57Z</time>
      </trkpt>
      <trkpt lat="51.509707" lon="-0.065714">
        <ele>14.0</ele>
        <time>2026-04-21T11:06:15Z</time>
      </trkpt>
      <trkpt lat="51.509942" lon="-0.064876">
        <ele>13.7</ele>
        <time>2026-04-21T11:06:32Z</time>
      </trkpt>
      <trkpt lat="51.510168" lon="-0.064033">
        <ele>13.3</ele>
        <time>2026-04-21T11:06:50Z</time>
      </trkpt>
      <trkpt lat="51.510373" lon="-0.063191">
        <ele>13.0</ele>
        <time>2026-04-21T11:07:07Z</time>
      </trkpt>
      <trkpt lat="51.510553" lon="-0.062356">
        <ele>12.7</ele>
        <time>2026-04-21T11:07:25Z</time>
      </trkpt>
      <trkpt lat="51.510708" lon="-0.061536">
        <ele>12.4</ele>
        <time>2026-04-21T11:07:42Z</time>
      </trkpt>
      <trkpt lat="51.510845" lon="-0.060739">
        <ele>12.2</ele>
        <time>2026-04-21T11:08:00Z</time>
      </trkpt>
      <trkpt lat="51.511000" lon="-0.059970">
        <ele>12.0</ele>
        <time>2026-04-21T11:08:17Z</time>
      </trkpt>
      <trkpt lat="51.511150" lon="-0.059224">
        <ele>11.8</ele>
        <time>2026-04-21T11:08:35Z</time>
      </trkpt>
      <trkpt lat="51.511283" lon="-0.058462">
        <ele>11.6</ele>
        <time>2026-04-21T11:08:52Z</time>
      </trkpt>
      <trkpt lat="51.511394" lon="-0.057684">
        <ele>11.5</ele>
        <time>2026-04-21T11:09:10Z</time>
      </trkpt>
      <trkpt lat="51.511483" lon="-0.056887">
        <ele>11.3</ele>
        <time>2026-04-21T11:09:27Z</time>
      </trkpt>
      <trkpt lat="51.511560" lon="-0.056072">
        <ele>11.1</ele>
        <time>2026-04-21T11:09:45Z</time>
      </trkpt>
      <trkpt lat="51.511634" lon="-0.055236">
        <ele>11.0</ele>
        <time>2026-04-21T11:10:02Z</time>
      </trkpt>
      <trkpt lat="51.511712" lon="-0.054381">
        <ele>10.8</ele>
        <time>2026-04-21T11:10:20Z</time>
      </trkpt>
      <trkpt lat="51.511796" lon="-0.053508">
        <ele>10.7</ele>
        <time>2026-04-21T11:10:37Z</time>
      </trkpt>
      <trkpt lat="51.511881" lon="-0.052624">
        <ele>10.6</ele>
        <time>2026-04-21T11:10:55Z</time>
      </trkpt>
      <trkpt lat="51.511958" lon="-0.051731">
        <ele>10.4</ele>
        <time>2026-04-21T11:11:12Z</time>
      </trkpt>
      <trkpt lat="51.512018" lon="-0.050837">
        <ele>10.3</ele>
        <time>2026-04-21T11:11:30Z</time>
      </trkpt>
      <trkpt lat="51.512057" lon="-0.049946">
        <ele>10.2</ele>
        <time>2026-04-21T11:11:47Z</time>
      </trkpt>
      <trkpt lat="51.512076" lon="-0.049063">
        <ele>10.1</ele>
        <time>2026-04-21T11:12:05Z</time>
      </trkpt>
      <trkpt lat="51.512084" lon="-0.048189">
        <ele>10.0</ele>
        <time>2026-04-21T11:12:22Z</time>
      </trkpt>
      <trkpt lat="51.512089" lon="-0.047326">
        <ele>9.8</ele>
        <time>2026-04-21T11:12:40Z</time>
      </trkpt>
      <trkpt lat="51.512100" lon="-0.046471">
        <ele>9.7</ele>
        <time>2026-04-21T11:12:57Z</time>
      </trkpt>
      <trkpt lat="51.512118" lon="-0.045624">
        <ele>9.6</ele>
        <time>2026-04-21T11:13:15Z</time>
      </trkpt>
      <trkpt lat="51.512138" lon="-0.044784">
        <ele>9.5</ele>
        <time>2026-04-21T11:13:32Z</time>
      </trkpt>
      <trkpt lat="51.512150" lon="-0.043949">
        <ele>9.4</ele>
        <time>2026-04-21T11:13:50Z</time>
      </trkpt>
      <trkpt lat="51.512147" lon="-0.043122">
        <ele>9.3</ele>
        <time>2026-04-21T11:14:07Z</time>
      </trkpt>
      <trkpt lat="51.512123" lon="-0.042306">
        <ele>9.3</ele>
        <time>2026-04-21T11:14:25Z</time>
      </trkpt>
      <trkpt lat="51.512080" lon="-0.041506">
        <ele>9.2</ele>
        <time>2026-04-21T11:14:42Z</time>
      </trkpt>
      <trkpt lat="51.512027" lon="-0.040727">
        <ele>9.1</ele>
        <time>2026-04-21T11:15:00Z</time>
      </trkpt>
      <trkpt lat="51.512000" lon="-0.039970">
        <ele>9.0</ele>
        <time>2026-04-21T11:15:17Z</time>
      </trkpt>
      <trkpt lat="51.511983" lon="-0.039246">
        <ele>8.9</ele>
        <time>2026-04-21T11:15:35Z</time>
      </trkpt>
      <trkpt lat="51.511964" lon="-0.038533">
        <ele>8.8</ele>
        <time>2026-04-21T11:15:52Z</time>
      </trkpt>
      <trkpt lat="51.511938" lon="-0.037829">
        <ele>8.8</ele>
        <time>2026-04-21T11:16:10Z</time>
      </trkpt>
      <trkpt lat="51.511904" lon="-0.037131">
        <ele>8.7</ele>
        <time>2026-04-21T11:16:27Z</time>
      </trkpt>
      <trkpt lat="51.511866" lon="-0.036435">
        <ele>8.7</ele>
        <time>2026-04-21T11:16:45Z</time>
      </trkpt>
      <trkpt lat="51.511833" lon="-0.035741">
        <ele>8.6</ele>
        <time>2026-04-21T11:17:02Z</time>
      </trkpt>
      <trkpt lat="51.511810" lon="-0.035046">
        <ele>8.6</ele>
        <time>2026-04-21T11:17:20Z</time>
      </trkpt>
      <trkpt lat="51.511796" lon="-0.034353">
        <ele>8.6</ele>
        <time>2026-04-21T11:17:37Z</time>
      </trkpt>
      <trkpt lat="51.511784" lon="-0.033664">
        <ele>8.5</ele>
        <time>2026-04-21T11:17:55Z</time>
      </trkpt>
      <trkpt lat="51.511762" lon="-0.032982">
        <ele>8.5</ele>
        <time>2026-04-21T11:18:12Z</time>
      </trkpt>
      <trkpt lat="51.511720" lon="-0.032312">
        <ele>8.5</ele>
        <time>2026-04-21T11:18:30Z</time>
      </trkpt>
      <trkpt lat="51.511651" lon="-0.031659">
        <ele>8.4</ele>
        <time>2026-04-21T11:18:47Z</time>
      </trkpt>
      <trkpt lat="51.511553" lon="-0.031023">
        <ele>8.4</ele>
        <time>2026-04-21T11:19:05Z</time>
      </trkpt>
      <trkpt lat="51.511434" lon="-0.030407">
        <ele>8.4</ele>
        <time>2026-04-21T11:19:22Z</time>
      </trkpt>
      <trkpt lat="51.511300" lon="-0.029809">
        <ele>8.4</ele>
        <time>2026-04-21T11:19:40Z</time>
      </trkpt>
      <trkpt lat="51.511156" lon="-0.029227">
        <ele>8.3</ele>
        <time>2026-04-21T11:19:57Z</time>
      </trkpt>
      <trkpt lat="51.511001" lon="-0.028657">
        <ele>8.3</ele>
        <time>2026-04-21T11:20:15Z</time>
      </trkpt>
      <trkpt lat="51.510829" lon="-0.028098">
        <ele>8.3</ele>
        <time>2026-04-21T11:20:32Z</time>
      </trkpt>
      <trkpt lat="51.510628" lon="-0.027547">
        <ele>8.2</ele>
        <time>2026-04-21T11:20:50Z</time>
      </trkpt>
      <trkpt lat="51.510386" lon="-0.027004">
        <ele>8.2</ele>
        <time>2026-04-21T11:21:07Z</time>
      </trkpt>
      <trkpt lat="51.510098" lon="-0.026472">
        <ele>8.2</ele>
        <time>2026-04-21T11:21:25Z</time>
      </trkpt>
      <trkpt lat="51.509762" lon="-0.025954">
        <ele>8.1</ele>
        <time>2026-04-21T11:21:42Z</time>
      </trkpt>
      <trkpt lat="51.509385" lon="-0.025453">
        <ele>8.1</ele>
        <time>2026-04-21T11:22:00Z</time>
      </trkpt>
      <trkpt lat="51.509000" lon="-0.024970">
        <ele>8.0</ele>
        <time>2026-04-21T11:22:17Z</time>
      </trkpt>
      <trkpt lat="51.508560" lon="-0.024531">
        <ele>7.9</ele>
        <time>2026-04-21T11:22:35Z</time>
      </trkpt>
      <trkpt lat="51.508030" lon="-0.024127">
        <ele>7.9</ele>
        <time>2026-04-21T11:22:52Z</time>
      </trkpt>
      <trkpt lat="51.507414" lon="-0.023754">
        <ele>7.8</ele>
        <time>2026-04-21T11:23:10Z</time>
      </trkpt>
      <trkpt lat="51.506721" lon="-0.023406">
        <ele>7.7</ele>
        <time>2026-04-21T11:23:27Z</time>
      </trkpt>
      <trkpt lat="51.505967" lon="-0.023078">
        <ele>7.6</ele>
        <time>2026-04-21T11:23:45Z</time>
      </trkpt>
      <trkpt lat="51.505169" lon="-0.022764">
        <ele>7.5</ele>
        <time>2026-04-21T11:24:02Z</time>
      </trkpt>
      <trkpt lat="51.504344" lon="-0.022461">
        <ele>7.4</ele>
        <time>2026-04-21T11:24:20Z</time>
      </trkpt>
      <trkpt lat="51.503500" lon="-0.022168">
        <ele>7.3</ele>
        <time>2026-04-21T11:24:37Z</time>
      </trkpt>
      <trkpt lat="51.502640" lon="-0.021883">
        <ele>7.2</ele>
        <time>2026-04-21T11:24:55Z</time>
      </trkpt>
      <trkpt lat="51.501764" lon="-0.021609">
        <ele>7.1</ele>
        <time>2026-04-21T11:25:12Z</time>
      </trkpt>
      <trkpt lat="51.500871" lon="-0.021346">
        <ele>7.0</ele>
        <time>2026-04-21T11:25:30Z</time>
      </trkpt>
      <trkpt lat="51.499963" lon="-0.021096">
        <ele>6.9</ele>
        <time>2026-04-21T11:25:47Z</time>
      </trkpt>
      <trkpt lat="51.499051" lon="-0.020858">
        <ele>6.8</ele>
        <time>2026-04-21T11:26:05Z</time>
      </trkpt>
      <trkpt lat="51.498151" lon="-0.020631">
        <ele>6.7</ele>
        <time>2026-04-21T11:26:22Z</time>
      </trkpt>
      <trkpt lat="51.497279" lon="-0.020410">
        <ele>6.6</ele>
        <time>2026-04-21T11:26:40Z</time>
      </trkpt>
      <trkpt lat="51.496452" lon="-0.020190">
        <ele>6.5</ele>
        <time>2026-04-21T11:26:57Z</time>
      </trkpt>
      <trkpt lat="51.495679" lon="-0.019965">
        <ele>6.4</ele>
        <time>2026-04-21T11:27:15Z</time>
      </trkpt>
      <trkpt lat="51.494962" lon="-0.019730">
        <ele>6.3</ele>
        <time>2026-04-21T11:27:32Z</time>
      </trkpt>
      <trkpt lat="51.494301" lon="-0.019481">
        <ele>6.2</ele>
        <time>2026-04-21T11:27:50Z</time>
      </trkpt>
      <trkpt lat="51.493694" lon="-0.019215">
        <ele>6.2</ele>
        <time>2026-04-21T11:28:07Z</time>
      </trkpt>
      <trkpt lat="51.493145" lon="-0.018930">
        <ele>6.1</ele>
        <time>2026-04-21T11:28:25Z</time>
      </trkpt>
      <trkpt lat="51.492665" lon="-0.018628">
        <ele>6.1</ele>
        <time>2026-04-21T11:28:42Z</time>
      </trkpt>
      <trkpt lat="51.492268" lon="-0.018309">
        <ele>6.0</ele>
        <time>2026-04-21T11:29:00Z</time>
      </trkpt>
      <trkpt lat="51.492000" lon="-0.017970">
        <ele>6.0</ele>
        <time>2026-04-21T11:29:17Z</time>
      </trkpt>
      <trkpt lat="51.491830" lon="-0.017621">
        <ele>6.0</ele>
        <time>2026-04-21T11:29:35Z</time>
      </trkpt>
      <trkpt lat="51.491727" lon="-0.017244">
        <ele>6.0</ele>
        <time>2026-04-21T11:29:52Z</time>
      </trkpt>
      <trkpt lat="51.491680" lon="-0.016839">
        <ele>6.0</ele>
        <time>2026-04-21T11:30:10Z</time>
      </trkpt>
      <trkpt lat="51.491687" lon="-0.016409">
        <ele>6.0</ele>
        <time>2026-04-21T11:30:27Z</time>
      </trkpt>
      <trkpt lat="51.491750" lon="-0.015955">
        <ele>6.0</ele>
        <time>2026-04-21T11:30:45Z</time>
      </trkpt>
      <trkpt lat="51.491873" lon="-0.015477">
        <ele>6.0</ele>
        <time>2026-04-21T11:31:02Z</time>
      </trkpt>
      <trkpt lat="51.492059" lon="-0.014980">
        <ele>6.1</ele>
        <time>2026-04-21T11:31:20Z</time>
      </trkpt>
      <trkpt lat="51.492303" lon="-0.014468">
        <ele>6.1</ele>
        <time>2026-04-21T11:31:37Z</time>
      </trkpt>
      <trkpt lat="51.492597" lon="-0.013947">
        <ele>6.2</ele>
        <time>2026-04-21T11:31:55Z</time>
      </trkpt>
      <trkpt lat="51.492925" lon="-0.013426">
        <ele>6.2</ele>
        <time>2026-04-21T11:32:12Z</time>
      </trkpt>
      <trkpt lat="51.493273" lon="-0.012913">
        <ele>6.3</ele>
        <time>2026-04-21T11:32:30Z</time>
      </trkpt>
      <trkpt lat="51.493632" lon="-0.012415">
        <ele>6.3</ele>
        <time>2026-04-21T11:32:47Z</time>
      </trkpt>
      <trkpt lat="51.493998" lon="-0.011939">
        <ele>6.4</ele>
        <time>2026-04-21T11:33:05Z</time>
      </trkpt>
      <trkpt lat="51.494374" lon="-0.011489">
        <ele>6.4</ele>
        <time>2026-04-21T11:33:22Z</time>
      </trkpt>
      <trkpt lat="51.494764" lon="-0.011068">
        <ele>6.5</ele>
        <time>2026-04-21T11:33:40Z</time>
      </trkpt>
      <trkpt lat="51.495171" lon="-0.010678">
        <ele>6.6</ele>
        <time>2026-04-21T11:33:57Z</time>
      </trkpt>
      <trkpt lat="51.495590" lon="-0.010320">
        <ele>6.6</ele>
        <time>2026-04-21T11:34:15Z</time>
      </trkpt>
      <trkpt lat="51.496011" lon="-0.009995">
        <ele>6.7</ele>
        <time>2026-04-21T11:34:32Z</time>
      </trkpt>
      <trkpt lat="51.496421" lon="-0.009705">
        <ele>6.7</ele>
        <time>2026-04-21T11:34:50Z</time>
      </trkpt>
      <trkpt lat="51.496804" lon="-0.009455">
        <ele>6.8</ele>
        <time>2026-04-21T11:35:07Z</time>
      </trkpt>
      <trkpt lat="51.497152" lon="-0.009249">
        <ele>6.9</ele>
        <time>2026-04-21T11:35:25Z</time>
      </trkpt>
      <trkpt lat="51.497460" lon="-0.009095">
        <ele>6.9</ele>
        <time>2026-04-21T11:35:42Z</time>
      </trkpt>
      <trkpt lat="51.497733" lon="-0.009001">
        <ele>7.0</ele>
        <time>2026-04-21T11:36:00Z</time>
      </trkpt>
      <trkpt lat="51.498000" lon="-0.008970">
        <ele>7.0</ele>
        <time>2026-04-21T11:36:17Z</time>
      </trkpt>
      <trkpt lat="51.498250" lon="-0.009033">
        <ele>7.0</ele>
        <time>2026-04-21T11:36:35Z</time>
      </trkpt>
      <trkpt lat="51.498482" lon="-0.009178">
        <ele>7.1</ele>
        <time>2026-04-21T11:36:52Z</time>
      </trkpt>
      <trkpt lat="51.498692" lon="-0.009398">
        <ele>7.1</ele>
        <time>2026-04-21T11:37:10Z</time>
      </trkpt>
      <trkpt lat="51.498883" lon="-0.009682">
        <ele>7.2</ele>
        <time>2026-04-21T11:37:27Z</time>
      </trkpt>
      <trkpt lat="51.499064" lon="-0.010021">
        <ele>7.2</ele>
        <time>2026-04-21T11:37:45Z</time>
      </trkpt>
      <trkpt lat="51.499245" lon="-0.010405">
        <ele>7.2</ele>
        <time>2026-04-21T11:38:02Z</time>
      </trkpt>
      <trkpt lat="51.499435" lon="-0.010828">
        <ele>7.3</ele>
        <time>2026-04-21T11:38:20Z</time>
      </trkpt>
      <trkpt lat="51.499637" lon="-0.011283">
        <ele>7.3</ele>
        <time>2026-04-21T11:38:37Z</time>
      </trkpt>
      <trkpt lat="51.499846" lon="-0.011765">
        <ele>7.3</ele>
        <time>2026-04-21T11:38:55Z</time>
      </trkpt>
      <trkpt lat="51.500055" lon="-0.012273">
        <ele>7.4</ele>
        <time>2026-04-21T11:39:12Z</time>
      </trkpt>
      <trkpt lat="51.500256" lon="-0.012803">
        <ele>7.4</ele>
        <time>2026-04-21T11:39:30Z</time>
      </trkpt>
      <trkpt lat="51.500444" lon="-0.013352">
        <ele>7.4</ele>
        <time>2026-04-21T11:39:47Z</time>
      </trkpt>
      <trkpt lat="51.500624" lon="-0.013917">
        <ele>7.5</ele>
        <time>2026-04-21T11:40:05Z</time>
      </trkpt>
      <trkpt lat="51.500804" lon="-0.014490">
        <ele>7.5</ele>
        <time>2026-04-21T11:40:22Z</time>
      </trkpt>
      <trkpt lat="51.500995" lon="-0.015064">
        <ele>7.6</ele>
        <time>2026-04-21T11:40:40Z</time>
      </trkpt>
      <trkpt lat="51.501204" lon="-0.015630">
        <ele>7.6</ele>
        <time>2026-04-21T11:40:57Z</time>
      </trkpt>
      <trkpt lat="51.501435" lon="-0.016178">
        <ele>7.6</ele>
        <time>2026-04-21T11:41:15Z</time>
      </trkpt>
      <trkpt lat="51.501683" lon="-0.016698">
        <ele>7.7</ele>
        <time>2026-04-21T11:41:32Z</time>
      </trkpt>
      <trkpt lat="51.501941" lon="-0.017183">
        <ele>7.7</ele>
        <time>2026-04-21T11:41:50Z</time>
      </trkpt>
      <trkpt lat="51.502200" lon="-0.017624">
        <ele>7.8</ele>
        <time>2026-04-21T11:42:07Z</time>
      </trkpt>
      <trkpt lat="51.502457" lon="-0.018017">
        <ele>7.8</ele>
        <time>2026-04-21T11:42:25Z</time>
      </trkpt>
      <trkpt lat="51.502716" lon="-0.018358">
        <ele>7.9</ele>
        <time>2026-04-21T11:42:42Z</time>
      </trkpt>
      <trkpt lat="51.502984" lon="-0.018645">
        <ele>7.9</ele>
        <time>2026-04-21T11:43:00Z</time>
      </trkpt>
      <trkpt lat="51.503300" lon="-0.018870">
        <ele>8.0</ele>
        <time>2026-04-21T11:43:17Z</time>
      </trkpt>
      <trkpt lat="51.503649" lon="-0.019040">
        <ele>8.1</ele>
        <time>2026-04-21T11:43:35Z</time>
      </trkpt>
      <trkpt lat="51.504021" lon="-0.019137">
        <ele>8.1</ele>
        <time>2026-04-21T11:43:52Z</time>
      </trkpt>
      <trkpt lat="51.504408" lon="-0.019168">
        <ele>8.2</ele>
        <time>2026-04-21T11:44:10Z</time>
      </trkpt>
      <trkpt lat="51.504808" lon="-0.019139">
        <ele>8.3</ele>
        <time>2026-04-21T11:44:27Z</time>
      </trkpt>
      <trkpt lat="51.505224" lon="-0.019054">
        <ele>8.4</ele>
        <time>2026-04-21T11:44:45Z</time>
      </trkpt>
      <trkpt lat="51.505664" lon="-0.018920">
        <ele>8.5</ele>
        <time>2026-04-21T11:45:02Z</time>
      </trkpt>
      <trkpt lat="51.506130" lon="-0.018743">
        <ele>8.5</ele>
        <time>2026-04-21T11:45:20Z</time>
      </trkpt>
      <trkpt lat="51.506622" lon="-0.018534">
        <ele>8.6</ele>
        <time>2026-04-21T11:45:37Z</time>
      </trkpt>
      <trkpt lat="51.507130" lon="-0.018304">
        <ele>8.7</ele>
        <time>2026-04-21T11:45:55Z</time>
      </trkpt>
      <trkpt lat="51.507642" lon="-0.018063">
        <ele>8.8</ele>
        <time>2026-04-21T11:46:12Z</time>
      </trkpt>
      <trkpt lat="51.508145" lon="-0.017825">
        <ele>8.9</ele>
        <time>2026-04-21T11:46:30Z</time>
      </trkpt>
      <trkpt lat="51.508632" lon="-0.017602">
        <ele>9.0</ele>
        <time>2026-04-21T11:46:47Z</time>
      </trkpt>
      <trkpt lat="51.509100" lon="-0.017405">
        <ele>9.1</ele>
        <time>2026-04-21T11:47:05Z</time>
      </trkpt>
      <trkpt lat="51.509554" lon="-0.017241">
        <ele>9.2</ele>
        <time>2026-04-21T11:47:22Z</time>
      </trkpt>
      <trkpt lat="51.510000" lon="-0.017120">
        <ele>9.3</ele>
        <time>2026-04-21T11:47:40Z</time>
      </trkpt>
      <trkpt lat="51.510441" lon="-0.017045">
        <ele>9.4</ele>
        <time>2026-04-21T11:47:57Z</time>
      </trkpt>
      <trkpt lat="51.510876" lon="-0.017023">
        <ele>9.5</ele>
        <time>2026-04-21T11:48:15Z</time>
      </trkpt>
      <trkpt lat="51.511296" lon="-0.017059">
        <ele>9.5</ele>
        <time>2026-04-21T11:48:32Z</time>
      </trkpt>
      <trkpt lat="51.511687" lon="-0.017160">
        <ele>9.6</ele>
        <time>2026-04-21T11:48:50Z</time>
      </trkpt>
      <trkpt lat="51.512039" lon="-0.017334">
        <ele>9.7</ele>
        <time>2026-04-21T11:49:07Z</time>
      </trkpt>
      <trkpt lat="51.512343" lon="-0.017590">
        <ele>9.8</ele>
        <time>2026-04-21T11:49:25Z</time>
      </trkpt>
      <trkpt lat="51.512596" lon="-0.017941">
        <ele>9.9</ele>
        <time>2026-04-21T11:49:42Z</time>
      </trkpt>
      <trkpt lat="51.512805" lon="-0.018398">
        <ele>9.9</ele>
        <time>2026-04-21T11:50:00Z</time>
      </trkpt>
      <trkpt lat="51.513000" lon="-0.018970">
        <ele>10.0</ele>
        <time>2026-04-21T11:50:17Z</time>
      </trkpt>
      <trkpt lat="51.513161" lon="-0.019678">
        <ele>10.1</ele>
        <time>2026-04-21T11:50:35Z</time>
      </trkpt>
      <trkpt lat="51.513275" lon="-0.020501">
        <ele>10.1</ele>
        <time>2026-04-21T11:50:52Z</time>
      </trkpt>
      <trkpt lat="51.513342" lon="-0.021429">
        <ele>10.2</ele>
        <time>2026-04-21T11:51:10Z</time>
      </trkpt>
      <trkpt lat="51.513364" lon="-0.022450">
        <ele>10.2</ele>
        <time>2026-04-21T11:51:27Z</time>
      </trkpt>
      <trkpt lat="51.513352" lon="-0.023553">
        <ele>10.2</ele>
        <time>2026-04-21T11:51:45Z</time>
      </trkpt>
      <trkpt lat="51.513318" lon="-0.024727">
        <ele>10.3</ele>
        <time>2026-04-21T11:52:02Z</time>
      </trkpt>
      <trkpt lat="51.513270" lon="-0.025962">
        <ele>10.3</ele>
        <time>2026-04-21T11:52:20Z</time>
      </trkpt>
      <trkpt lat="51.513214" lon="-0.027253">
        <ele>10.3</ele>
        <time>2026-04-21T11:52:37Z</time>
      </trkpt>
      <trkpt lat="51.513147" lon="-0.028592">
        <ele>10.4</ele>
        <time>2026-04-21T11:52:55Z</time>
      </trkpt>
      <trkpt lat="51.513061" lon="-0.029976">
        <ele>10.4</ele>
        <time>2026-04-21T11:53:12Z</time>
      </trkpt>
      <trkpt lat="51.512951" lon="-0.031400">
        <ele>10.4</ele>
        <time>2026-04-21T11:53:30Z</time>
      </trkpt>
      <trkpt lat="51.512813" lon="-0.032859">
        <ele>10.4</ele>
        <time>2026-04-21T11:53:47Z</time>
      </trkpt>
      <trkpt lat="51.512652" lon="-0.034347">
        <ele>10.5</ele>
        <time>2026-04-21T11:54:05Z</time>
      </trkpt>
      <trkpt lat="51.512479" lon="-0.035858">
        <ele>10.5</ele>
        <time>2026-04-21T11:54:22Z</time>
      </trkpt>
      <trkpt lat="51.512304" lon="-0.037380">
        <ele>10.5</ele>
        <time>2026-04-21T11:54:40Z</time>
      </trkpt>
      <trkpt lat="51.512137" lon="-0.038904">
        <ele>10.6</ele>
        <time>2026-04-21T11:54:57Z</time>
      </trkpt>
      <trkpt lat="51.511983" lon="-0.040419">
        <ele>10.6</ele>
        <time>2026-04-21T11:55:15Z</time>
      </trkpt>
      <trkpt lat="51.511839" lon="-0.041912">
        <ele>10.6</ele>
        <time>2026-04-21T11:55:32Z</time>
      </trkpt>
      <trkpt lat="51.511697" lon="-0.043374">
        <ele>10.7</ele>
        <time>2026-04-21T11:55:50Z</time>
      </trkpt>
      <trkpt lat="51.511551" lon="-0.044796">
        <ele>10.7</ele>
        <time>2026-04-21T11:56:07Z</time>
      </trkpt>
      <trkpt lat="51.511398" lon="-0.046172">
        <ele>10.8</ele>
        <time>2026-04-21T11:56:25Z</time>
      </trkpt>
      <trkpt lat="51.511245" lon="-0.047497">
        <ele>10.8</ele>
        <time>2026-04-21T11:56:42Z</time>
      </trkpt>
      <trkpt lat="51.511099" lon="-0.048766">
        <ele>10.9</ele>
        <time>2026-04-21T11:57:00Z</time>
      </trkpt>
      <trkpt lat="51.511000" lon="-0.049970">
        <ele>11.0</ele>
        <time>2026-04-21T11:57:17Z</time>
      </trkpt>
      <trkpt lat="51.510912" lon="-0.051156">
        <ele>11.1</ele>
        <time>2026-04-21T11:57:35Z</time>
      </trkpt>
      <trkpt lat="51.510806" lon="-0.052342">
        <ele>11.2</ele>
        <time>2026-04-21T11:57:52Z</time>
      </trkpt>
      <trkpt lat="51.510677" lon="-0.053526">
        <ele>11.3</ele>
        <time>2026-04-21T11:58:10Z</time>
      </trkpt>
      <trkpt lat="51.510529" lon="-0.054703">
        <ele>11.4</ele>
        <time>2026-04-21T11:58:27Z</time>
      </trkpt>
      <trkpt lat="51.510370" lon="-0.055870">
        <ele>11.6</ele>
        <time>2026-04-21T11:58:45Z</time>
      </trkpt>
      <trkpt lat="51.510211" lon="-0.057023">
        <ele>11.7</ele>
        <time>2026-04-21T11:59:02Z</time>
      </trkpt>
      <trkpt lat="51.510061" lon="-0.058160">
        <ele>11.9</ele>
        <time>2026-04-21T11:59:20Z</time>
      </trkpt>
      <trkpt lat="51.509922" lon="-0.059283">
        <ele>12.0</ele>
        <time>2026-04-21T11:59:37Z</time>
      </trkpt>
      <trkpt lat="51.509790" lon="-0.060391">
        <ele>12.2</ele>
        <time>2026-04-21T11:59:55Z</time>
      </trkpt>
      <trkpt lat="51.509657" lon="-0.061489">
        <ele>12.4</ele>
        <time>2026-04-21T12:00:12Z</time>
      </trkpt>
      <trkpt lat="51.509516" lon="-0.062579">
        <ele>12.5</ele>
        <time>2026-04-21T12:00:30Z</time>
      </trkpt>
      <trkpt lat="51.509363" lon="-0.063665">
        <ele>12.7</ele>
        <time>2026-04-21T12:00:47Z</time>
      </trkpt>
      <trkpt lat="51.509201" lon="-0.064747">
        <ele>12.8</ele>
        <time>2026-04-21T12:01:05Z</time>
      </trkpt>
      <trkpt lat="51.509038" lon="-0.065826">
        <ele>13.0</ele>
        <time>2026-04-21T12:01:22Z</time>
      </trkpt>
      <trkpt lat="51.508886" lon="-0.066899">
        <ele>13.2</ele>
        <time>2026-04-21T12:01:40Z</time>
      </trkpt>
      <trkpt lat="51.508752" lon="-0.067964">
        <ele>13.3</ele>
        <time>2026-04-21T12:01:57Z</time>
      </trkpt>
      <trkpt lat="51.508640" lon="-0.069015">
        <ele>13.4</ele>
        <time>2026-04-21T12:02:15Z</time>
      </trkpt>
      <trkpt lat="51.508545" lon="-0.070050">
        <ele>13.6</ele>
        <time>2026-04-21T12:02:32Z</time>
      </trkpt>
      <trkpt lat="51.508459" lon="-0.071066">
        <ele>13.7</ele>
        <time>2026-04-21T12:02:50Z</time>
      </trkpt>
      <trkpt lat="51.508375" lon="-0.072061">
        <ele>13.8</ele>
        <time>2026-04-21T12:03:07Z</time>
      </trkpt>
      <trkpt lat="51.508288" lon="-0.073037">
        <ele>13.9</ele>
        <time>2026-04-21T12:03:25Z</time>
      </trkpt>
      <trkpt lat="51.508203" lon="-0.073996">
        <ele>13.9</ele>
        <time>2026-04-21T12:03:42Z</time>
      </trkpt>
      <trkpt lat="51.508128" lon="-0.074941">
        <ele>14.0</ele>
        <time>2026-04-21T12:04:00Z</time>
      </trkpt>
      <trkpt lat="51.508100" lon="-0.075870">
        <ele>14.0</ele>
        <time>2026-04-21T12:04:17Z</time>
      </trkpt>
      <trkpt lat="51.508095" lon="-0.076798">
        <ele>14.0</ele>
        <time>2026-04-21T12:04:35Z</time>
      </trkpt>
      <trkpt lat="51.508094" lon="-0.077707">
        <ele>14.0</ele>
        <time>2026-04-21T12:04:52Z</time>
      </trkpt>
      <trkpt lat="51.508092" lon="-0.078598">
        <ele>14.0</ele>
        <time>2026-04-21T12:05:10Z</time>
      </trkpt>
      <trkpt lat="51.508090" lon="-0.079467">
        <ele>13.9</ele>
        <time>2026-04-21T12:05:27Z</time>
      </trkpt>
      <trkpt lat="51.508094" lon="-0.080314">
        <ele>13.9</ele>
        <time>2026-04-21T12:05:45Z</time>
      </trkpt>
      <trkpt lat="51.508112" lon="-0.081138">
        <ele>13.8</ele>
        <time>2026-04-21T12:06:02Z</time>
      </trkpt>
      <trkpt lat="51.508152" lon="-0.081939">
        <ele>13.8</ele>
        <time>2026-04-21T12:06:20Z</time>
      </trkpt>
      <trkpt lat="51.508214" lon="-0.082720">
        <ele>13.7</ele>
        <time>2026-04-21T12:06:37Z</time>
      </trkpt>
      <trkpt lat="51.508293" lon="-0.083483">
        <ele>13.6</ele>
        <time>2026-04-21T12:06:55Z</time>
      </trkpt>
      <trkpt lat="51.508378" lon="-0.084236">
        <ele>13.5</ele>
        <time>2026-04-21T12:07:12Z</time>
      </trkpt>
      <trkpt lat="51.508459" lon="-0.084982">
        <ele>13.4</ele>
        <time>2026-04-21T12:07:30Z</time>
      </trkpt>
      <trkpt lat="51.508532" lon="-0.085727">
        <ele>13.2</ele>
        <time>2026-04-21T12:07:47Z</time>
      </trkpt>
      <trkpt lat="51.508596" lon="-0.086476">
        <ele>13.1</ele>
        <time>2026-04-21T12:08:05Z</time>
      </trkpt>
      <trkpt lat="51.508660" lon="-0.087229">
        <ele>13.0</ele>
        <time>2026-04-21T12:08:22Z</time>
      </trkpt>
      <trkpt lat="51.508730" lon="-0.087987">
        <ele>12.9</ele>
        <time>2026-04-21T12:08:40Z</time>
      </trkpt>
      <trkpt lat="51.508815" lon="-0.088749">
        <ele>12.8</ele>
        <time>2026-04-21T12:08:57Z</time>
      </trkpt>
      <trkpt lat="51.508914" lon="-0.089513">
        <ele>12.7</ele>
        <time>2026-04-21T12:09:15Z</time>
      </trkpt>
      <trkpt lat="51.509022" lon="-0.090278">
        <ele>12.5</ele>
        <time>2026-04-21T12:09:32Z</time>
      </trkpt>
      <trkpt lat="51.509128" lon="-0.091044">
        <ele>12.4</ele>
        <time>2026-04-21T12:09:50Z</time>
      </trkpt>
      <trkpt lat="51.509223" lon="-0.091811">
        <ele>12.3</ele>
        <time>2026-04-21T12:10:07Z</time>
      </trkpt>
      <trkpt lat="51.509302" lon="-0.092582">
        <ele>12.2</ele>
        <time>2026-04-21T12:10:25Z</time>
      </trkpt>
      <trkpt lat="51.509365" lon="-0.093363">
        <ele>12.1</ele>
        <time>2026-04-21T12:10:42Z</time>
      </trkpt>
      <trkpt lat="51.509419" lon="-0.094159">
        <ele>12.1</ele>
        <time>2026-04-21T12:11:00Z</time>
      </trkpt>
      <trkpt lat="51.509500" lon="-0.094970">
        <ele>12.0</ele>
        <time>2026-04-21T12:11:17Z</time>
      </trkpt>
      <trkpt lat="51.509594" lon="-0.095825">
        <ele>11.9</ele>
        <time>2026-04-21T12:11:35Z</time>
      </trkpt>
      <trkpt lat="51.509695" lon="-0.096715">
        <ele>11.9</ele>
        <time>2026-04-21T12:11:52Z</time>
      </trkpt>
      <trkpt lat="51.509794" lon="-0.097634">
        <ele>11.8</ele>
        <time>2026-04-21T12:12:10Z</time>
      </trkpt>
      <trkpt lat="51.509892" lon="-0.098576">
        <ele>11.8</ele>
        <time>2026-04-21T12:12:27Z</time>
      </trkpt>
      <trkpt lat="51.509995" lon="-0.099533">
        <ele>11.7</ele>
        <time>2026-04-21T12:12:45Z</time>
      </trkpt>
      <trkpt lat="51.510109" lon="-0.100498">
        <ele>11.6</ele>
        <time>2026-04-21T12:13:02Z</time>
      </trkpt>
      <trkpt lat="51.510240" lon="-0.101466">
        <ele>11.6</ele>
        <time>2026-04-21T12:13:20Z</time>
      </trkpt>
      <trkpt lat="51.510388" lon="-0.102434">
        <ele>11.5</ele>
        <time>2026-04-21T12:13:37Z</time>
      </trkpt>
      <trkpt lat="51.510546" lon="-0.103401">
        <ele>11.5</ele>
        <time>2026-04-21T12:13:55Z</time>
      </trkpt>
      <trkpt lat="51.510702" lon="-0.104366">
        <ele>11.4</ele>
        <time>2026-04-21T12:14:12Z</time>
      </trkpt>
      <trkpt lat="51.510845" lon="-0.105329">
        <ele>11.4</ele>
        <time>2026-04-21T12:14:30Z</time>
      </trkpt>
      <trkpt lat="51.510969" lon="-0.106290">
        <ele>11.3</ele>
        <time>2026-04-21T12:14:47Z</time>
      </trkpt>
      <trkpt lat="51.511074" lon="-0.107246">
        <ele>11.3</ele>
        <time>2026-04-21T12:15:05Z</time>
      </trkpt>
      <trkpt lat="51.511164" lon="-0.108195">
        <ele>11.2</ele>
        <time>2026-04-21T12:15:22Z</time>
      </trkpt>
      <trkpt lat="51.511248" lon="-0.109130">
        <ele>11.2</ele>
        <time>2026-04-21T12:15:40Z</time>
      </trkpt>
      <trkpt lat="51.511330" lon="-0.110045">
        <ele>11.1</ele>
        <time>2026-04-21T12:15:57Z</time>
      </trkpt>
      <trkpt lat="51.511410" lon="-0.110933">
        <ele>11.1</ele>
        <time>2026-04-21T12:16:15Z</time>
      </trkpt>
      <trkpt lat="51.511481" lon="-0.111787">
        <ele>11.1</ele>
        <time>2026-04-21T12:16:32Z</time>
      </trkpt>
      <trkpt lat="51.511532" lon="-0.112602">
        <ele>11.1</ele>
        <time>2026-04-21T12:16:50Z</time>
      </trkpt>
      <trkpt lat="51.511552" lon="-0.113371">
        <ele>11.0</ele>
        <time>2026-04-21T12:17:07Z</time>
      </trkpt>
      <trkpt lat="51.511533" lon="-0.114094">
        <ele>11.0</ele>
        <time>2026-04-21T12:17:25Z</time>
      </trkpt>
      <trkpt lat="51.511476" lon="-0.114769">
        <ele>11.0</ele>
        <time>2026-04-21T12:17:42Z</time>
      </trkpt>
      <trkpt lat="51.511387" lon="-0.115396">
        <ele>11.0</ele>
        <time>2026-04-21T12:18:00Z</time>
      </trkpt>
      <trkpt lat="51.511300" lon="-0.115970">
        <ele>11.0</ele>
        <time>2026-04-21T12:18:17Z</time>
      </trkpt>
      <trkpt lat="51.511186" lon="-0.116514">
        <ele>11.0</ele>
        <time>2026-04-21T12:18:35Z</time>
      </trkpt>
      <trkpt lat="51.511027" lon="-0.117020">
        <ele>11.0</ele>
        <time>2026-04-21T12:18:52Z</time>
      </trkpt>
      <trkpt lat="51.510822" lon="-0.117489">
        <ele>11.0</ele>
        <time>2026-04-21T12:19:10Z</time>
      </trkpt>
      <trkpt lat="51.510574" lon="-0.117920">
        <ele>11.1</ele>
        <time>2026-04-21T12:19:27Z</time>
      </trkpt>
      <trkpt lat="51.510294" lon="-0.118312">
        <ele>11.1</ele>
        <time>2026-04-21T12:19:45Z</time>
      </trkpt>
      <trkpt lat="51.509995" lon="-0.118664">
        <ele>11.1</ele>
        <time>2026-04-21T12:20:02Z</time>
      </trkpt>
      <trkpt lat="51.509687" lon="-0.118978">
        <ele>11.2</ele>
        <time>2026-04-21T12:20:20Z</time>
      </trkpt>
      <trkpt lat="51.509374" lon="-0.119257">
        <ele>11.2</ele>
        <time>2026-04-21T12:20:37Z</time>
      </trkpt>
      <trkpt lat="51.509054" lon="-0.119504">
        <ele>11.3</ele>
        <time>2026-04-21T12:20:55Z</time>
      </trkpt>
      <trkpt lat="51.508721" lon="-0.119727">
        <ele>11.3</ele>
        <time>2026-04-21T12:21:12Z</time>
      </trkpt>
      <trkpt lat="51.508368" lon="-0.119931">
        <ele>11.4</ele>
        <time>2026-04-21T12:21:30Z</time>
      </trkpt>
      <trkpt lat="51.507994" lon="-0.120121">
        <ele>11.4</ele>
        <time>2026-04-21T12:21:47Z</time>
      </trkpt>
      <trkpt lat="51.507604" lon="-0.120303">
        <ele>11.5</ele>
        <time>2026-04-21T12:22:05Z</time>
      </trkpt>
      <trkpt lat="51.507208" lon="-0.120478">
        <ele>11.6</ele>
        <time>2026-04-21T12:22:22Z</time>
      </trkpt>
      <trkpt lat="51.506818" lon="-0.120648">
        <ele>11.6</ele>
        <time>2026-04-21T12:22:40Z</time>
      </trkpt>
      <trkpt lat="51.506445" lon="-0.120812">
        <ele>11.7</ele>
        <time>2026-04-21T12:22:57Z</time>
      </trkpt>
      <trkpt lat="51.506092" lon="-0.120969">
        <ele>11.7</ele>
        <time>2026-04-21T12:23:15Z</time>
      </trkpt>
      <trkpt lat="51.505758" lon="-0.121118">
        <ele>11.8</ele>
        <time>2026-04-21T12:23:32Z</time>
      </trkpt>
      <trkpt lat="51.505436" lon="-0.121260">
        <ele>11.8</ele>
        <time>2026-04-21T12:23:50Z</time>
      </trkpt>
      <trkpt lat="51.505120" lon="-0.121396">
        <ele>11.9</ele>
        <time>2026-04-21T12:24:07Z</time>
      </trkpt>
      <trkpt lat="51.504809" lon="-0.121530">
        <ele>11.9</ele>
        <time>2026-04-21T12:24:25Z</time>
      </trkpt>
      <trkpt lat="51.504506" lon="-0.121667">
        <ele>11.9</ele>
        <time>2026-04-21T12:24:42Z</time>
      </trkpt>
      <trkpt lat="51.504224" lon="-0.121813">
        <ele>12.0</ele>
        <time>2026-04-21T12:25:00Z</time>
      </trkpt>
      <trkpt lat="51.504000" lon="-0.121970">
        <ele>12.0</ele>
        <time>2026-04-21T12:25:17Z</time>
      </trkpt>
      <trkpt lat="51.503802" lon="-0.122142">
        <ele>12.0</ele>
        <time>2026-04-21T12:25:35Z</time>
      </trkpt>
      <trkpt lat="51.503601" lon="-0.122301">
        <ele>12.0</ele>
        <time>2026-04-21T12:25:52Z</time>
      </trkpt>
      <trkpt lat="51.503394" lon="-0.122446">
        <ele>12.0</ele>
        <time>2026-04-21T12:26:10Z</time>
      </trkpt>
      <trkpt lat="51.503181" lon="-0.122575">
        <ele>12.0</ele>
        <time>2026-04-21T12:26:27Z</time>
      </trkpt>
      <trkpt lat="51.502970" lon="-0.122688">
        <ele>12.0</ele>
        <time>2026-04-21T12:26:45Z</time>
      </trkpt>
      <trkpt lat="51.502772" lon="-0.122783">
        <ele>12.0</ele>
        <time>2026-04-21T12:27:02Z</time>
      </trkpt>
      <trkpt lat="51.502592" lon="-0.122860">
        <ele>12.0</ele>
        <time>2026-04-21T12:27:20Z</time>
      </trkpt>
      <trkpt lat="51.502433" lon="-0.122923">
        <ele>12.0</ele>
        <time>2026-04-21T12:27:37Z</time>
      </trkpt>
      <trkpt lat="51.502290" lon="-0.122975">
        <ele>12.0</ele>
        <time>2026-04-21T12:27:55Z</time>
      </trkpt>
      <trkpt lat="51.502154" lon="-0.123022">
        <ele>12.0</ele>
        <time>2026-04-21T12:28:12Z</time>
      </trkpt>
      <trkpt lat="51.502015" lon="-0.123069">
        <ele>12.0</ele>
        <time>2026-04-21T12:28:30Z</time>
      </trkpt>
      <trkpt lat="51.501869" lon="-0.123121">
        <ele>11.9</ele>
        <time>2026-04-21T12:28:47Z</time>
      </trkpt>
      <trkpt lat="51.501719" lon="-0.123182">
        <ele>11.9</ele>
        <time>2026-04-21T12:29:05Z</time>
      </trkpt>
      <trkpt lat="51.501571" lon="-0.123255">
        <ele>11.9</ele>
        <time>2026-04-21T12:29:22Z</time>
      </trkpt>
      <trkpt lat="51.501435" lon="-0.123339">
        <ele>11.9</ele>
        <time>2026-04-21T12:29:40Z</time>
      </trkpt>
      <trkpt lat="51.501319" lon="-0.123434">
        <ele>11.9</ele>
        <time>2026-04-21T12:29:57Z</time>
      </trkpt>
      <trkpt lat="51.501223" lon="-0.123538">
        <ele>11.9</ele>
        <time>2026-04-21T12:30:15Z</time>
      </trkpt>
      <trkpt lat="51.501144" lon="-0.123649">
        <ele>11.9</ele>
        <time>2026-04-21T12:30:32Z</time>
      </trkpt>
      <trkpt lat="51.501071" lon="-0.123768">
        <ele>11.9</ele>
        <time>2026-04-21T12:30:50Z</time>
      </trkpt>
      <trkpt lat="51.500996" lon="-0.123896">
        <ele>11.9</ele>
        <time>2026-04-21T12:31:07Z</time>
      </trkpt>
      <trkpt lat="51.500914" lon="-0.124035">
        <ele>11.9</ele>
        <time>2026-04-21T12:31:25Z</time>
      </trkpt>
      <trkpt lat="51.500828" lon="-0.124191">
        <ele>11.9</ele>
        <time>2026-04-21T12:31:42Z</time>
      </trkpt>
      <trkpt lat="51.500744" lon="-0.124369">
        <ele>12.0</ele>
        <time>2026-04-21T12:32:00Z</time>
      </trkpt>
      <trkpt lat="51.500700" lon="-0.124570">
        <ele>12.0</ele>
        <time>2026-04-21T12:32:17Z</time>
      </trkpt>
      <trkpt lat="51.500675" lon="-0.124813">
        <ele>12.0</ele>
        <time>2026-04-21T12:32:35Z</time>
      </trkpt>
      <trkpt lat="51.500654" lon="-0.125080">
        <ele>12.1</ele>
        <time>2026-04-21T12:32:52Z</time>
      </trkpt>
      <trkpt lat="51.500633" lon="-0.125370">
        <ele>12.2</ele>
        <time>2026-04-21T12:33:10Z</time>
      </trkpt>
      <trkpt lat="51.500612" lon="-0.125676">
        <ele>12.2</ele>
        <time>2026-04-21T12:33:27Z</time>
      </trkpt>
      <trkpt lat="51.500597" lon="-0.125994">
        <ele>12.3</ele>
        <time>2026-04-21T12:33:45Z</time>
      </trkpt>
      <trkpt lat="51.500597" lon="-0.126320">
        <ele>12.4</ele>
        <time>2026-04-21T12:34:02Z</time>
      </trkpt>
      <trkpt lat="51.500619" lon="-0.126651">
        <ele>12.5</ele>
        <time>2026-04-21T12:34:20Z</time>
      </trkpt>
      <trkpt lat="51.500663" lon="-0.126986">
        <ele>12.6</ele>
        <time>2026-04-21T12:34:37Z</time>
      </trkpt>
      <trkpt lat="51.500722" lon="-0.127327">
        <ele>12.6</ele>
        <time>2026-04-21T12:34:55Z</time>
      </trkpt>
      <trkpt lat="51.500788" lon="-0.127675">
        <ele>12.7</ele>
        <time>2026-04-21T12:35:12Z</time>
      </trkpt>
      <trkpt lat="51.500849" lon="-0.128033">
        <ele>12.8</ele>
        <time>2026-04-21T12:35:30Z</time>
      </trkpt>
      <trkpt lat="51.500901" lon="-0.128402">
        <ele>12.9</ele>
        <time>2026-04-21T12:35:47Z</time>
      </trkpt>
      <trkpt lat="51.500943" lon="-0.128784">
        <ele>13.0</ele>
        <time>2026-04-21T12:36:05Z</time>
      </trkpt>
      <trkpt lat="51.500984" lon="-0.129177">
        <ele>13.1</ele>
        <time>2026-04-21T12:36:22Z</time>
      </trkpt>
      <trkpt lat="51.501030" lon="-0.129577">
        <ele>13.2</ele>
        <time>2026-04-21T12:36:40Z</time>
      </trkpt>
      <trkpt lat="51.501089" lon="-0.129982">
        <ele>13.3</ele>
        <time>2026-04-21T12:36:57Z</time>
      </trkpt>
      <trkpt lat="51.501161" lon="-0.130386">
        <ele>13.4</ele>
        <time>2026-04-21T12:37:15Z</time>
      </trkpt>
      <trkpt lat="51.501240" lon="-0.130784">
        <ele>13.5</ele>
        <time>2026-04-21T12:37:32Z</time>
      </trkpt>
      <trkpt lat="51.501316" lon="-0.131174">
        <ele>13.6</ele>
        <time>2026-04-21T12:37:50Z</time>
      </trkpt>
      <trkpt lat="51.501378" lon="-0.131552">
        <ele>13.7</ele>
        <time>2026-04-21T12:38:07Z</time>
      </trkpt>
      <trkpt lat="51.501421" lon="-0.131920">
        <ele>13.8</ele>
        <time>2026-04-21T12:38:25Z</time>
      </trkpt>
      <trkpt lat="51.501447" lon="-0.132278">
        <ele>13.9</ele>
        <time>2026-04-21T12:38:42Z</time>
      </trkpt>
      <trkpt lat="51.501461" lon="-0.132629">
        <ele>13.9</ele>
        <time>2026-04-21T12:39:00Z</time>
      </trkpt>
      <trkpt lat="51.501500" lon="-0.132970">
        <ele>14.0</ele>
        <time>2026-04-21T12:39:17Z</time>
      </trkpt>
      <trkpt lat="51.501539" lon="-0.133337">
        <ele>14.1</ele>
        <time>2026-04-21T12:39:35Z</time>
      </trkpt>
      <trkpt lat="51.501565" lon="-0.133732">
        <ele>14.1</ele>
        <time>2026-04-21T12:39:52Z</time>
      </trkpt>
      <trkpt lat="51.501572" lon="-0.134148">
        <ele>14.2</ele>
        <time>2026-04-21T12:40:10Z</time>
      </trkpt>
      <trkpt lat="51.501562" lon="-0.134580">
        <ele>14.2</ele>
        <time>2026-04-21T12:40:27Z</time>
      </trkpt>
      <trkpt lat="51.501545" lon="-0.135020">
        <ele>14.3</ele>
        <time>2026-04-21T12:40:45Z</time>
      </trkpt>
      <trkpt lat="51.501530" lon="-0.135464">
        <ele>14.3</ele>
        <time>2026-04-21T12:41:02Z</time>
      </trkpt>
      <trkpt lat="51.501525" lon="-0.135907">
        <ele>14.4</ele>
        <time>2026-04-21T12:41:20Z</time>
      </trkpt>
      <trkpt lat="51.501533" lon="-0.136346">
        <ele>14.4</ele>
        <time>2026-04-21T12:41:37Z</time>
      </trkpt>
      <trkpt lat="51.501549" lon="-0.136780">
        <ele>14.5</ele>
        <time>2026-04-21T12:41:55Z</time>
      </trkpt>
      <trkpt lat="51.501564" lon="-0.137210">
        <ele>14.5</ele>
        <time>2026-04-21T12:42:12Z</time>
      </trkpt>
      <trkpt lat="51.501570" lon="-0.137636">
        <ele>14.6</ele>
        <time>2026-04-21T12:42:30Z</time>
      </trkpt>
      <trkpt lat="51.501563" lon="-0.138059">
        <ele>14.6</ele>
        <time>2026-04-21T12:42:47Z</time>
      </trkpt>
      <trkpt lat="51.501546" lon="-0.138477">
        <ele>14.7</ele>
        <time>2026-04-21T12:43:05Z</time>
      </trkpt>
      <trkpt lat="51.501526" lon="-0.138888">
        <ele>14.7</ele>
        <time>2026-04-21T12:43:22Z</time>
      </trkpt>
      <trkpt lat="51.501515" lon="-0.139286">
        <ele>14.7</ele>
        <time>2026-04-21T12:43:40Z</time>
      </trkpt>
      <trkpt lat="51.501519" lon="-0.139667">
        <ele>14.8</ele>
        <time>2026-04-21T12:43:57Z</time>
      </trkpt>
      <trkpt lat="51.501541" lon="-0.140024">
        <ele>14.8</ele>
        <time>2026-04-21T12:44:15Z</time>
      </trkpt>
      <trkpt lat="51.501576" lon="-0.140349">
        <ele>14.8</ele>
        <time>2026-04-21T12:44:32Z</time>
      </trkpt>
      <trkpt lat="51.501616" lon="-0.140639">
        <ele>14.9</ele>
        <time>2026-04-21T12:44:50Z</time>
      </trkpt>
      <trkpt lat="51.501652" lon="-0.140889">
        <ele>14.9</ele>
        <time>2026-04-21T12:45:07Z</time>
      </trkpt>
      <trkpt lat="51.501681" lon="-0.141097">
        <ele>14.9</ele>
        <time>2026-04-21T12:45:25Z</time>
      </trkpt>
      <trkpt lat="51.501705" lon="-0.141264">
        <ele>15.0</ele>
        <time>2026-04-21T12:45:42Z</time>
      </trkpt>
      <trkpt lat="51.501732" lon="-0.141390">
        <ele>15.0</ele>
        <time>2026-04-21T12:46:00Z</time>
      </trkpt>
      <trkpt lat="51.501800" lon="-0.141470">
        <ele>15.0</ele>
        <time>2026-04-21T12:46:17Z</time>
      </trkpt>
      <trkpt lat="51.501876" lon="-0.141516">
        <ele>15.0</ele>
        <time>2026-04-21T12:46:35Z</time>
      </trkpt>
      <trkpt lat="51.501951" lon="-0.141531">
        <ele>15.0</ele>
        <time>2026-04-21T12:46:52Z</time>
      </trkpt>
      <trkpt lat="51.502020" lon="-0.141513">
        <ele>15.0</ele>
        <time>2026-04-21T12:47:10Z</time>
      </trkpt>
      <trkpt lat="51.502084" lon="-0.141463">
        <ele>15.1</ele>
        <time>2026-04-21T12:47:27Z</time>
      </trkpt>
      <trkpt lat="51.502149" lon="-0.141379">
        <ele>15.1</ele>
        <time>2026-04-21T12:47:45Z</time>
      </trkpt>
      <trkpt lat="51.502226" lon="-0.141261">
        <ele>15.1</ele>
        <time>2026-04-21T12:48:02Z</time>
      </trkpt>
      <trkpt lat="51.502320" lon="-0.141110">
        <ele>15.1</ele>
        <time>2026-04-21T12:48:20Z</time>
      </trkpt>
      <trkpt lat="51.502432" lon="-0.140929">
        <ele>15.1</ele>
        <time>2026-04-21T12:48:37Z</time>
      </trkpt>
      <trkpt lat="51.502557" lon="-0.140723">
        <ele>15.1</ele>
        <time>2026-04-21T12:48:55Z</time>
      </trkpt>
      <trkpt lat="51.502685" lon="-0.140497">
        <ele>15.1</ele>
        <time>2026-04-21T12:49:12Z</time>
      </trkpt>
      <trkpt lat="51.502806" lon="-0.140258">
        <ele>15.1</ele>
        <time>2026-04-21T12:49:30Z</time>
      </trkpt>
      <trkpt lat="51.502915" lon="-0.140011">
        <ele>15.1</ele>
        <time>2026-04-21T12:49:47Z</time>
      </trkpt>
      <trkpt lat="51.503014" lon="-0.139760">
        <ele>15.1</ele>
        <time>2026-04-21T12:50:05Z</time>
      </trkpt>
      <trkpt lat="51.503108" lon="-0.139509">
        <ele>15.1</ele>
        <time>2026-04-21T12:50:22Z</time>
      </trkpt>
      <trkpt lat="51.503207" lon="-0.139257">
        <ele>15.1</ele>
        <time>2026-04-21T12:50:40Z</time>
      </trkpt>
      <trkpt lat="51.503318" lon="-0.139006">
        <ele>15.1</ele>
        <time>2026-04-21T12:50:57Z</time>
      </trkpt>
      <trkpt lat="51.503441" lon="-0.138753">
        <ele>15.0</ele>
        <time>2026-04-21T12:51:15Z</time>
      </trkpt>
      <trkpt lat="51.503570" lon="-0.138498">
        <ele>15.0</ele>
        <time>2026-04-21T12:51:32Z</time>
      </trkpt>
      <trkpt lat="51.503696" lon="-0.138240">
        <ele>15.0</ele>
        <time>2026-04-21T12:51:50Z</time>
      </trkpt>
      <trkpt lat="51.503809" lon="-0.137983">
        <ele>15.0</ele>
        <time>2026-04-21T12:52:07Z</time>
      </trkpt>
      <trkpt lat="51.503904" lon="-0.137729">
        <ele>15.0</ele>
        <time>2026-04-21T12:52:25Z</time>
      </trkpt>
      <trkpt lat="51.503982" lon="-0.137484">
        <ele>15.0</ele>
        <time>2026-04-21T12:52:42Z</time>
      </trkpt>
      <trkpt lat="51.504051" lon="-0.137254">
        <ele>15.0</ele>
        <time>2026-04-21T12:53:00Z</time>
      </trkpt>
      <trkpt lat="51.504118" lon="-0.137045">
        <ele>15.0</ele>
        <time>2026-04-21T12:53:17Z</time>
      </trkpt>
      <trkpt lat="51.504191" lon="-0.136861">
        <ele>15.0</ele>
        <time>2026-04-21T12:53:35Z</time>
      </trkpt>
      <trkpt lat="51.504271" lon="-0.136708">
        <ele>15.0</ele>
        <time>2026-04-21T12:53:52Z</time>
      </trkpt>
      <trkpt lat="51.504350" lon="-0.136586">
        <ele>15.0</ele>
        <time>2026-04-21T12:54:10Z</time>
      </trkpt>
    </trkseg>
  </trk>
</gpx>
