<?xml version="1.0" encoding="UTF-8"?>
<gpx version="1.1" creator="StrataRoute-RaceMap" xmlns="http://www.topografix.com/GPX/1/1">
  <metadata>
    <name>New York City Marathon</name>
    <time>2026-04-21T09:30:17Z</time>
  </metadata>
  <wpt lat="40.606200" lon="-74.044700">
    <ele>65.0</ele>
    <name>Start: Verrazzano-Narrows Bridge</name>
    <sym>flag_start</sym>
  </wpt>
  <wpt lat="40.635000" lon="-74.026000">
    <ele>20.0</ele>
    <name>Bay Ridge 4th Ave (Mile 4)</name>
    <sym>cheer</sym>
  </wpt>
  <wpt lat="40.681200" lon="-73.978500">
    <ele>35.0</ele>
    <name>Barclays Center Brooklyn (Mile 8)</name>
    <sym>landmark</sym>
  </wpt>
  <wpt lat="40.718000" lon="-73.952000">
    <ele>12.0</ele>
    <name>Williamsburg / Greenpoint</name>
    <sym>camera</sym>
  </wpt>
  <wpt lat="40.742000" lon="-73.953500">
    <ele>25.0</ele>
    <name>Pulaski Bridge (Halfway!)</name>
    <sym>bridge</sym>
  </wpt>
  <wpt lat="40.757000" lon="-73.954000">
    <ele>40.0</ele>
    <name>Queensboro Bridge (Mile 15.5)</name>
    <sym>bridge</sym>
  </wpt>
  <wpt lat="40.785000" lon="-73.951000">
    <ele>22.0</ele>
    <name>First Avenue Crowd (Mile 18)</name>
    <sym>music</sym>
  </wpt>
  <wpt lat="40.812000" lon="-73.928000">
    <ele>15.0</ele>
    <name>The Bronx (Mile 20)</name>
    <sym>crown</sym>
  </wpt>
  <wpt lat="40.771100" lon="-73.974200">
    <ele>30.0</ele>
    <name>Finish: Central Park West</name>
    <sym>flag_finish</sym>
  </wpt>
  <trk>
    <name>New York City Marathon</name>
    <type>running</type>
    <trkseg>
      <trkpt lat="40.606200" lon="-74.044670">
        <ele>65.0</ele>
        <time>2026-04-21T09:30:17Z</time>
      </trkpt>
      <trkpt lat="40.606385" lon="-74.044426">
        <ele>64.4</ele>
        <time>2026-04-21T09:30:35Z</time>
      </trkpt>
      <trkpt lat="40.606577" lon="-74.044147">
        <ele>63.7</ele>
        <time>2026-04-21T09:30:52Z</time>
      </trkpt>
      <trkpt lat="40.606771" lon="-74.043835">
        <ele>63.0</ele>
        <time>2026-04-21T09:31:10Z</time>
      </trkpt>
      <trkpt lat="40.606969" lon="-74.043489">
        <ele>62.1</ele>
        <time>2026-04-21T09:31:27Z</time>
      </trkpt>
      <trkpt lat="40.607176" lon="-74.043107">
        <ele>61.2</ele>
        <time>2026-04-21T09:31:45Z</time>
      </trkpt>
      <trkpt lat="40.607402" lon="-74.042691">
        <ele>60.2</ele>
        <time>2026-04-21T09:32:02Z</time>
      </trkpt>
      <trkpt lat="40.607653" lon="-74.042242">
        <ele>59.2</ele>
        <time>2026-04-21T09:32:20Z</time>
      </trkpt>
      <trkpt lat="40.607931" lon="-74.041763">
        <ele>58.1</ele>
        <time>2026-04-21T09:32:37Z</time>
      </trkpt>
      <trkpt lat="40.608231" lon="-74.041259">
        <ele>57.0</ele>
        <time>2026-04-21T09:32:55Z</time>
      </trkpt>
      <trkpt lat="40.608541" lon="-74.040736">
        <ele>55.8</ele>
        <time>2026-04-21T09:33:12Z</time>
      </trkpt>
      <trkpt lat="40.608853" lon="-74.040201">
        <ele>54.6</ele>
        <time>2026-04-21T09:33:30Z</time>
      </trkpt>
      <trkpt lat="40.609161" lon="-74.039660">
        <ele>53.3</ele>
        <time>2026-04-21T09:33:47Z</time>
      </trkpt>
      <trkpt lat="40.609467" lon="-74.039118">
        <ele>52.1</ele>
        <time>2026-04-21T09:34:05Z</time>
      </trkpt>
      <trkpt lat="40.609777" lon="-74.038577">
        <ele>50.8</ele>
        <time>2026-04-21T09:34:22Z</time>
      </trkpt>
      <trkpt lat="40.610100" lon="-74.038040">
        <ele>49.5</ele>
        <time>2026-04-21T09:34:40Z</time>
      </trkpt>
      <trkpt lat="40.610444" lon="-74.037505">
        <ele>48.2</ele>
        <time>2026-04-21T09:34:57Z</time>
      </trkpt>
      <trkpt lat="40.610808" lon="-74.036972">
        <ele>47.0</ele>
        <time>2026-04-21T09:35:15Z</time>
      </trkpt>
      <trkpt lat="40.611187" lon="-74.036442">
        <ele>45.7</ele>
        <time>2026-04-21T09:35:32Z</time>
      </trkpt>
      <trkpt lat="40.611572" lon="-74.035913">
        <ele>44.4</ele>
        <time>2026-04-21T09:35:50Z</time>
      </trkpt>
      <trkpt lat="40.611953" lon="-74.035390">
        <ele>43.2</ele>
        <time>2026-04-21T09:36:07Z</time>
      </trkpt>
      <trkpt lat="40.612324" lon="-74.034875">
        <ele>42.0</ele>
        <time>2026-04-21T09:36:25Z</time>
      </trkpt>
      <trkpt lat="40.612687" lon="-74.034375">
        <ele>40.8</ele>
        <time>2026-04-21T09:36:42Z</time>
      </trkpt>
      <trkpt lat="40.613049" lon="-74.033896">
        <ele>39.7</ele>
        <time>2026-04-21T09:37:00Z</time>
      </trkpt>
      <trkpt lat="40.613419" lon="-74.033443">
        <ele>38.7</ele>
        <time>2026-04-21T09:37:17Z</time>
      </trkpt>
      <trkpt lat="40.613803" lon="-74.033024">
        <ele>37.6</ele>
        <time>2026-04-21T09:37:35Z</time>
      </trkpt>
      <trkpt lat="40.614203" lon="-74.032642">
        <ele>36.7</ele>
        <time>2026-04-21T09:37:52Z</time>
      </trkpt>
      <trkpt lat="40.614612" lon="-74.032299">
        <ele>35.8</ele>
        <time>2026-04-21T09:38:10Z</time>
      </trkpt>
      <trkpt lat="40.615000" lon="-74.031970">
        <ele>35.0</ele>
        <time>2026-04-21T09:38:27Z</time>
      </trkpt>
      <trkpt lat="40.615411" lon="-74.031692">
        <ele>34.2</ele>
        <time>2026-04-21T09:38:45Z</time>
      </trkpt>
      <trkpt lat="40.615819" lon="-74.031451">
        <ele>33.5</ele>
        <time>2026-04-21T09:39:02Z</time>
      </trkpt>
      <trkpt lat="40.616219" lon="-74.031244">
        <ele>32.8</ele>
        <time>2026-04-21T09:39:20Z</time>
      </trkpt>
      <trkpt lat="40.616612" lon="-74.031063">
        <ele>32.2</ele>
        <time>2026-04-21T09:39:37Z</time>
      </trkpt>
      <trkpt lat="40.617005" lon="-74.030903">
        <ele>31.5</ele>
        <time>2026-04-21T09:39:55Z</time>
      </trkpt>
      <trkpt lat="40.617410" lon="-74.030759">
        <ele>30.9</ele>
        <time>2026-04-21T09:40:12Z</time>
      </trkpt>
      <trkpt lat="40.617831" lon="-74.030627">
        <ele>30.3</ele>
        <time>2026-04-21T09:40:30Z</time>
      </trkpt>
      <trkpt lat="40.618273" lon="-74.030505">
        <ele>29.8</ele>
        <time>2026-04-21T09:40:47Z</time>
      </trkpt>
      <trkpt lat="40.618728" lon="-74.030392">
        <ele>29.2</ele>
        <time>2026-04-21T09:41:05Z</time>
      </trkpt>
      <trkpt lat="40.619189" lon="-74.030290">
        <ele>28.7</ele>
        <time>2026-04-21T09:41:22Z</time>
      </trkpt>
      <trkpt lat="40.619645" lon="-74.030199">
        <ele>28.2</ele>
        <time>2026-04-21T09:41:40Z</time>
      </trkpt>
      <trkpt lat="40.620093" lon="-74.030120">
        <ele>27.8</ele>
        <time>2026-04-21T09:41:57Z</time>
      </trkpt>
      <trkpt lat="40.620535" lon="-74.030054">
        <ele>27.3</ele>
        <time>2026-04-21T09:42:15Z</time>
      </trkpt>
      <trkpt lat="40.620977" lon="-74.029996">
        <ele>26.9</ele>
        <time>2026-04-21T09:42:32Z</time>
      </trkpt>
      <trkpt lat="40.621429" lon="-74.029944">
        <ele>26.5</ele>
        <time>2026-04-21T09:42:50Z</time>
      </trkpt>
      <trkpt lat="40.621899" lon="-74.029892">
        <ele>26.0</ele>
        <time>2026-04-21T09:43:07Z</time>
      </trkpt>
      <trkpt lat="40.622388" lon="-74.029834">
        <ele>25.7</ele>
        <time>2026-04-21T09:43:25Z</time>
      </trkpt>
      <trkpt lat="40.622891" lon="-74.029763">
        <ele>25.3</ele>
        <time>2026-04-21T09:43:42Z</time>
      </trkpt>
      <trkpt lat="40.623398" lon="-74.029677">
        <ele>24.9</ele>
        <time>2026-04-21T09:44:00Z</time>
      </trkpt>
      <trkpt lat="40.623901" lon="-74.029570">
        <ele>24.6</ele>
        <time>2026-04-21T09:44:17Z</time>
      </trkpt>
      <trkpt lat="40.624396" lon="-74.029443">
        <ele>24.2</ele>
        <time>2026-04-21T09:44:35Z</time>
      </trkpt>
      <trkpt lat="40.624883" lon="-74.029295">
        <ele>23.9</ele>
        <time>2026-04-21T09:44:52Z</time>
      </trkpt>
      <trkpt lat="40.625371" lon="-74.029128">
        <ele>23.6</ele>
        <time>2026-04-21T09:45:10Z</time>
      </trkpt>
      <trkpt lat="40.625870" lon="-74.028942">
        <ele>23.2</ele>
        <time>2026-04-21T09:45:27Z</time>
      </trkpt>
      <trkpt lat="40.626386" lon="-74.028738">
        <ele>22.9</ele>
        <time>2026-04-21T09:45:45Z</time>
      </trkpt>
      <trkpt lat="40.626920" lon="-74.028515">
        <ele>22.6</ele>
        <time>2026-04-21T09:46:02Z</time>
      </trkpt>
      <trkpt lat="40.627468" lon="-74.028269">
        <ele>22.3</ele>
        <time>2026-04-21T09:46:20Z</time>
      </trkpt>
      <trkpt lat="40.628000" lon="-74.027970">
        <ele>22.0</ele>
        <time>2026-04-21T09:46:37Z</time>
      </trkpt>
      <trkpt lat="40.628558" lon="-74.027663">
        <ele>21.7</ele>
        <time>2026-04-21T09:46:55Z</time>
      </trkpt>
      <trkpt lat="40.629114" lon="-74.027349">
        <ele>21.4</ele>
        <time>2026-04-21T09:47:12Z</time>
      </trkpt>
      <trkpt lat="40.629661" lon="-74.027025">
        <ele>21.1</ele>
        <time>2026-04-21T09:47:30Z</time>
      </trkpt>
      <trkpt lat="40.630202" lon="-74.026689">
        <ele>20.9</ele>
        <time>2026-04-21T09:47:47Z</time>
      </trkpt>
      <trkpt lat="40.630745" lon="-74.026336">
        <ele>20.6</ele>
        <time>2026-04-21T09:48:05Z</time>
      </trkpt>
      <trkpt lat="40.631298" lon="-74.025966">
        <ele>20.3</ele>
        <time>2026-04-21T09:48:22Z</time>
      </trkpt>
      <trkpt lat="40.631869" lon="-74.025575">
        <ele>20.1</ele>
        <time>2026-04-21T09:48:40Z</time>
      </trkpt>
      <trkpt lat="40.632459" lon="-74.025165">
        <ele>19.9</ele>
        <time>2026-04-21T09:48:57Z</time>
      </trkpt>
      <trkpt lat="40.633064" lon="-74.024739">
        <ele>19.7</ele>
        <time>2026-04-21T09:49:15Z</time>
      </trkpt>
      <trkpt lat="40.633673" lon="-74.024300">
        <ele>19.5</ele>
        <time>2026-04-21T09:49:32Z</time>
      </trkpt>
      <trkpt lat="40.634278" lon="-74.023851">
        <ele>19.3</ele>
        <time>2026-04-21T09:49:50Z</time>
      </trkpt>
      <trkpt lat="40.634874" lon="-74.023397">
        <ele>19.1</ele>
        <time>2026-04-21T09:50:07Z</time>
      </trkpt>
      <trkpt lat="40.635463" lon="-74.022939">
        <ele>18.9</ele>
        <time>2026-04-21T09:50:25Z</time>
      </trkpt>
      <trkpt lat="40.636052" lon="-74.022477">
        <ele>18.8</ele>
        <time>2026-04-21T09:50:42Z</time>
      </trkpt>
      <trkpt lat="40.636650" lon="-74.022011">
        <ele>18.6</ele>
        <time>2026-04-21T09:51:00Z</time>
      </trkpt>
      <trkpt lat="40.637265" lon="-74.021538">
        <ele>18.5</ele>
        <time>2026-04-21T09:51:17Z</time>
      </trkpt>
      <trkpt lat="40.637898" lon="-74.021054">
        <ele>18.4</ele>
        <time>2026-04-21T09:51:35Z</time>
      </trkpt>
      <trkpt lat="40.638544" lon="-74.020556">
        <ele>18.2</ele>
        <time>2026-04-21T09:51:52Z</time>
      </trkpt>
      <trkpt lat="40.639194" lon="-74.020042">
        <ele>18.2</ele>
        <time>2026-04-21T09:52:10Z</time>
      </trkpt>
      <trkpt lat="40.639837" lon="-74.019512">
        <ele>18.1</ele>
        <time>2026-04-21T09:52:27Z</time>
      </trkpt>
      <trkpt lat="40.640471" lon="-74.018967">
        <ele>18.0</ele>
        <time>2026-04-21T09:52:45Z</time>
      </trkpt>
      <trkpt lat="40.641096" lon="-74.018411">
        <ele>18.0</ele>
        <time>2026-04-21T09:53:02Z</time>
      </trkpt>
      <trkpt lat="40.641720" lon="-74.017847">
        <ele>17.9</ele>
        <time>2026-04-21T09:53:20Z</time>
      </trkpt>
      <trkpt lat="40.642352" lon="-74.017278">
        <ele>17.9</ele>
        <time>2026-04-21T09:53:37Z</time>
      </trkpt>
      <trkpt lat="40.643001" lon="-74.016708">
        <ele>17.9</ele>
        <time>2026-04-21T09:53:55Z</time>
      </trkpt>
      <trkpt lat="40.643666" lon="-74.016138">
        <ele>17.9</ele>
        <time>2026-04-21T09:54:12Z</time>
      </trkpt>
      <trkpt lat="40.644342" lon="-74.015568">
        <ele>18.0</ele>
        <time>2026-04-21T09:54:30Z</time>
      </trkpt>
      <trkpt lat="40.645000" lon="-74.014970">
        <ele>18.0</ele>
        <time>2026-04-21T09:54:47Z</time>
      </trkpt>
      <trkpt lat="40.645686" lon="-74.014373">
        <ele>18.1</ele>
        <time>2026-04-21T09:55:05Z</time>
      </trkpt>
      <trkpt lat="40.646375" lon="-74.013762">
        <ele>18.2</ele>
        <time>2026-04-21T09:55:22Z</time>
      </trkpt>
      <trkpt lat="40.647060" lon="-74.013136">
        <ele>18.3</ele>
        <time>2026-04-21T09:55:40Z</time>
      </trkpt>
      <trkpt lat="40.647743" lon="-74.012492">
        <ele>18.4</ele>
        <time>2026-04-21T09:55:57Z</time>
      </trkpt>
      <trkpt lat="40.648430" lon="-74.011828">
        <ele>18.5</ele>
        <time>2026-04-21T09:56:15Z</time>
      </trkpt>
      <trkpt lat="40.649130" lon="-74.011144">
        <ele>18.7</ele>
        <time>2026-04-21T09:56:32Z</time>
      </trkpt>
      <trkpt lat="40.649849" lon="-74.010438">
        <ele>18.9</ele>
        <time>2026-04-21T09:56:50Z</time>
      </trkpt>
      <trkpt lat="40.650587" lon="-74.009713">
        <ele>19.1</ele>
        <time>2026-04-21T09:57:07Z</time>
      </trkpt>
      <trkpt lat="40.651340" lon="-74.008973">
        <ele>19.3</ele>
        <time>2026-04-21T09:57:25Z</time>
      </trkpt>
      <trkpt lat="40.652097" lon="-74.008222">
        <ele>19.6</ele>
        <time>2026-04-21T09:57:42Z</time>
      </trkpt>
      <trkpt lat="40.652848" lon="-74.007464">
        <ele>19.8</ele>
        <time>2026-04-21T09:58:00Z</time>
      </trkpt>
      <trkpt lat="40.653587" lon="-74.006706">
        <ele>20.1</ele>
        <time>2026-04-21T09:58:17Z</time>
      </trkpt>
      <trkpt lat="40.654315" lon="-74.005949">
        <ele>20.3</ele>
        <time>2026-04-21T09:58:35Z</time>
      </trkpt>
      <trkpt lat="40.655039" lon="-74.005196">
        <ele>20.6</ele>
        <time>2026-04-21T09:58:52Z</time>
      </trkpt>
      <trkpt lat="40.655768" lon="-74.004446">
        <ele>20.9</ele>
        <time>2026-04-21T09:59:10Z</time>
      </trkpt>
      <trkpt lat="40.656508" lon="-74.003698">
        <ele>21.2</ele>
        <time>2026-04-21T09:59:27Z</time>
      </trkpt>
      <trkpt lat="40.657259" lon="-74.002950">
        <ele>21.5</ele>
        <time>2026-04-21T09:59:45Z</time>
      </trkpt>
      <trkpt lat="40.658016" lon="-74.002199">
        <ele>21.8</ele>
        <time>2026-04-21T10:00:02Z</time>
      </trkpt>
      <trkpt lat="40.658768" lon="-74.001445">
        <ele>22.1</ele>
        <time>2026-04-21T10:00:20Z</time>
      </trkpt>
      <trkpt lat="40.659505" lon="-74.000688">
        <ele>22.5</ele>
        <time>2026-04-21T10:00:37Z</time>
      </trkpt>
      <trkpt lat="40.660222" lon="-73.999932">
        <ele>22.8</ele>
        <time>2026-04-21T10:00:55Z</time>
      </trkpt>
      <trkpt lat="40.660921" lon="-73.999180">
        <ele>23.1</ele>
        <time>2026-04-21T10:01:12Z</time>
      </trkpt>
      <trkpt lat="40.661607" lon="-73.998438">
        <ele>23.4</ele>
        <time>2026-04-21T10:01:30Z</time>
      </trkpt>
      <trkpt lat="40.662289" lon="-73.997709">
        <ele>23.7</ele>
        <time>2026-04-21T10:01:47Z</time>
      </trkpt>
      <trkpt lat="40.662975" lon="-73.996999">
        <ele>24.1</ele>
        <time>2026-04-21T10:02:05Z</time>
      </trkpt>
      <trkpt lat="40.663663" lon="-73.996310">
        <ele>24.4</ele>
        <time>2026-04-21T10:02:22Z</time>
      </trkpt>
      <trkpt lat="40.664348" lon="-73.995643">
        <ele>24.7</ele>
        <time>2026-04-21T10:02:40Z</time>
      </trkpt>
      <trkpt lat="40.665000" lon="-73.994970">
        <ele>25.0</ele>
        <time>2026-04-21T10:02:57Z</time>
      </trkpt>
      <trkpt lat="40.665667" lon="-73.994324">
        <ele>25.3</ele>
        <time>2026-04-21T10:03:15Z</time>
      </trkpt>
      <trkpt lat="40.666326" lon="-73.993690">
        <ele>25.7</ele>
        <time>2026-04-21T10:03:32Z</time>
      </trkpt>
      <trkpt lat="40.666972" lon="-73.993065">
        <ele>26.0</ele>
        <time>2026-04-21T10:03:50Z</time>
      </trkpt>
      <trkpt lat="40.667606" lon="-73.992445">
        <ele>26.4</ele>
        <time>2026-04-21T10:04:07Z</time>
      </trkpt>
      <trkpt lat="40.668234" lon="-73.991827">
        <ele>26.8</ele>
        <time>2026-04-21T10:04:25Z</time>
      </trkpt>
      <trkpt lat="40.668866" lon="-73.991208">
        <ele>27.3</ele>
        <time>2026-04-21T10:04:42Z</time>
      </trkpt>
      <trkpt lat="40.669508" lon="-73.990587">
        <ele>27.7</ele>
        <time>2026-04-21T10:05:00Z</time>
      </trkpt>
      <trkpt lat="40.670161" lon="-73.989963">
        <ele>28.1</ele>
        <time>2026-04-21T10:05:17Z</time>
      </trkpt>
      <trkpt lat="40.670818" lon="-73.989339">
        <ele>28.6</ele>
        <time>2026-04-21T10:05:35Z</time>
      </trkpt>
      <trkpt lat="40.671471" lon="-73.988717">
        <ele>29.0</ele>
        <time>2026-04-21T10:05:52Z</time>
      </trkpt>
      <trkpt lat="40.672109" lon="-73.988103">
        <ele>29.5</ele>
        <time>2026-04-21T10:06:10Z</time>
      </trkpt>
      <trkpt lat="40.672728" lon="-73.987497">
        <ele>30.0</ele>
        <time>2026-04-21T10:06:27Z</time>
      </trkpt>
      <trkpt lat="40.673327" lon="-73.986904">
        <ele>30.4</ele>
        <time>2026-04-21T10:06:45Z</time>
      </trkpt>
      <trkpt lat="40.673914" lon="-73.986321">
        <ele>30.9</ele>
        <time>2026-04-21T10:07:02Z</time>
      </trkpt>
      <trkpt lat="40.674498" lon="-73.985748">
        <ele>31.3</ele>
        <time>2026-04-21T10:07:20Z</time>
      </trkpt>
      <trkpt lat="40.675085" lon="-73.985182">
        <ele>31.7</ele>
        <time>2026-04-21T10:07:37Z</time>
      </trkpt>
      <trkpt lat="40.675676" lon="-73.984619">
        <ele>32.2</ele>
        <time>2026-04-21T10:07:55Z</time>
      </trkpt>
      <trkpt lat="40.676265" lon="-73.984055">
        <ele>32.6</ele>
        <time>2026-04-21T10:08:12Z</time>
      </trkpt>
      <trkpt lat="40.676842" lon="-73.983489">
        <ele>32.9</ele>
        <time>2026-04-21T10:08:30Z</time>
      </trkpt>
      <trkpt lat="40.677397" lon="-73.982919">
        <ele>33.3</ele>
        <time>2026-04-21T10:08:47Z</time>
      </trkpt>
      <trkpt lat="40.677925" lon="-73.982346">
        <ele>33.6</ele>
        <time>2026-04-21T10:09:05Z</time>
      </trkpt>
      <trkpt lat="40.678428" lon="-73.981774">
        <ele>33.9</ele>
        <time>2026-04-21T10:09:22Z</time>
      </trkpt>
      <trkpt lat="40.678912" lon="-73.981205">
        <ele>34.2</ele>
        <time>2026-04-21T10:09:40Z</time>
      </trkpt>
      <trkpt lat="40.679386" lon="-73.980644">
        <ele>34.4</ele>
        <time>2026-04-21T10:09:57Z</time>
      </trkpt>
      <trkpt lat="40.679856" lon="-73.980092">
        <ele>34.6</ele>
        <time>2026-04-21T10:10:15Z</time>
      </trkpt>
      <trkpt lat="40.680323" lon="-73.979551">
        <ele>34.8</ele>
        <time>2026-04-21T10:10:32Z</time>
      </trkpt>
      <trkpt lat="40.680781" lon="-73.979019">
        <ele>34.9</ele>
        <time>2026-04-21T10:10:50Z</time>
      </trkpt>
      <trkpt lat="40.681200" lon="-73.978470">
        <ele>35.0</ele>
        <time>2026-04-21T10:11:07Z</time>
      </trkpt>
      <trkpt lat="40.681617" lon="-73.977938">
        <ele>35.0</ele>
        <time>2026-04-21T10:11:25Z</time>
      </trkpt>
      <trkpt lat="40.682000" lon="-73.977414">
        <ele>35.0</ele>
        <time>2026-04-21T10:11:42Z</time>
      </trkpt>
      <trkpt lat="40.682345" lon="-73.976895">
        <ele>35.0</ele>
        <time>2026-04-21T10:12:00Z</time>
      </trkpt>
      <trkpt lat="40.682656" lon="-73.976378">
        <ele>34.9</ele>
        <time>2026-04-21T10:12:17Z</time>
      </trkpt>
      <trkpt lat="40.682941" lon="-73.975861">
        <ele>34.8</ele>
        <time>2026-04-21T10:12:35Z</time>
      </trkpt>
      <trkpt lat="40.683213" lon="-73.975339">
        <ele>34.6</ele>
        <time>2026-04-21T10:12:52Z</time>
      </trkpt>
      <trkpt lat="40.683480" lon="-73.974813">
        <ele>34.5</ele>
        <time>2026-04-21T10:13:10Z</time>
      </trkpt>
      <trkpt lat="40.683745" lon="-73.974283">
        <ele>34.3</ele>
        <time>2026-04-21T10:13:27Z</time>
      </trkpt>
      <trkpt lat="40.684005" lon="-73.973752">
        <ele>34.0</ele>
        <time>2026-04-21T10:13:45Z</time>
      </trkpt>
      <trkpt lat="40.684252" lon="-73.973223">
        <ele>33.8</ele>
        <time>2026-04-21T10:14:02Z</time>
      </trkpt>
      <trkpt lat="40.684479" lon="-73.972700">
        <ele>33.5</ele>
        <time>2026-04-21T10:14:20Z</time>
      </trkpt>
      <trkpt lat="40.684682" lon="-73.972187">
        <ele>33.2</ele>
        <time>2026-04-21T10:14:37Z</time>
      </trkpt>
      <trkpt lat="40.684866" lon="-73.971685">
        <ele>32.9</ele>
        <time>2026-04-21T10:14:55Z</time>
      </trkpt>
      <trkpt lat="40.685039" lon="-73.971196">
        <ele>32.6</ele>
        <time>2026-04-21T10:15:12Z</time>
      </trkpt>
      <trkpt lat="40.685213" lon="-73.970718">
        <ele>32.3</ele>
        <time>2026-04-21T10:15:30Z</time>
      </trkpt>
      <trkpt lat="40.685396" lon="-73.970248">
        <ele>32.0</ele>
        <time>2026-04-21T10:15:47Z</time>
      </trkpt>
      <trkpt lat="40.685591" lon="-73.969783">
        <ele>31.6</ele>
        <time>2026-04-21T10:16:05Z</time>
      </trkpt>
      <trkpt lat="40.685795" lon="-73.969320">
        <ele>31.3</ele>
        <time>2026-04-21T10:16:22Z</time>
      </trkpt>
      <trkpt lat="40.686001" lon="-73.968857">
        <ele>30.9</ele>
        <time>2026-04-21T10:16:40Z</time>
      </trkpt>
      <trkpt lat="40.686201" lon="-73.968394">
        <ele>30.6</ele>
        <time>2026-04-21T10:16:57Z</time>
      </trkpt>
      <trkpt lat="40.686391" lon="-73.967932">
        <ele>30.2</ele>
        <time>2026-04-21T10:17:15Z</time>
      </trkpt>
      <trkpt lat="40.686576" lon="-73.967475">
        <ele>29.9</ele>
        <time>2026-04-21T10:17:32Z</time>
      </trkpt>
      <trkpt lat="40.686765" lon="-73.967026">
        <ele>29.5</ele>
        <time>2026-04-21T10:17:50Z</time>
      </trkpt>
      <trkpt lat="40.686969" lon="-73.966588">
        <ele>29.2</ele>
        <time>2026-04-21T10:18:07Z</time>
      </trkpt>
      <trkpt lat="40.687196" lon="-73.966166">
        <ele>28.9</ele>
        <time>2026-04-21T10:18:25Z</time>
      </trkpt>
      <trkpt lat="40.687451" lon="-73.965761">
        <ele>28.6</ele>
        <time>2026-04-21T10:18:42Z</time>
      </trkpt>
      <trkpt lat="40.687728" lon="-73.965371">
        <ele>28.3</ele>
        <time>2026-04-21T10:19:00Z</time>
      </trkpt>
      <trkpt lat="40.688000" lon="-73.964970">
        <ele>28.0</ele>
        <time>2026-04-21T10:19:17Z</time>
      </trkpt>
      <trkpt lat="40.688297" lon="-73.964595">
        <ele>27.7</ele>
        <time>2026-04-21T10:19:35Z</time>
      </trkpt>
      <trkpt lat="40.688576" lon="-73.964236">
        <ele>27.5</ele>
        <time>2026-04-21T10:19:52Z</time>
      </trkpt>
      <trkpt lat="40.688835" lon="-73.963890">
        <ele>27.2</ele>
        <time>2026-04-21T10:20:10Z</time>
      </trkpt>
      <trkpt lat="40.689075" lon="-73.963555">
        <ele>26.9</ele>
        <time>2026-04-21T10:20:27Z</time>
      </trkpt>
      <trkpt lat="40.689307" lon="-73.963225">
        <ele>26.6</ele>
        <time>2026-04-21T10:20:45Z</time>
      </trkpt>
      <trkpt lat="40.689540" lon="-73.962898">
        <ele>26.4</ele>
        <time>2026-04-21T10:21:02Z</time>
      </trkpt>
      <trkpt lat="40.689785" lon="-73.962571">
        <ele>26.1</ele>
        <time>2026-04-21T10:21:20Z</time>
      </trkpt>
      <trkpt lat="40.690042" lon="-73.962246">
        <ele>25.8</ele>
        <time>2026-04-21T10:21:37Z</time>
      </trkpt>
      <trkpt lat="40.690310" lon="-73.961923">
        <ele>25.5</ele>
        <time>2026-04-21T10:21:55Z</time>
      </trkpt>
      <trkpt lat="40.690580" lon="-73.961605">
        <ele>25.2</ele>
        <time>2026-04-21T10:22:12Z</time>
      </trkpt>
      <trkpt lat="40.690844" lon="-73.961297">
        <ele>24.9</ele>
        <time>2026-04-21T10:22:30Z</time>
      </trkpt>
      <trkpt lat="40.691099" lon="-73.961000">
        <ele>24.6</ele>
        <time>2026-04-21T10:22:47Z</time>
      </trkpt>
      <trkpt lat="40.691349" lon="-73.960717">
        <ele>24.4</ele>
        <time>2026-04-21T10:23:05Z</time>
      </trkpt>
      <trkpt lat="40.691602" lon="-73.960446">
        <ele>24.1</ele>
        <time>2026-04-21T10:23:22Z</time>
      </trkpt>
      <trkpt lat="40.691869" lon="-73.960186">
        <ele>23.8</ele>
        <time>2026-04-21T10:23:40Z</time>
      </trkpt>
      <trkpt lat="40.692158" lon="-73.959934">
        <ele>23.5</ele>
        <time>2026-04-21T10:23:57Z</time>
      </trkpt>
      <trkpt lat="40.692474" lon="-73.959686">
        <ele>23.2</ele>
        <time>2026-04-21T10:24:15Z</time>
      </trkpt>
      <trkpt lat="40.692811" lon="-73.959438">
        <ele>22.9</ele>
        <time>2026-04-21T10:24:32Z</time>
      </trkpt>
      <trkpt lat="40.693162" lon="-73.959187">
        <ele>22.6</ele>
        <time>2026-04-21T10:24:50Z</time>
      </trkpt>
      <trkpt lat="40.693520" lon="-73.958932">
        <ele>22.3</ele>
        <time>2026-04-21T10:25:07Z</time>
      </trkpt>
      <trkpt lat="40.693880" lon="-73.958674">
        <ele>22.0</ele>
        <time>2026-04-21T10:25:25Z</time>
      </trkpt>
      <trkpt lat="40.694247" lon="-73.958417">
        <ele>21.7</ele>
        <time>2026-04-21T10:25:42Z</time>
      </trkpt>
      <trkpt lat="40.694630" lon="-73.958161">
        <ele>21.4</ele>
        <time>2026-04-21T10:26:00Z</time>
      </trkpt>
      <trkpt lat="40.695039" lon="-73.957912">
        <ele>21.2</ele>
        <time>2026-04-21T10:26:17Z</time>
      </trkpt>
      <trkpt lat="40.695483" lon="-73.957671">
        <ele>20.9</ele>
        <time>2026-04-21T10:26:35Z</time>
      </trkpt>
      <trkpt lat="40.695964" lon="-73.957439">
        <ele>20.6</ele>
        <time>2026-04-21T10:26:52Z</time>
      </trkpt>
      <trkpt lat="40.696479" lon="-73.957215">
        <ele>20.3</ele>
        <time>2026-04-21T10:27:10Z</time>
      </trkpt>
      <trkpt lat="40.697000" lon="-73.956970">
        <ele>20.0</ele>
        <time>2026-04-21T10:27:27Z</time>
      </trkpt>
      <trkpt lat="40.697576" lon="-73.956741">
        <ele>19.7</ele>
        <time>2026-04-21T10:27:45Z</time>
      </trkpt>
      <trkpt lat="40.698181" lon="-73.956518">
        <ele>19.4</ele>
        <time>2026-04-21T10:28:02Z</time>
      </trkpt>
      <trkpt lat="40.698810" lon="-73.956298">
        <ele>19.1</ele>
        <time>2026-04-21T10:28:20Z</time>
      </trkpt>
      <trkpt lat="40.699459" lon="-73.956080">
        <ele>18.8</ele>
        <time>2026-04-21T10:28:37Z</time>
      </trkpt>
      <trkpt lat="40.700134" lon="-73.955859">
        <ele>18.4</ele>
        <time>2026-04-21T10:28:55Z</time>
      </trkpt>
      <trkpt lat="40.700842" lon="-73.955634">
        <ele>18.1</ele>
        <time>2026-04-21T10:29:12Z</time>
      </trkpt>
      <trkpt lat="40.701588" lon="-73.955403">
        <ele>17.8</ele>
        <time>2026-04-21T10:29:30Z</time>
      </trkpt>
      <trkpt lat="40.702369" lon="-73.955168">
        <ele>17.4</ele>
        <time>2026-04-21T10:29:47Z</time>
      </trkpt>
      <trkpt lat="40.703178" lon="-73.954932">
        <ele>17.1</ele>
        <time>2026-04-21T10:30:05Z</time>
      </trkpt>
      <trkpt lat="40.704003" lon="-73.954697">
        <ele>16.7</ele>
        <time>2026-04-21T10:30:22Z</time>
      </trkpt>
      <trkpt lat="40.704832" lon="-73.954469">
        <ele>16.4</ele>
        <time>2026-04-21T10:30:40Z</time>
      </trkpt>
      <trkpt lat="40.705658" lon="-73.954251">
        <ele>16.0</ele>
        <time>2026-04-21T10:30:57Z</time>
      </trkpt>
      <trkpt lat="40.706480" lon="-73.954045">
        <ele>15.7</ele>
        <time>2026-04-21T10:31:15Z</time>
      </trkpt>
      <trkpt lat="40.707302" lon="-73.953852">
        <ele>15.4</ele>
        <time>2026-04-21T10:31:32Z</time>
      </trkpt>
      <trkpt lat="40.708130" lon="-73.953671">
        <ele>15.0</ele>
        <time>2026-04-21T10:31:50Z</time>
      </trkpt>
      <trkpt lat="40.708971" lon="-73.953500">
        <ele>14.7</ele>
        <time>2026-04-21T10:32:07Z</time>
      </trkpt>
      <trkpt lat="40.709821" lon="-73.953335">
        <ele>14.4</ele>
        <time>2026-04-21T10:32:25Z</time>
      </trkpt>
      <trkpt lat="40.710673" lon="-73.953173">
        <ele>14.1</ele>
        <time>2026-04-21T10:32:42Z</time>
      </trkpt>
      <trkpt lat="40.711515" lon="-73.953014">
        <ele>13.8</ele>
        <time>2026-04-21T10:33:00Z</time>
      </trkpt>
      <trkpt lat="40.712336" lon="-73.952856">
        <ele>13.6</ele>
        <time>2026-04-21T10:33:17Z</time>
      </trkpt>
      <trkpt lat="40.713127" lon="-73.952702">
        <ele>13.3</ele>
        <time>2026-04-21T10:33:35Z</time>
      </trkpt>
      <trkpt lat="40.713888" lon="-73.952554">
        <ele>13.1</ele>
        <time>2026-04-21T10:33:52Z</time>
      </trkpt>
      <trkpt lat="40.714624" lon="-73.952417">
        <ele>12.8</ele>
        <time>2026-04-21T10:34:10Z</time>
      </trkpt>
      <trkpt lat="40.715341" lon="-73.952295">
        <ele>12.6</ele>
        <time>2026-04-21T10:34:27Z</time>
      </trkpt>
      <trkpt lat="40.716044" lon="-73.952191">
        <ele>12.4</ele>
        <time>2026-04-21T10:34:45Z</time>
      </trkpt>
      <trkpt lat="40.716731" lon="-73.952107">
        <ele>12.3</ele>
        <time>2026-04-21T10:35:02Z</time>
      </trkpt>
      <trkpt lat="40.717394" lon="-73.952043">
        <ele>12.1</ele>
        <time>2026-04-21T10:35:20Z</time>
      </trkpt>
      <trkpt lat="40.718000" lon="-73.951970">
        <ele>12.0</ele>
        <time>2026-04-21T10:35:37Z</time>
      </trkpt>
      <trkpt lat="40.718597" lon="-73.951930">
        <ele>11.9</ele>
        <time>2026-04-21T10:35:55Z</time>
      </trkpt>
      <trkpt lat="40.719164" lon="-73.951917">
        <ele>11.8</ele>
        <time>2026-04-21T10:36:12Z</time>
      </trkpt>
      <trkpt lat="40.719696" lon="-73.951926">
        <ele>11.7</ele>
        <time>2026-04-21T10:36:30Z</time>
      </trkpt>
      <trkpt lat="40.720197" lon="-73.951953">
        <ele>11.7</ele>
        <time>2026-04-21T10:36:47Z</time>
      </trkpt>
      <trkpt lat="40.720675" lon="-73.951992">
        <ele>11.6</ele>
        <time>2026-04-21T10:37:05Z</time>
      </trkpt>
      <trkpt lat="40.721141" lon="-73.952040">
        <ele>11.6</ele>
        <time>2026-04-21T10:37:22Z</time>
      </trkpt>
      <trkpt lat="40.721603" lon="-73.952094">
        <ele>11.6</ele>
        <time>2026-04-21T10:37:40Z</time>
      </trkpt>
      <trkpt lat="40.722066" lon="-73.952154">
        <ele>11.6</ele>
        <time>2026-04-21T10:37:57Z</time>
      </trkpt>
      <trkpt lat="40.722524" lon="-73.952219">
        <ele>11.6</ele>
        <time>2026-04-21T10:38:15Z</time>
      </trkpt>
      <trkpt lat="40.722970" lon="-73.952292">
        <ele>11.6</ele>
        <time>2026-04-21T10:38:32Z</time>
      </trkpt>
      <trkpt lat="40.723396" lon="-73.952375">
        <ele>11.6</ele>
        <time>2026-04-21T10:38:50Z</time>
      </trkpt>
      <trkpt lat="40.723798" lon="-73.952470">
        <ele>11.7</ele>
        <time>2026-04-21T10:39:07Z</time>
      </trkpt>
      <trkpt lat="40.724181" lon="-73.952577">
        <ele>11.7</ele>
        <time>2026-04-21T10:39:25Z</time>
      </trkpt>
      <trkpt lat="40.724552" lon="-73.952696">
        <ele>11.8</ele>
        <time>2026-04-21T10:39:42Z</time>
      </trkpt>
      <trkpt lat="40.724922" lon="-73.952823">
        <ele>11.9</ele>
        <time>2026-04-21T10:40:00Z</time>
      </trkpt>
      <trkpt lat="40.725300" lon="-73.952955">
        <ele>12.0</ele>
        <time>2026-04-21T10:40:17Z</time>
      </trkpt>
      <trkpt lat="40.725689" lon="-73.953085">
        <ele>12.1</ele>
        <time>2026-04-21T10:40:35Z</time>
      </trkpt>
      <trkpt lat="40.726084" lon="-73.953211">
        <ele>12.2</ele>
        <time>2026-04-21T10:40:52Z</time>
      </trkpt>
      <trkpt lat="40.726478" lon="-73.953327">
        <ele>12.3</ele>
        <time>2026-04-21T10:41:10Z</time>
      </trkpt>
      <trkpt lat="40.726864" lon="-73.953432">
        <ele>12.5</ele>
        <time>2026-04-21T10:41:27Z</time>
      </trkpt>
      <trkpt lat="40.727236" lon="-73.953526">
        <ele>12.6</ele>
        <time>2026-04-21T10:41:45Z</time>
      </trkpt>
      <trkpt lat="40.727600" lon="-73.953610">
        <ele>12.8</ele>
        <time>2026-04-21T10:42:02Z</time>
      </trkpt>
      <trkpt lat="40.727964" lon="-73.953687">
        <ele>13.0</ele>
        <time>2026-04-21T10:42:20Z</time>
      </trkpt>
      <trkpt lat="40.728338" lon="-73.953759">
        <ele>13.2</ele>
        <time>2026-04-21T10:42:37Z</time>
      </trkpt>
      <trkpt lat="40.728731" lon="-73.953827">
        <ele>13.4</ele>
        <time>2026-04-21T10:42:55Z</time>
      </trkpt>
      <trkpt lat="40.729146" lon="-73.953890">
        <ele>13.6</ele>
        <time>2026-04-21T10:43:12Z</time>
      </trkpt>
      <trkpt lat="40.729578" lon="-73.953948">
        <ele>13.8</ele>
        <time>2026-04-21T10:43:30Z</time>
      </trkpt>
      <trkpt lat="40.730000" lon="-73.953970">
        <ele>14.0</ele>
        <time>2026-04-21T10:43:47Z</time>
      </trkpt>
      <trkpt lat="40.730451" lon="-73.954000">
        <ele>14.3</ele>
        <time>2026-04-21T10:44:05Z</time>
      </trkpt>
      <trkpt lat="40.730899" lon="-73.954037">
        <ele>14.6</ele>
        <time>2026-04-21T10:44:22Z</time>
      </trkpt>
      <trkpt lat="40.731337" lon="-73.954077">
        <ele>14.9</ele>
        <time>2026-04-21T10:44:40Z</time>
      </trkpt>
      <trkpt lat="40.731768" lon="-73.954116">
        <ele>15.3</ele>
        <time>2026-04-21T10:44:57Z</time>
      </trkpt>
      <trkpt lat="40.732198" lon="-73.954151">
        <ele>15.7</ele>
        <time>2026-04-21T10:45:15Z</time>
      </trkpt>
      <trkpt lat="40.732635" lon="-73.954178">
        <ele>16.1</ele>
        <time>2026-04-21T10:45:32Z</time>
      </trkpt>
      <trkpt lat="40.733088" lon="-73.954196">
        <ele>16.5</ele>
        <time>2026-04-21T10:45:50Z</time>
      </trkpt>
      <trkpt lat="40.733555" lon="-73.954205">
        <ele>17.0</ele>
        <time>2026-04-21T10:46:07Z</time>
      </trkpt>
      <trkpt lat="40.734033" lon="-73.954206">
        <ele>17.5</ele>
        <time>2026-04-21T10:46:25Z</time>
      </trkpt>
      <trkpt lat="40.734510" lon="-73.954202">
        <ele>18.0</ele>
        <time>2026-04-21T10:46:42Z</time>
      </trkpt>
      <trkpt lat="40.734978" lon="-73.954198">
        <ele>18.5</ele>
        <time>2026-04-21T10:47:00Z</time>
      </trkpt>
      <trkpt lat="40.735431" lon="-73.954194">
        <ele>19.0</ele>
        <time>2026-04-21T10:47:17Z</time>
      </trkpt>
      <trkpt lat="40.735870" lon="-73.954194">
        <ele>19.5</ele>
        <time>2026-04-21T10:47:35Z</time>
      </trkpt>
      <trkpt lat="40.736302" lon="-73.954196">
        <ele>20.1</ele>
        <time>2026-04-21T10:47:52Z</time>
      </trkpt>
      <trkpt lat="40.736735" lon="-73.954199">
        <ele>20.6</ele>
        <time>2026-04-21T10:48:10Z</time>
      </trkpt>
      <trkpt lat="40.737178" lon="-73.954200">
        <ele>21.1</ele>
        <time>2026-04-21T10:48:27Z</time>
      </trkpt>
      <trkpt lat="40.737629" lon="-73.954194">
        <ele>21.6</ele>
        <time>2026-04-21T10:48:45Z</time>
      </trkpt>
      <trkpt lat="40.738084" lon="-73.954177">
        <ele>22.0</ele>
        <time>2026-04-21T10:49:02Z</time>
      </trkpt>
      <trkpt lat="40.738533" lon="-73.954148">
        <ele>22.5</ele>
        <time>2026-04-21T10:49:20Z</time>
      </trkpt>
      <trkpt lat="40.738966" lon="-73.954105">
        <ele>22.9</ele>
        <time>2026-04-21T10:49:37Z</time>
      </trkpt>
      <trkpt lat="40.739377" lon="-73.954049">
        <ele>23.3</ele>
        <time>2026-04-21T10:49:55Z</time>
      </trkpt>
      <trkpt lat="40.739768" lon="-73.953983">
        <ele>23.7</ele>
        <time>2026-04-21T10:50:12Z</time>
      </trkpt>
      <trkpt lat="40.740147" lon="-73.953909">
        <ele>24.0</ele>
        <time>2026-04-21T10:50:30Z</time>
      </trkpt>
      <trkpt lat="40.740521" lon="-73.953830">
        <ele>24.3</ele>
        <time>2026-04-21T10:50:47Z</time>
      </trkpt>
      <trkpt lat="40.740899" lon="-73.953750">
        <ele>24.5</ele>
        <time>2026-04-21T10:51:05Z</time>
      </trkpt>
      <trkpt lat="40.741279" lon="-73.953668">
        <ele>24.7</ele>
        <time>2026-04-21T10:51:22Z</time>
      </trkpt>
      <trkpt lat="40.741656" lon="-73.953585">
        <ele>24.9</ele>
        <time>2026-04-21T10:51:40Z</time>
      </trkpt>
      <trkpt lat="40.742000" lon="-73.953470">
        <ele>25.0</ele>
        <time>2026-04-21T10:51:57Z</time>
      </trkpt>
      <trkpt lat="40.742352" lon="-73.953353">
        <ele>25.0</ele>
        <time>2026-04-21T10:52:15Z</time>
      </trkpt>
      <trkpt lat="40.742681" lon="-73.953218">
        <ele>25.0</ele>
        <time>2026-04-21T10:52:32Z</time>
      </trkpt>
      <trkpt lat="40.742984" lon="-73.953063">
        <ele>24.9</ele>
        <time>2026-04-21T10:52:50Z</time>
      </trkpt>
      <trkpt lat="40.743264" lon="-73.952889">
        <ele>24.7</ele>
        <time>2026-04-21T10:53:07Z</time>
      </trkpt>
      <trkpt lat="40.743528" lon="-73.952693">
        <ele>24.5</ele>
        <time>2026-04-21T10:53:25Z</time>
      </trkpt>
      <trkpt lat="40.743787" lon="-73.952474">
        <ele>24.2</ele>
        <time>2026-04-21T10:53:42Z</time>
      </trkpt>
      <trkpt lat="40.744049" lon="-73.952235">
        <ele>23.8</ele>
        <time>2026-04-21T10:54:00Z</time>
      </trkpt>
      <trkpt lat="40.744316" lon="-73.951977">
        <ele>23.5</ele>
        <time>2026-04-21T10:54:17Z</time>
      </trkpt>
      <trkpt lat="40.744585" lon="-73.951705">
        <ele>23.1</ele>
        <time>2026-04-21T10:54:35Z</time>
      </trkpt>
      <trkpt lat="40.744848" lon="-73.951425">
        <ele>22.6</ele>
        <time>2026-04-21T10:54:52Z</time>
      </trkpt>
      <trkpt lat="40.745095" lon="-73.951141">
        <ele>22.2</ele>
        <time>2026-04-21T10:55:10Z</time>
      </trkpt>
      <trkpt lat="40.745323" lon="-73.950860">
        <ele>21.7</ele>
        <time>2026-04-21T10:55:27Z</time>
      </trkpt>
      <trkpt lat="40.745535" lon="-73.950586">
        <ele>21.3</ele>
        <time>2026-04-21T10:55:45Z</time>
      </trkpt>
      <trkpt lat="40.745739" lon="-73.950321">
        <ele>20.8</ele>
        <time>2026-04-21T10:56:02Z</time>
      </trkpt>
      <trkpt lat="40.745946" lon="-73.950066">
        <ele>20.4</ele>
        <time>2026-04-21T10:56:20Z</time>
      </trkpt>
      <trkpt lat="40.746163" lon="-73.949819">
        <ele>19.9</ele>
        <time>2026-04-21T10:56:37Z</time>
      </trkpt>
      <trkpt lat="40.746393" lon="-73.949580">
        <ele>19.5</ele>
        <time>2026-04-21T10:56:55Z</time>
      </trkpt>
      <trkpt lat="40.746632" lon="-73.949348">
        <ele>19.1</ele>
        <time>2026-04-21T10:57:12Z</time>
      </trkpt>
      <trkpt lat="40.746871" lon="-73.949122">
        <ele>18.7</ele>
        <time>2026-04-21T10:57:30Z</time>
      </trkpt>
      <trkpt lat="40.747103" lon="-73.948904">
        <ele>18.4</ele>
        <time>2026-04-21T10:57:47Z</time>
      </trkpt>
      <trkpt lat="40.747322" lon="-73.948698">
        <ele>18.1</ele>
        <time>2026-04-21T10:58:05Z</time>
      </trkpt>
      <trkpt lat="40.747533" lon="-73.948508">
        <ele>17.9</ele>
        <time>2026-04-21T10:58:22Z</time>
      </trkpt>
      <trkpt lat="40.747744" lon="-73.948340">
        <ele>17.7</ele>
        <time>2026-04-21T10:58:40Z</time>
      </trkpt>
      <trkpt lat="40.747965" lon="-73.948201">
        <ele>17.6</ele>
        <time>2026-04-21T10:58:57Z</time>
      </trkpt>
      <trkpt lat="40.748204" lon="-73.948094">
        <ele>17.6</ele>
        <time>2026-04-21T10:59:15Z</time>
      </trkpt>
      <trkpt lat="40.748463" lon="-73.948023">
        <ele>17.6</ele>
        <time>2026-04-21T10:59:32Z</time>
      </trkpt>
      <trkpt lat="40.748738" lon="-73.947991">
        <ele>17.8</ele>
        <time>2026-04-21T10:59:50Z</time>
      </trkpt>
      <trkpt lat="40.749000" lon="-73.947970">
        <ele>18.0</ele>
        <time>2026-04-21T11:00:07Z</time>
      </trkpt>
      <trkpt lat="40.749290" lon="-73.947997">
        <ele>18.3</ele>
        <time>2026-04-21T11:00:25Z</time>
      </trkpt>
      <trkpt lat="40.749575" lon="-73.948058">
        <ele>18.8</ele>
        <time>2026-04-21T11:00:42Z</time>
      </trkpt>
      <trkpt lat="40.749851" lon="-73.948150">
        <ele>19.3</ele>
        <time>2026-04-21T11:01:00Z</time>
      </trkpt>
      <trkpt lat="40.750118" lon="-73.948266">
        <ele>19.9</ele>
        <time>2026-04-21T11:01:17Z</time>
      </trkpt>
      <trkpt lat="40.750384" lon="-73.948403">
        <ele>20.7</ele>
        <time>2026-04-21T11:01:35Z</time>
      </trkpt>
      <trkpt lat="40.750658" lon="-73.948555">
        <ele>21.5</ele>
        <time>2026-04-21T11:01:52Z</time>
      </trkpt>
      <trkpt lat="40.750947" lon="-73.948719">
        <ele>22.3</ele>
        <time>2026-04-21T11:02:10Z</time>
      </trkpt>
      <trkpt lat="40.751252" lon="-73.948896">
        <ele>23.3</ele>
        <time>2026-04-21T11:02:27Z</time>
      </trkpt>
      <trkpt lat="40.751568" lon="-73.949084">
        <ele>24.2</ele>
        <time>2026-04-21T11:02:45Z</time>
      </trkpt>
      <trkpt lat="40.751885" lon="-73.949286">
        <ele>25.2</ele>
        <time>2026-04-21T11:03:02Z</time>
      </trkpt>
      <trkpt lat="40.752194" lon="-73.949503">
        <ele>26.3</ele>
        <time>2026-04-21T11:03:20Z</time>
      </trkpt>
      <trkpt lat="40.752489" lon="-73.949738">
        <ele>27.3</ele>
        <time>2026-04-21T11:03:37Z</time>
      </trkpt>
      <trkpt lat="40.752773" lon="-73.949990">
        <ele>28.4</ele>
        <time>2026-04-21T11:03:55Z</time>
      </trkpt>
      <trkpt lat="40.753052" lon="-73.950259">
        <ele>29.5</ele>
        <time>2026-04-21T11:04:12Z</time>
      </trkpt>
      <trkpt lat="40.753335" lon="-73.950540">
        <ele>30.6</ele>
        <time>2026-04-21T11:04:30Z</time>
      </trkpt>
      <trkpt lat="40.753630" lon="-73.950829">
        <ele>31.6</ele>
        <time>2026-04-21T11:04:47Z</time>
      </trkpt>
      <trkpt lat="40.753937" lon="-73.951122">
        <ele>32.7</ele>
        <time>2026-04-21T11:05:05Z</time>
      </trkpt>
      <trkpt lat="40.754250" lon="-73.951413">
        <ele>33.7</ele>
        <time>2026-04-21T11:05:22Z</time>
      </trkpt>
      <trkpt lat="40.754562" lon="-73.951698">
        <ele>34.7</ele>
        <time>2026-04-21T11:05:40Z</time>
      </trkpt>
      <trkpt lat="40.754861" lon="-73.951976">
        <ele>35.6</ele>
        <time>2026-04-21T11:05:57Z</time>
      </trkpt>
      <trkpt lat="40.755143" lon="-73.952245">
        <ele>36.4</ele>
        <time>2026-04-21T11:06:15Z</time>
      </trkpt>
      <trkpt lat="40.755409" lon="-73.952507">
        <ele>37.2</ele>
        <time>2026-04-21T11:06:32Z</time>
      </trkpt>
      <trkpt lat="40.755667" lon="-73.952763">
        <ele>37.9</ele>
        <time>2026-04-21T11:06:50Z</time>
      </trkpt>
      <trkpt lat="40.755927" lon="-73.953017">
        <ele>38.5</ele>
        <time>2026-04-21T11:07:07Z</time>
      </trkpt>
      <trkpt lat="40.756194" lon="-73.953268">
        <ele>39.1</ele>
        <time>2026-04-21T11:07:25Z</time>
      </trkpt>
      <trkpt lat="40.756470" lon="-73.953517">
        <ele>39.5</ele>
        <time>2026-04-21T11:07:42Z</time>
      </trkpt>
      <trkpt lat="40.756748" lon="-73.953761">
        <ele>39.8</ele>
        <time>2026-04-21T11:08:00Z</time>
      </trkpt>
      <trkpt lat="40.757000" lon="-73.953970">
        <ele>40.0</ele>
        <time>2026-04-21T11:08:17Z</time>
      </trkpt>
      <trkpt lat="40.757265" lon="-73.954195">
        <ele>40.1</ele>
        <time>2026-04-21T11:08:35Z</time>
      </trkpt>
      <trkpt lat="40.757513" lon="-73.954441">
        <ele>40.0</ele>
        <time>2026-04-21T11:08:52Z</time>
      </trkpt>
      <trkpt lat="40.757739" lon="-73.954702">
        <ele>39.9</ele>
        <time>2026-04-21T11:09:10Z</time>
      </trkpt>
      <trkpt lat="40.757946" lon="-73.954975">
        <ele>39.7</ele>
        <time>2026-04-21T11:09:27Z</time>
      </trkpt>
      <trkpt lat="40.758142" lon="-73.955253">
        <ele>39.4</ele>
        <time>2026-04-21T11:09:45Z</time>
      </trkpt>
      <trkpt lat="40.758338" lon="-73.955532">
        <ele>39.0</ele>
        <time>2026-04-21T11:10:02Z</time>
      </trkpt>
      <trkpt lat="40.758541" lon="-73.955809">
        <ele>38.6</ele>
        <time>2026-04-21T11:10:20Z</time>
      </trkpt>
      <trkpt lat="40.758754" lon="-73.956084">
        <ele>38.1</ele>
        <time>2026-04-21T11:10:37Z</time>
      </trkpt>
      <trkpt lat="40.758972" lon="-73.956356">
        <ele>37.5</ele>
        <time>2026-04-21T11:10:55Z</time>
      </trkpt>
      <trkpt lat="40.759187" lon="-73.956626">
        <ele>36.9</ele>
        <time>2026-04-21T11:11:12Z</time>
      </trkpt>
      <trkpt lat="40.759391" lon="-73.956898">
        <ele>36.2</ele>
        <time>2026-04-21T11:11:30Z</time>
      </trkpt>
      <trkpt lat="40.759580" lon="-73.957172">
        <ele>35.5</ele>
        <time>2026-04-21T11:11:47Z</time>
      </trkpt>
      <trkpt lat="40.759755" lon="-73.957449">
        <ele>34.8</ele>
        <time>2026-04-21T11:12:05Z</time>
      </trkpt>
      <trkpt lat="40.759927" lon="-73.957727">
        <ele>34.1</ele>
        <time>2026-04-21T11:12:22Z</time>
      </trkpt>
      <trkpt lat="40.760104" lon="-73.958003">
        <ele>33.3</ele>
        <time>2026-04-21T11:12:40Z</time>
      </trkpt>
      <trkpt lat="40.760294" lon="-73.958273">
        <ele>32.5</ele>
        <time>2026-04-21T11:12:57Z</time>
      </trkpt>
      <trkpt lat="40.760501" lon="-73.958530">
        <ele>31.8</ele>
        <time>2026-04-21T11:13:15Z</time>
      </trkpt>
      <trkpt lat="40.760719" lon="-73.958770">
        <ele>31.0</ele>
        <time>2026-04-21T11:13:32Z</time>
      </trkpt>
      <trkpt lat="40.760940" lon="-73.958989">
        <ele>30.2</ele>
        <time>2026-04-21T11:13:50Z</time>
      </trkpt>
      <trkpt lat="40.761155" lon="-73.959186">
        <ele>29.5</ele>
        <time>2026-04-21T11:14:07Z</time>
      </trkpt>
      <trkpt lat="40.761361" lon="-73.959358">
        <ele>28.8</ele>
        <time>2026-04-21T11:14:25Z</time>
      </trkpt>
      <trkpt lat="40.761561" lon="-73.959508">
        <ele>28.1</ele>
        <time>2026-04-21T11:14:42Z</time>
      </trkpt>
      <trkpt lat="40.761763" lon="-73.959637">
        <ele>27.4</ele>
        <time>2026-04-21T11:15:00Z</time>
      </trkpt>
      <trkpt lat="40.761976" lon="-73.959747">
        <ele>26.8</ele>
        <time>2026-04-21T11:15:17Z</time>
      </trkpt>
      <trkpt lat="40.762210" lon="-73.959840">
        <ele>26.3</ele>
        <time>2026-04-21T11:15:35Z</time>
      </trkpt>
      <trkpt lat="40.762466" lon="-73.959914">
        <ele>25.8</ele>
        <time>2026-04-21T11:15:52Z</time>
      </trkpt>
      <trkpt lat="40.762739" lon="-73.959967">
        <ele>25.4</ele>
        <time>2026-04-21T11:16:10Z</time>
      </trkpt>
      <trkpt lat="40.763000" lon="-73.959970">
        <ele>25.0</ele>
        <time>2026-04-21T11:16:27Z</time>
      </trkpt>
      <trkpt lat="40.763282" lon="-73.959965">
        <ele>24.7</ele>
        <time>2026-04-21T11:16:45Z</time>
      </trkpt>
      <trkpt lat="40.763547" lon="-73.959948">
        <ele>24.4</ele>
        <time>2026-04-21T11:17:02Z</time>
      </trkpt>
      <trkpt lat="40.763790" lon="-73.959919">
        <ele>24.2</ele>
        <time>2026-04-21T11:17:20Z</time>
      </trkpt>
      <trkpt lat="40.764016" lon="-73.959873">
        <ele>24.0</ele>
        <time>2026-04-21T11:17:37Z</time>
      </trkpt>
      <trkpt lat="40.764233" lon="-73.959807">
        <ele>23.8</ele>
        <time>2026-04-21T11:17:55Z</time>
      </trkpt>
      <trkpt lat="40.764451" lon="-73.959718">
        <ele>23.6</ele>
        <time>2026-04-21T11:18:12Z</time>
      </trkpt>
      <trkpt lat="40.764681" lon="-73.959606">
        <ele>23.4</ele>
        <time>2026-04-21T11:18:30Z</time>
      </trkpt>
      <trkpt lat="40.764926" lon="-73.959472">
        <ele>23.3</ele>
        <time>2026-04-21T11:18:47Z</time>
      </trkpt>
      <trkpt lat="40.765181" lon="-73.959316">
        <ele>23.2</ele>
        <time>2026-04-21T11:19:05Z</time>
      </trkpt>
      <trkpt lat="40.765439" lon="-73.959144">
        <ele>23.1</ele>
        <time>2026-04-21T11:19:22Z</time>
      </trkpt>
      <trkpt lat="40.765692" lon="-73.958959">
        <ele>23.0</ele>
        <time>2026-04-21T11:19:40Z</time>
      </trkpt>
      <trkpt lat="40.765938" lon="-73.958764">
        <ele>22.9</ele>
        <time>2026-04-21T11:19:57Z</time>
      </trkpt>
      <trkpt lat="40.766180" lon="-73.958562">
        <ele>22.9</ele>
        <time>2026-04-21T11:20:15Z</time>
      </trkpt>
      <trkpt lat="40.766427" lon="-73.958352">
        <ele>22.8</ele>
        <time>2026-04-21T11:20:32Z</time>
      </trkpt>
      <trkpt lat="40.766689" lon="-73.958134">
        <ele>22.8</ele>
        <time>2026-04-21T11:20:50Z</time>
      </trkpt>
      <trkpt lat="40.766976" lon="-73.957905">
        <ele>22.7</ele>
        <time>2026-04-21T11:21:07Z</time>
      </trkpt>
      <trkpt lat="40.767291" lon="-73.957662">
        <ele>22.7</ele>
        <time>2026-04-21T11:21:25Z</time>
      </trkpt>
      <trkpt lat="40.767631" lon="-73.957400">
        <ele>22.7</ele>
        <time>2026-04-21T11:21:42Z</time>
      </trkpt>
      <trkpt lat="40.767986" lon="-73.957119">
        <ele>22.6</ele>
        <time>2026-04-21T11:22:00Z</time>
      </trkpt>
      <trkpt lat="40.768350" lon="-73.956818">
        <ele>22.6</ele>
        <time>2026-04-21T11:22:17Z</time>
      </trkpt>
      <trkpt lat="40.768721" lon="-73.956499">
        <ele>22.5</ele>
        <time>2026-04-21T11:22:35Z</time>
      </trkpt>
      <trkpt lat="40.769100" lon="-73.956163">
        <ele>22.5</ele>
        <time>2026-04-21T11:22:52Z</time>
      </trkpt>
      <trkpt lat="40.769499" lon="-73.955817">
        <ele>22.4</ele>
        <time>2026-04-21T11:23:10Z</time>
      </trkpt>
      <trkpt lat="40.769927" lon="-73.955462">
        <ele>22.4</ele>
        <time>2026-04-21T11:23:27Z</time>
      </trkpt>
      <trkpt lat="40.770393" lon="-73.955101">
        <ele>22.3</ele>
        <time>2026-04-21T11:23:45Z</time>
      </trkpt>
      <trkpt lat="40.770901" lon="-73.954738">
        <ele>22.2</ele>
        <time>2026-04-21T11:24:02Z</time>
      </trkpt>
      <trkpt lat="40.771446" lon="-73.954370">
        <ele>22.1</ele>
        <time>2026-04-21T11:24:20Z</time>
      </trkpt>
      <trkpt lat="40.772000" lon="-73.953970">
        <ele>22.0</ele>
        <time>2026-04-21T11:24:37Z</time>
      </trkpt>
      <trkpt lat="40.772612" lon="-73.953565">
        <ele>21.9</ele>
        <time>2026-04-21T11:24:55Z</time>
      </trkpt>
      <trkpt lat="40.773256" lon="-73.953135">
        <ele>21.7</ele>
        <time>2026-04-21T11:25:12Z</time>
      </trkpt>
      <trkpt lat="40.773923" lon="-73.952680">
        <ele>21.6</ele>
        <time>2026-04-21T11:25:30Z</time>
      </trkpt>
      <trkpt lat="40.774614" lon="-73.952199">
        <ele>21.5</ele>
        <time>2026-04-21T11:25:47Z</time>
      </trkpt>
      <trkpt lat="40.775332" lon="-73.951691">
        <ele>21.3</ele>
        <time>2026-04-21T11:26:05Z</time>
      </trkpt>
      <trkpt lat="40.776085" lon="-73.951154">
        <ele>21.2</ele>
        <time>2026-04-21T11:26:22Z</time>
      </trkpt>
      <trkpt lat="40.776877" lon="-73.950591">
        <ele>21.0</ele>
        <time>2026-04-21T11:26:40Z</time>
      </trkpt>
      <trkpt lat="40.777707" lon="-73.950002">
        <ele>20.9</ele>
        <time>2026-04-21T11:26:57Z</time>
      </trkpt>
      <trkpt lat="40.778568" lon="-73.949393">
        <ele>20.8</ele>
        <time>2026-04-21T11:27:15Z</time>
      </trkpt>
      <trkpt lat="40.779447" lon="-73.948769">
        <ele>20.6</ele>
        <time>2026-04-21T11:27:32Z</time>
      </trkpt>
      <trkpt lat="40.780333" lon="-73.948136">
        <ele>20.5</ele>
        <time>2026-04-21T11:27:50Z</time>
      </trkpt>
      <trkpt lat="40.781218" lon="-73.947499">
        <ele>20.3</ele>
        <time>2026-04-21T11:28:07Z</time>
      </trkpt>
      <trkpt lat="40.782102" lon="-73.946862">
        <ele>20.2</ele>
        <time>2026-04-21T11:28:25Z</time>
      </trkpt>
      <trkpt lat="40.782989" lon="-73.946227">
        <ele>20.0</ele>
        <time>2026-04-21T11:28:42Z</time>
      </trkpt>
      <trkpt lat="40.783886" lon="-73.945596">
        <ele>19.8</ele>
        <time>2026-04-21T11:29:00Z</time>
      </trkpt>
      <trkpt lat="40.784799" lon="-73.944966">
        <ele>19.7</ele>
        <time>2026-04-21T11:29:17Z</time>
      </trkpt>
      <trkpt lat="40.785724" lon="-73.944338">
        <ele>19.5</ele>
        <time>2026-04-21T11:29:35Z</time>
      </trkpt>
      <trkpt lat="40.786656" lon="-73.943709">
        <ele>19.4</ele>
        <time>2026-04-21T11:29:52Z</time>
      </trkpt>
      <trkpt lat="40.787580" lon="-73.943079">
        <ele>19.2</ele>
        <time>2026-04-21T11:30:10Z</time>
      </trkpt>
      <trkpt lat="40.788487" lon="-73.942451">
        <ele>19.1</ele>
        <time>2026-04-21T11:30:27Z</time>
      </trkpt>
      <trkpt lat="40.789369" lon="-73.941827">
        <ele>19.0</ele>
        <time>2026-04-21T11:30:45Z</time>
      </trkpt>
      <trkpt lat="40.790225" lon="-73.941212">
        <ele>18.8</ele>
        <time>2026-04-21T11:31:02Z</time>
      </trkpt>
      <trkpt lat="40.791060" lon="-73.940612">
        <ele>18.7</ele>
        <time>2026-04-21T11:31:20Z</time>
      </trkpt>
      <trkpt lat="40.791880" lon="-73.940033">
        <ele>18.5</ele>
        <time>2026-04-21T11:31:37Z</time>
      </trkpt>
      <trkpt lat="40.792691" lon="-73.939479">
        <ele>18.4</ele>
        <time>2026-04-21T11:31:55Z</time>
      </trkpt>
      <trkpt lat="40.793491" lon="-73.938955">
        <ele>18.3</ele>
        <time>2026-04-21T11:32:12Z</time>
      </trkpt>
      <trkpt lat="40.794271" lon="-73.938460">
        <ele>18.1</ele>
        <time>2026-04-21T11:32:30Z</time>
      </trkpt>
      <trkpt lat="40.795000" lon="-73.937970">
        <ele>18.0</ele>
        <time>2026-04-21T11:32:47Z</time>
      </trkpt>
      <trkpt lat="40.795737" lon="-73.937514">
        <ele>17.9</ele>
        <time>2026-04-21T11:33:05Z</time>
      </trkpt>
      <trkpt lat="40.796471" lon="-73.937073">
        <ele>17.8</ele>
        <time>2026-04-21T11:33:22Z</time>
      </trkpt>
      <trkpt lat="40.797196" lon="-73.936645">
        <ele>17.6</ele>
        <time>2026-04-21T11:33:40Z</time>
      </trkpt>
      <trkpt lat="40.797911" lon="-73.936225">
        <ele>17.5</ele>
        <time>2026-04-21T11:33:57Z</time>
      </trkpt>
      <trkpt lat="40.798622" lon="-73.935811">
        <ele>17.4</ele>
        <time>2026-04-21T11:34:15Z</time>
      </trkpt>
      <trkpt lat="40.799338" lon="-73.935400">
        <ele>17.3</ele>
        <time>2026-04-21T11:34:32Z</time>
      </trkpt>
      <trkpt lat="40.800064" lon="-73.934989">
        <ele>17.1</ele>
        <time>2026-04-21T11:34:50Z</time>
      </trkpt>
      <trkpt lat="40.800800" lon="-73.934579">
        <ele>17.0</ele>
        <time>2026-04-21T11:35:07Z</time>
      </trkpt>
      <trkpt lat="40.801540" lon="-73.934173">
        <ele>16.9</ele>
        <time>2026-04-21T11:35:25Z</time>
      </trkpt>
      <trkpt lat="40.802272" lon="-73.933772">
        <ele>16.8</ele>
        <time>2026-04-21T11:35:42Z</time>
      </trkpt>
      <trkpt lat="40.802986" lon="-73.933381">
        <ele>16.7</ele>
        <time>2026-04-21T11:36:00Z</time>
      </trkpt>
      <trkpt lat="40.803676" lon="-73.933003">
        <ele>16.5</ele>
        <time>2026-04-21T11:36:17Z</time>
      </trkpt>
      <trkpt lat="40.804341" lon="-73.932639">
        <ele>16.4</ele>
        <time>2026-04-21T11:36:35Z</time>
      </trkpt>
      <trkpt lat="40.804989" lon="-73.932290">
        <ele>16.3</ele>
        <time>2026-04-21T11:36:52Z</time>
      </trkpt>
      <trkpt lat="40.805626" lon="-73.931953">
        <ele>16.2</ele>
        <time>2026-04-21T11:37:10Z</time>
      </trkpt>
      <trkpt lat="40.806259" lon="-73.931625">
        <ele>16.1</ele>
        <time>2026-04-21T11:37:27Z</time>
      </trkpt>
      <trkpt lat="40.806887" lon="-73.931303">
        <ele>16.0</ele>
        <time>2026-04-21T11:37:45Z</time>
      </trkpt>
      <trkpt lat="40.807504" lon="-73.930984">
        <ele>15.9</ele>
        <time>2026-04-21T11:38:02Z</time>
      </trkpt>
      <trkpt lat="40.808098" lon="-73.930664">
        <ele>15.8</ele>
        <time>2026-04-21T11:38:20Z</time>
      </trkpt>
      <trkpt lat="40.808659" lon="-73.930343">
        <ele>15.7</ele>
        <time>2026-04-21T11:38:37Z</time>
      </trkpt>
      <trkpt lat="40.809182" lon="-73.930022">
        <ele>15.6</ele>
        <time>2026-04-21T11:38:55Z</time>
      </trkpt>
      <trkpt lat="40.809665" lon="-73.929704">
        <ele>15.5</ele>
        <time>2026-04-21T11:39:12Z</time>
      </trkpt>
      <trkpt lat="40.810116" lon="-73.929391">
        <ele>15.4</ele>
        <time>2026-04-21T11:39:30Z</time>
      </trkpt>
      <trkpt lat="40.810542" lon="-73.929088">
        <ele>15.3</ele>
        <time>2026-04-21T11:39:47Z</time>
      </trkpt>
      <trkpt lat="40.810949" lon="-73.928797">
        <ele>15.2</ele>
        <time>2026-04-21T11:40:05Z</time>
      </trkpt>
      <trkpt lat="40.811336" lon="-73.928519">
        <ele>15.2</ele>
        <time>2026-04-21T11:40:22Z</time>
      </trkpt>
      <trkpt lat="40.811697" lon="-73.928253">
        <ele>15.1</ele>
        <time>2026-04-21T11:40:40Z</time>
      </trkpt>
      <trkpt lat="40.812000" lon="-73.927970">
        <ele>15.0</ele>
        <time>2026-04-21T11:40:57Z</time>
      </trkpt>
      <trkpt lat="40.812282" lon="-73.927701">
        <ele>14.9</ele>
        <time>2026-04-21T11:41:15Z</time>
      </trkpt>
      <trkpt lat="40.812512" lon="-73.927430">
        <ele>14.9</ele>
        <time>2026-04-21T11:41:32Z</time>
      </trkpt>
      <trkpt lat="40.812687" lon="-73.927156">
        <ele>14.8</ele>
        <time>2026-04-21T11:41:50Z</time>
      </trkpt>
      <trkpt lat="40.812812" lon="-73.926878">
        <ele>14.7</ele>
        <time>2026-04-21T11:42:07Z</time>
      </trkpt>
      <trkpt lat="40.812895" lon="-73.926594">
        <ele>14.7</ele>
        <time>2026-04-21T11:42:25Z</time>
      </trkpt>
      <trkpt lat="40.812950" lon="-73.926303">
        <ele>14.6</ele>
        <time>2026-04-21T11:42:42Z</time>
      </trkpt>
      <trkpt lat="40.812986" lon="-73.926005">
        <ele>14.5</ele>
        <time>2026-04-21T11:43:00Z</time>
      </trkpt>
      <trkpt lat="40.813007" lon="-73.925702">
        <ele>14.5</ele>
        <time>2026-04-21T11:43:17Z</time>
      </trkpt>
      <trkpt lat="40.813011" lon="-73.925398">
        <ele>14.4</ele>
        <time>2026-04-21T11:43:35Z</time>
      </trkpt>
      <trkpt lat="40.812991" lon="-73.925099">
        <ele>14.4</ele>
        <time>2026-04-21T11:43:52Z</time>
      </trkpt>
      <trkpt lat="40.812940" lon="-73.924809">
        <ele>14.3</ele>
        <time>2026-04-21T11:44:10Z</time>
      </trkpt>
      <trkpt lat="40.812857" lon="-73.924534">
        <ele>14.3</ele>
        <time>2026-04-21T11:44:27Z</time>
      </trkpt>
      <trkpt lat="40.812744" lon="-73.924277">
        <ele>14.2</ele>
        <time>2026-04-21T11:44:45Z</time>
      </trkpt>
      <trkpt lat="40.812614" lon="-73.924040">
        <ele>14.2</ele>
        <time>2026-04-21T11:45:02Z</time>
      </trkpt>
      <trkpt lat="40.812477" lon="-73.923823">
        <ele>14.1</ele>
        <time>2026-04-21T11:45:20Z</time>
      </trkpt>
      <trkpt lat="40.812344" lon="-73.923625">
        <ele>14.1</ele>
        <time>2026-04-21T11:45:37Z</time>
      </trkpt>
      <trkpt lat="40.812218" lon="-73.923445">
        <ele>14.1</ele>
        <time>2026-04-21T11:45:55Z</time>
      </trkpt>
      <trkpt lat="40.812096" lon="-73.923280">
        <ele>14.1</ele>
        <time>2026-04-21T11:46:12Z</time>
      </trkpt>
      <trkpt lat="40.811972" lon="-73.923130">
        <ele>14.0</ele>
        <time>2026-04-21T11:46:30Z</time>
      </trkpt>
      <trkpt lat="40.811840" lon="-73.922996">
        <ele>14.0</ele>
        <time>2026-04-21T11:46:47Z</time>
      </trkpt>
      <trkpt lat="40.811697" lon="-73.922881">
        <ele>14.0</ele>
        <time>2026-04-21T11:47:05Z</time>
      </trkpt>
      <trkpt lat="40.811548" lon="-73.922791">
        <ele>14.0</ele>
        <time>2026-04-21T11:47:22Z</time>
      </trkpt>
      <trkpt lat="40.811403" lon="-73.922728">
        <ele>14.0</ele>
        <time>2026-04-21T11:47:40Z</time>
      </trkpt>
      <trkpt lat="40.811274" lon="-73.922701">
        <ele>14.0</ele>
        <time>2026-04-21T11:47:57Z</time>
      </trkpt>
      <trkpt lat="40.811170" lon="-73.922711">
        <ele>14.0</ele>
        <time>2026-04-21T11:48:15Z</time>
      </trkpt>
      <trkpt lat="40.811096" lon="-73.922764">
        <ele>14.0</ele>
        <time>2026-04-21T11:48:32Z</time>
      </trkpt>
      <trkpt lat="40.811048" lon="-73.922859">
        <ele>14.0</ele>
        <time>2026-04-21T11:48:50Z</time>
      </trkpt>
      <trkpt lat="40.811000" lon="-73.922970">
        <ele>14.0</ele>
        <time>2026-04-21T11:49:07Z</time>
      </trkpt>
      <trkpt lat="40.810989" lon="-73.923142">
        <ele>14.0</ele>
        <time>2026-04-21T11:49:25Z</time>
      </trkpt>
      <trkpt lat="40.810979" lon="-73.923368">
        <ele>14.0</ele>
        <time>2026-04-21T11:49:42Z</time>
      </trkpt>
      <trkpt lat="40.810965" lon="-73.923643">
        <ele>14.1</ele>
        <time>2026-04-21T11:50:00Z</time>
      </trkpt>
      <trkpt lat="40.810946" lon="-73.923960">
        <ele>14.1</ele>
        <time>2026-04-21T11:50:17Z</time>
      </trkpt>
      <trkpt lat="40.810929" lon="-73.924313">
        <ele>14.1</ele>
        <time>2026-04-21T11:50:35Z</time>
      </trkpt>
      <trkpt lat="40.810922" lon="-73.924697">
        <ele>14.1</ele>
        <time>2026-04-21T11:50:52Z</time>
      </trkpt>
      <trkpt lat="40.810931" lon="-73.925106">
        <ele>14.1</ele>
        <time>2026-04-21T11:51:10Z</time>
      </trkpt>
      <trkpt lat="40.810958" lon="-73.925539">
        <ele>14.2</ele>
        <time>2026-04-21T11:51:27Z</time>
      </trkpt>
      <trkpt lat="40.810995" lon="-73.925993">
        <ele>14.2</ele>
        <time>2026-04-21T11:51:45Z</time>
      </trkpt>
      <trkpt lat="40.811032" lon="-73.926470">
        <ele>14.2</ele>
        <time>2026-04-21T11:52:02Z</time>
      </trkpt>
      <trkpt lat="40.811058" lon="-73.926970">
        <ele>14.3</ele>
        <time>2026-04-21T11:52:20Z</time>
      </trkpt>
      <trkpt lat="40.811069" lon="-73.927493">
        <ele>14.3</ele>
        <time>2026-04-21T11:52:37Z</time>
      </trkpt>
      <trkpt lat="40.811065" lon="-73.928038">
        <ele>14.4</ele>
        <time>2026-04-21T11:52:55Z</time>
      </trkpt>
      <trkpt lat="40.811052" lon="-73.928602">
        <ele>14.4</ele>
        <time>2026-04-21T11:53:12Z</time>
      </trkpt>
      <trkpt lat="40.811037" lon="-73.929181">
        <ele>14.5</ele>
        <time>2026-04-21T11:53:30Z</time>
      </trkpt>
      <trkpt lat="40.811029" lon="-73.929768">
        <ele>14.6</ele>
        <time>2026-04-21T11:53:47Z</time>
      </trkpt>
      <trkpt lat="40.811026" lon="-73.930357">
        <ele>14.6</ele>
        <time>2026-04-21T11:54:05Z</time>
      </trkpt>
      <trkpt lat="40.811022" lon="-73.930942">
        <ele>14.7</ele>
        <time>2026-04-21T11:54:22Z</time>
      </trkpt>
      <trkpt lat="40.811008" lon="-73.931516">
        <ele>14.8</ele>
        <time>2026-04-21T11:54:40Z</time>
      </trkpt>
      <trkpt lat="40.810971" lon="-73.932078">
        <ele>14.9</ele>
        <time>2026-04-21T11:54:57Z</time>
      </trkpt>
      <trkpt lat="40.810908" lon="-73.932624">
        <ele>15.0</ele>
        <time>2026-04-21T11:55:15Z</time>
      </trkpt>
      <trkpt lat="40.810819" lon="-73.933154">
        <ele>15.1</ele>
        <time>2026-04-21T11:55:32Z</time>
      </trkpt>
      <trkpt lat="40.810709" lon="-73.933669">
        <ele>15.2</ele>
        <time>2026-04-21T11:55:50Z</time>
      </trkpt>
      <trkpt lat="40.810589" lon="-73.934170">
        <ele>15.4</ele>
        <time>2026-04-21T11:56:07Z</time>
      </trkpt>
      <trkpt lat="40.810462" lon="-73.934656">
        <ele>15.5</ele>
        <time>2026-04-21T11:56:25Z</time>
      </trkpt>
      <trkpt lat="40.810330" lon="-73.935125">
        <ele>15.7</ele>
        <time>2026-04-21T11:56:42Z</time>
      </trkpt>
      <trkpt lat="40.810187" lon="-73.935573">
        <ele>15.8</ele>
        <time>2026-04-21T11:57:00Z</time>
      </trkpt>
      <trkpt lat="40.810000" lon="-73.935970">
        <ele>16.0</ele>
        <time>2026-04-21T11:57:17Z</time>
      </trkpt>
      <trkpt lat="40.809815" lon="-73.936358">
        <ele>16.2</ele>
        <time>2026-04-21T11:57:35Z</time>
      </trkpt>
      <trkpt lat="40.809604" lon="-73.936736">
        <ele>16.4</ele>
        <time>2026-04-21T11:57:52Z</time>
      </trkpt>
      <trkpt lat="40.809364" lon="-73.937102">
        <ele>16.6</ele>
        <time>2026-04-21T11:58:10Z</time>
      </trkpt>
      <trkpt lat="40.809098" lon="-73.937456">
        <ele>16.8</ele>
        <time>2026-04-21T11:58:27Z</time>
      </trkpt>
      <trkpt lat="40.808811" lon="-73.937794">
        <ele>17.1</ele>
        <time>2026-04-21T11:58:45Z</time>
      </trkpt>
      <trkpt lat="40.808516" lon="-73.938115">
        <ele>17.3</ele>
        <time>2026-04-21T11:59:02Z</time>
      </trkpt>
      <trkpt lat="40.808221" lon="-73.938419">
        <ele>17.6</ele>
        <time>2026-04-21T11:59:20Z</time>
      </trkpt>
      <trkpt lat="40.807926" lon="-73.938708">
        <ele>17.8</ele>
        <time>2026-04-21T11:59:37Z</time>
      </trkpt>
      <trkpt lat="40.807628" lon="-73.938985">
        <ele>18.1</ele>
        <time>2026-04-21T11:59:55Z</time>
      </trkpt>
      <trkpt lat="40.807317" lon="-73.939255">
        <ele>18.4</ele>
        <time>2026-04-21T12:00:12Z</time>
      </trkpt>
      <trkpt lat="40.806987" lon="-73.939523">
        <ele>18.7</ele>
        <time>2026-04-21T12:00:30Z</time>
      </trkpt>
      <trkpt lat="40.806632" lon="-73.939793">
        <ele>19.0</ele>
        <time>2026-04-21T12:00:47Z</time>
      </trkpt>
      <trkpt lat="40.806255" lon="-73.940069">
        <ele>19.3</ele>
        <time>2026-04-21T12:01:05Z</time>
      </trkpt>
      <trkpt lat="40.805864" lon="-73.940352">
        <ele>19.6</ele>
        <time>2026-04-21T12:01:22Z</time>
      </trkpt>
      <trkpt lat="40.805469" lon="-73.940642">
        <ele>19.9</ele>
        <time>2026-04-21T12:01:40Z</time>
      </trkpt>
      <trkpt lat="40.805078" lon="-73.940937">
        <ele>20.3</ele>
        <time>2026-04-21T12:01:57Z</time>
      </trkpt>
      <trkpt lat="40.804694" lon="-73.941235">
        <ele>20.6</ele>
        <time>2026-04-21T12:02:15Z</time>
      </trkpt>
      <trkpt lat="40.804310" lon="-73.941534">
        <ele>20.9</ele>
        <time>2026-04-21T12:02:32Z</time>
      </trkpt>
      <trkpt lat="40.803920" lon="-73.941833">
        <ele>21.2</ele>
        <time>2026-04-21T12:02:50Z</time>
      </trkpt>
      <trkpt lat="40.803514" lon="-73.942133">
        <ele>21.5</ele>
        <time>2026-04-21T12:03:07Z</time>
      </trkpt>
      <trkpt lat="40.803088" lon="-73.942436">
        <ele>21.9</ele>
        <time>2026-04-21T12:03:25Z</time>
      </trkpt>
      <trkpt lat="40.802645" lon="-73.942747">
        <ele>22.2</ele>
        <time>2026-04-21T12:03:42Z</time>
      </trkpt>
      <trkpt lat="40.802193" lon="-73.943069">
        <ele>22.5</ele>
        <time>2026-04-21T12:04:00Z</time>
      </trkpt>
      <trkpt lat="40.801743" lon="-73.943409">
        <ele>22.8</ele>
        <time>2026-04-21T12:04:17Z</time>
      </trkpt>
      <trkpt lat="40.801302" lon="-73.943770">
        <ele>23.1</ele>
        <time>2026-04-21T12:04:35Z</time>
      </trkpt>
      <trkpt lat="40.800871" lon="-73.944155">
        <ele>23.4</ele>
        <time>2026-04-21T12:04:52Z</time>
      </trkpt>
      <trkpt lat="40.800447" lon="-73.944564">
        <ele>23.7</ele>
        <time>2026-04-21T12:05:10Z</time>
      </trkpt>
      <trkpt lat="40.800000" lon="-73.944970">
        <ele>24.0</ele>
        <time>2026-04-21T12:05:27Z</time>
      </trkpt>
      <trkpt lat="40.799565" lon="-73.945413">
        <ele>24.3</ele>
        <time>2026-04-21T12:05:45Z</time>
      </trkpt>
      <trkpt lat="40.799107" lon="-73.945882">
        <ele>24.6</ele>
        <time>2026-04-21T12:06:02Z</time>
      </trkpt>
      <trkpt lat="40.798622" lon="-73.946374">
        <ele>24.9</ele>
        <time>2026-04-21T12:06:20Z</time>
      </trkpt>
      <trkpt lat="40.798112" lon="-73.946884">
        <ele>25.2</ele>
        <time>2026-04-21T12:06:37Z</time>
      </trkpt>
      <trkpt lat="40.797586" lon="-73.947407">
        <ele>25.5</ele>
        <time>2026-04-21T12:06:55Z</time>
      </trkpt>
      <trkpt lat="40.797054" lon="-73.947937">
        <ele>25.8</ele>
        <time>2026-04-21T12:07:12Z</time>
      </trkpt>
      <trkpt lat="40.796525" lon="-73.948473">
        <ele>26.1</ele>
        <time>2026-04-21T12:07:30Z</time>
      </trkpt>
      <trkpt lat="40.796001" lon="-73.949014">
        <ele>26.4</ele>
        <time>2026-04-21T12:07:47Z</time>
      </trkpt>
      <trkpt lat="40.795479" lon="-73.949559">
        <ele>26.7</ele>
        <time>2026-04-21T12:08:05Z</time>
      </trkpt>
      <trkpt lat="40.794950" lon="-73.950111">
        <ele>27.1</ele>
        <time>2026-04-21T12:08:22Z</time>
      </trkpt>
      <trkpt lat="40.794405" lon="-73.950671">
        <ele>27.4</ele>
        <time>2026-04-21T12:08:40Z</time>
      </trkpt>
      <trkpt lat="40.793842" lon="-73.951242">
        <ele>27.7</ele>
        <time>2026-04-21T12:08:57Z</time>
      </trkpt>
      <trkpt lat="40.793263" lon="-73.951824">
        <ele>28.0</ele>
        <time>2026-04-21T12:09:15Z</time>
      </trkpt>
      <trkpt lat="40.792677" lon="-73.952415">
        <ele>28.3</ele>
        <time>2026-04-21T12:09:32Z</time>
      </trkpt>
      <trkpt lat="40.792093" lon="-73.953012">
        <ele>28.6</ele>
        <time>2026-04-21T12:09:50Z</time>
      </trkpt>
      <trkpt lat="40.791522" lon="-73.953611">
        <ele>28.9</ele>
        <time>2026-04-21T12:10:07Z</time>
      </trkpt>
      <trkpt lat="40.790964" lon="-73.954206">
        <ele>29.2</ele>
        <time>2026-04-21T12:10:25Z</time>
      </trkpt>
      <trkpt lat="40.790416" lon="-73.954793">
        <ele>29.5</ele>
        <time>2026-04-21T12:10:42Z</time>
      </trkpt>
      <trkpt lat="40.789869" lon="-73.955368">
        <ele>29.8</ele>
        <time>2026-04-21T12:11:00Z</time>
      </trkpt>
      <trkpt lat="40.789315" lon="-73.955929">
        <ele>30.1</ele>
        <time>2026-04-21T12:11:17Z</time>
      </trkpt>
      <trkpt lat="40.788752" lon="-73.956475">
        <ele>30.4</ele>
        <time>2026-04-21T12:11:35Z</time>
      </trkpt>
      <trkpt lat="40.788181" lon="-73.957008">
        <ele>30.6</ele>
        <time>2026-04-21T12:11:52Z</time>
      </trkpt>
      <trkpt lat="40.787612" lon="-73.957530">
        <ele>30.9</ele>
        <time>2026-04-21T12:12:10Z</time>
      </trkpt>
      <trkpt lat="40.787055" lon="-73.958042">
        <ele>31.1</ele>
        <time>2026-04-21T12:12:27Z</time>
      </trkpt>
      <trkpt lat="40.786518" lon="-73.958546">
        <ele>31.4</ele>
        <time>2026-04-21T12:12:45Z</time>
      </trkpt>
      <trkpt lat="40.786004" lon="-73.959041">
        <ele>31.6</ele>
        <time>2026-04-21T12:13:02Z</time>
      </trkpt>
      <trkpt lat="40.785507" lon="-73.959526">
        <ele>31.8</ele>
        <time>2026-04-21T12:13:20Z</time>
      </trkpt>
      <trkpt lat="40.785000" lon="-73.959970">
        <ele>32.0</ele>
        <time>2026-04-21T12:13:37Z</time>
      </trkpt>
      <trkpt lat="40.784519" lon="-73.960418">
        <ele>32.2</ele>
        <time>2026-04-21T12:13:55Z</time>
      </trkpt>
      <trkpt lat="40.784028" lon="-73.960866">
        <ele>32.4</ele>
        <time>2026-04-21T12:14:12Z</time>
      </trkpt>
      <trkpt lat="40.783522" lon="-73.961314">
        <ele>32.6</ele>
        <time>2026-04-21T12:14:30Z</time>
      </trkpt>
      <trkpt lat="40.783004" lon="-73.961756">
        <ele>32.8</ele>
        <time>2026-04-21T12:14:47Z</time>
      </trkpt>
      <trkpt lat="40.782482" lon="-73.962190">
        <ele>33.0</ele>
        <time>2026-04-21T12:15:05Z</time>
      </trkpt>
      <trkpt lat="40.781966" lon="-73.962612">
        <ele>33.2</ele>
        <time>2026-04-21T12:15:22Z</time>
      </trkpt>
      <trkpt lat="40.781463" lon="-73.963020">
        <ele>33.3</ele>
        <time>2026-04-21T12:15:40Z</time>
      </trkpt>
      <trkpt lat="40.780975" lon="-73.963416">
        <ele>33.5</ele>
        <time>2026-04-21T12:15:57Z</time>
      </trkpt>
      <trkpt lat="40.780499" lon="-73.963801">
        <ele>33.7</ele>
        <time>2026-04-21T12:16:15Z</time>
      </trkpt>
      <trkpt lat="40.780024" lon="-73.964178">
        <ele>33.9</ele>
        <time>2026-04-21T12:16:32Z</time>
      </trkpt>
      <trkpt lat="40.779543" lon="-73.964550">
        <ele>34.0</ele>
        <time>2026-04-21T12:16:50Z</time>
      </trkpt>
      <trkpt lat="40.779052" lon="-73.964922">
        <ele>34.2</ele>
        <time>2026-04-21T12:17:07Z</time>
      </trkpt>
      <trkpt lat="40.778552" lon="-73.965293">
        <ele>34.3</ele>
        <time>2026-04-21T12:17:25Z</time>
      </trkpt>
      <trkpt lat="40.778052" lon="-73.965665">
        <ele>34.4</ele>
        <time>2026-04-21T12:17:42Z</time>
      </trkpt>
      <trkpt lat="40.777561" lon="-73.966035">
        <ele>34.6</ele>
        <time>2026-04-21T12:18:00Z</time>
      </trkpt>
      <trkpt lat="40.777087" lon="-73.966401">
        <ele>34.7</ele>
        <time>2026-04-21T12:18:17Z</time>
      </trkpt>
      <trkpt lat="40.776633" lon="-73.966758">
        <ele>34.8</ele>
        <time>2026-04-21T12:18:35Z</time>
      </trkpt>
      <trkpt lat="40.776193" lon="-73.967104">
        <ele>34.9</ele>
        <time>2026-04-21T12:18:52Z</time>
      </trkpt>
      <trkpt lat="40.775759" lon="-73.967435">
        <ele>35.0</ele>
        <time>2026-04-21T12:19:10Z</time>
      </trkpt>
      <trkpt lat="40.775321" lon="-73.967751">
        <ele>35.0</ele>
        <time>2026-04-21T12:19:27Z</time>
      </trkpt>
      <trkpt lat="40.774877" lon="-73.968053">
        <ele>35.1</ele>
        <time>2026-04-21T12:19:45Z</time>
      </trkpt>
      <trkpt lat="40.774428" lon="-73.968344">
        <ele>35.1</ele>
        <time>2026-04-21T12:20:02Z</time>
      </trkpt>
      <trkpt lat="40.773983" lon="-73.968627">
        <ele>35.1</ele>
        <time>2026-04-21T12:20:20Z</time>
      </trkpt>
      <trkpt lat="40.773551" lon="-73.968905">
        <ele>35.1</ele>
        <time>2026-04-21T12:20:37Z</time>
      </trkpt>
      <trkpt lat="40.773140" lon="-73.969181">
        <ele>35.1</ele>
        <time>2026-04-21T12:20:55Z</time>
      </trkpt>
      <trkpt lat="40.772752" lon="-73.969455">
        <ele>35.1</ele>
        <time>2026-04-21T12:21:12Z</time>
      </trkpt>
      <trkpt lat="40.772382" lon="-73.969728">
        <ele>35.1</ele>
        <time>2026-04-21T12:21:30Z</time>
      </trkpt>
      <trkpt lat="40.772000" lon="-73.969970">
        <ele>35.0</ele>
        <time>2026-04-21T12:21:47Z</time>
      </trkpt>
      <trkpt lat="40.771644" lon="-73.970216">
        <ele>34.9</ele>
        <time>2026-04-21T12:22:05Z</time>
      </trkpt>
      <trkpt lat="40.771280" lon="-73.970454">
        <ele>34.8</ele>
        <time>2026-04-21T12:22:22Z</time>
      </trkpt>
      <trkpt lat="40.770904" lon="-73.970683">
        <ele>34.7</ele>
        <time>2026-04-21T12:22:40Z</time>
      </trkpt>
      <trkpt lat="40.770517" lon="-73.970899">
        <ele>34.5</ele>
        <time>2026-04-21T12:22:57Z</time>
      </trkpt>
      <trkpt lat="40.770129" lon="-73.971100">
        <ele>34.3</ele>
        <time>2026-04-21T12:23:15Z</time>
      </trkpt>
      <trkpt lat="40.769748" lon="-73.971284">
        <ele>34.1</ele>
        <time>2026-04-21T12:23:32Z</time>
      </trkpt>
      <trkpt lat="40.769385" lon="-73.971450">
        <ele>33.8</ele>
        <time>2026-04-21T12:23:50Z</time>
      </trkpt>
      <trkpt lat="40.769039" lon="-73.971600">
        <ele>33.6</ele>
        <time>2026-04-21T12:24:07Z</time>
      </trkpt>
      <trkpt lat="40.768709" lon="-73.971736">
        <ele>33.3</ele>
        <time>2026-04-21T12:24:25Z</time>
      </trkpt>
      <trkpt lat="40.768384" lon="-73.971863">
        <ele>33.0</ele>
        <time>2026-04-21T12:24:42Z</time>
      </trkpt>
      <trkpt lat="40.768056" lon="-73.971985">
        <ele>32.7</ele>
        <time>2026-04-21T12:25:00Z</time>
      </trkpt>
      <trkpt lat="40.767722" lon="-73.972105">
        <ele>32.4</ele>
        <time>2026-04-21T12:25:17Z</time>
      </trkpt>
      <trkpt lat="40.767385" lon="-73.972228">
        <ele>32.1</ele>
        <time>2026-04-21T12:25:35Z</time>
      </trkpt>
      <trkpt lat="40.767052" lon="-73.972352">
        <ele>31.8</ele>
        <time>2026-04-21T12:25:52Z</time>
      </trkpt>
      <trkpt lat="40.766733" lon="-73.972479">
        <ele>31.5</ele>
        <time>2026-04-21T12:26:10Z</time>
      </trkpt>
      <trkpt lat="40.766437" lon="-73.972605">
        <ele>31.2</ele>
        <time>2026-04-21T12:26:27Z</time>
      </trkpt>
      <trkpt lat="40.766166" lon="-73.972728">
        <ele>30.9</ele>
        <time>2026-04-21T12:26:45Z</time>
      </trkpt>
      <trkpt lat="40.765915" lon="-73.972845">
        <ele>30.5</ele>
        <time>2026-04-21T12:27:02Z</time>
      </trkpt>
      <trkpt lat="40.765676" lon="-73.972955">
        <ele>30.2</ele>
        <time>2026-04-21T12:27:20Z</time>
      </trkpt>
      <trkpt lat="40.765441" lon="-73.973057">
        <ele>29.9</ele>
        <time>2026-04-21T12:27:37Z</time>
      </trkpt>
      <trkpt lat="40.765205" lon="-73.973155">
        <ele>29.6</ele>
        <time>2026-04-21T12:27:55Z</time>
      </trkpt>
      <trkpt lat="40.764972" lon="-73.973251">
        <ele>29.3</ele>
        <time>2026-04-21T12:28:12Z</time>
      </trkpt>
      <trkpt lat="40.764749" lon="-73.973350">
        <ele>29.1</ele>
        <time>2026-04-21T12:28:30Z</time>
      </trkpt>
      <trkpt lat="40.764548" lon="-73.973456">
        <ele>28.8</ele>
        <time>2026-04-21T12:28:47Z</time>
      </trkpt>
      <trkpt lat="40.764375" lon="-73.973572">
        <ele>28.6</ele>
        <time>2026-04-21T12:29:05Z</time>
      </trkpt>
      <trkpt lat="40.764233" lon="-73.973701">
        <ele>28.4</ele>
        <time>2026-04-21T12:29:22Z</time>
      </trkpt>
      <trkpt lat="40.764118" lon="-73.973843">
        <ele>28.2</ele>
        <time>2026-04-21T12:29:40Z</time>
      </trkpt>
      <trkpt lat="40.764000" lon="-73.973970">
        <ele>28.0</ele>
        <time>2026-04-21T12:29:57Z</time>
      </trkpt>
      <trkpt lat="40.763925" lon="-73.974117">
        <ele>27.8</ele>
        <time>2026-04-21T12:30:15Z</time>
      </trkpt>
      <trkpt lat="40.763864" lon="-73.974272">
        <ele>27.7</ele>
        <time>2026-04-21T12:30:32Z</time>
      </trkpt>
      <trkpt lat="40.763813" lon="-73.974432">
        <ele>27.6</ele>
        <time>2026-04-21T12:30:50Z</time>
      </trkpt>
      <trkpt lat="40.763771" lon="-73.974593">
        <ele>27.4</ele>
        <time>2026-04-21T12:31:07Z</time>
      </trkpt>
      <trkpt lat="40.763744" lon="-73.974751">
        <ele>27.3</ele>
        <time>2026-04-21T12:31:25Z</time>
      </trkpt>
      <trkpt lat="40.763741" lon="-73.974905">
        <ele>27.2</ele>
        <time>2026-04-21T12:31:42Z</time>
      </trkpt>
      <trkpt lat="40.763767" lon="-73.975052">
        <ele>27.1</ele>
        <time>2026-04-21T12:32:00Z</time>
      </trkpt>
      <trkpt lat="40.763824" lon="-73.975192">
        <ele>26.9</ele>
        <time>2026-04-21T12:32:17Z</time>
      </trkpt>
      <trkpt lat="40.763903" lon="-73.975327">
        <ele>26.8</ele>
        <time>2026-04-21T12:32:35Z</time>
      </trkpt>
      <trkpt lat="40.763996" lon="-73.975461">
        <ele>26.8</ele>
        <time>2026-04-21T12:32:52Z</time>
      </trkpt>
      <trkpt lat="40.764091" lon="-73.975597">
        <ele>26.7</ele>
        <time>2026-04-21T12:33:10Z</time>
      </trkpt>
      <trkpt lat="40.764183" lon="-73.975738">
        <ele>26.6</ele>
        <time>2026-04-21T12:33:27Z</time>
      </trkpt>
      <trkpt lat="40.764272" lon="-73.975886">
        <ele>26.5</ele>
        <time>2026-04-21T12:33:45Z</time>
      </trkpt>
      <trkpt lat="40.764364" lon="-73.976040">
        <ele>26.4</ele>
        <time>2026-04-21T12:34:02Z</time>
      </trkpt>
      <trkpt lat="40.764468" lon="-73.976199">
        <ele>26.4</ele>
        <time>2026-04-21T12:34:20Z</time>
      </trkpt>
      <trkpt lat="40.764589" lon="-73.976360">
        <ele>26.3</ele>
        <time>2026-04-21T12:34:37Z</time>
      </trkpt>
      <trkpt lat="40.764727" lon="-73.976519">
        <ele>26.3</ele>
        <time>2026-04-21T12:34:55Z</time>
      </trkpt>
      <trkpt lat="40.764877" lon="-73.976673">
        <ele>26.2</ele>
        <time>2026-04-21T12:35:12Z</time>
      </trkpt>
      <trkpt lat="40.765027" lon="-73.976818">
        <ele>26.2</ele>
        <time>2026-04-21T12:35:30Z</time>
      </trkpt>
      <trkpt lat="40.765167" lon="-73.976955">
        <ele>26.1</ele>
        <time>2026-04-21T12:35:47Z</time>
      </trkpt>
      <trkpt lat="40.765291" lon="-73.977085">
        <ele>26.1</ele>
        <time>2026-04-21T12:36:05Z</time>
      </trkpt>
      <trkpt lat="40.765400" lon="-73.977209">
        <ele>26.1</ele>
        <time>2026-04-21T12:36:22Z</time>
      </trkpt>
      <trkpt lat="40.765500" lon="-73.977331">
        <ele>26.1</ele>
        <time>2026-04-21T12:36:40Z</time>
      </trkpt>
      <trkpt lat="40.765600" lon="-73.977456">
        <ele>26.0</ele>
        <time>2026-04-21T12:36:57Z</time>
      </trkpt>
      <trkpt lat="40.765705" lon="-73.977584">
        <ele>26.0</ele>
        <time>2026-04-21T12:37:15Z</time>
      </trkpt>
      <trkpt lat="40.765815" lon="-73.977718">
        <ele>26.0</ele>
        <time>2026-04-21T12:37:32Z</time>
      </trkpt>
      <trkpt lat="40.765924" lon="-73.977856">
        <ele>26.0</ele>
        <time>2026-04-21T12:37:50Z</time>
      </trkpt>
      <trkpt lat="40.766000" lon="-73.977970">
        <ele>26.0</ele>
        <time>2026-04-21T12:38:07Z</time>
      </trkpt>
      <trkpt lat="40.766090" lon="-73.978103">
        <ele>26.0</ele>
        <time>2026-04-21T12:38:25Z</time>
      </trkpt>
      <trkpt lat="40.766170" lon="-73.978252">
        <ele>26.0</ele>
        <time>2026-04-21T12:38:42Z</time>
      </trkpt>
      <trkpt lat="40.766235" lon="-73.978412">
        <ele>26.0</ele>
        <time>2026-04-21T12:39:00Z</time>
      </trkpt>
      <trkpt lat="40.766286" lon="-73.978579">
        <ele>26.1</ele>
        <time>2026-04-21T12:39:17Z</time>
      </trkpt>
      <trkpt lat="40.766332" lon="-73.978748">
        <ele>26.1</ele>
        <time>2026-04-21T12:39:35Z</time>
      </trkpt>
      <trkpt lat="40.766383" lon="-73.978915">
        <ele>26.2</ele>
        <time>2026-04-21T12:39:52Z</time>
      </trkpt>
      <trkpt lat="40.766445" lon="-73.979078">
        <ele>26.2</ele>
        <time>2026-04-21T12:40:10Z</time>
      </trkpt>
      <trkpt lat="40.766520" lon="-73.979235">
        <ele>26.3</ele>
        <time>2026-04-21T12:40:27Z</time>
      </trkpt>
      <trkpt lat="40.766605" lon="-73.979388">
        <ele>26.3</ele>
        <time>2026-04-21T12:40:45Z</time>
      </trkpt>
      <trkpt lat="40.766689" lon="-73.979539">
        <ele>26.4</ele>
        <time>2026-04-21T12:41:02Z</time>
      </trkpt>
      <trkpt lat="40.766764" lon="-73.979689">
        <ele>26.5</ele>
        <time>2026-04-21T12:41:20Z</time>
      </trkpt>
      <trkpt lat="40.766825" lon="-73.979841">
        <ele>26.6</ele>
        <time>2026-04-21T12:41:37Z</time>
      </trkpt>
      <trkpt lat="40.766875" lon="-73.979996">
        <ele>26.7</ele>
        <time>2026-04-21T12:41:55Z</time>
      </trkpt>
      <trkpt lat="40.766920" lon="-73.980152">
        <ele>26.8</ele>
        <time>2026-04-21T12:42:12Z</time>
      </trkpt>
      <trkpt lat="40.766972" lon="-73.980307">
        <ele>26.8</ele>
        <time>2026-04-21T12:42:30Z</time>
      </trkpt>
      <trkpt lat="40.767037" lon="-73.980457">
        <ele>26.9</ele>
        <time>2026-04-21T12:42:47Z</time>
      </trkpt>
      <trkpt lat="40.767116" lon="-73.980596">
        <ele>27.0</ele>
        <time>2026-04-21T12:43:05Z</time>
      </trkpt>
      <trkpt lat="40.767206" lon="-73.980720">
        <ele>27.1</ele>
        <time>2026-04-21T12:43:22Z</time>
      </trkpt>
      <trkpt lat="40.767296" lon="-73.980826">
        <ele>27.2</ele>
        <time>2026-04-21T12:43:40Z</time>
      </trkpt>
      <trkpt lat="40.767378" lon="-73.980911">
        <ele>27.3</ele>
        <time>2026-04-21T12:43:57Z</time>
      </trkpt>
      <trkpt lat="40.767448" lon="-73.980977">
        <ele>27.4</ele>
        <time>2026-04-21T12:44:15Z</time>
      </trkpt>
      <trkpt lat="40.767508" lon="-73.981023">
        <ele>27.5</ele>
        <time>2026-04-21T12:44:32Z</time>
      </trkpt>
      <trkpt lat="40.767565" lon="-73.981053">
        <ele>27.6</ele>
        <time>2026-04-21T12:44:50Z</time>
      </trkpt>
      <trkpt lat="40.767630" lon="-73.981069">
        <ele>27.7</ele>
        <time>2026-04-21T12:45:07Z</time>
      </trkpt>
      <trkpt lat="40.767709" lon="-73.981072">
        <ele>27.8</ele>
        <time>2026-04-21T12:45:25Z</time>
      </trkpt>
      <trkpt lat="40.767805" lon="-73.981063">
        <ele>27.8</ele>
        <time>2026-04-21T12:45:42Z</time>
      </trkpt>
      <trkpt lat="40.767912" lon="-73.981038">
        <ele>27.9</ele>
        <time>2026-04-21T12:46:00Z</time>
      </trkpt>
      <trkpt lat="40.768000" lon="-73.980970">
        <ele>28.0</ele>
        <time>2026-04-21T12:46:17Z</time>
      </trkpt>
      <trkpt lat="40.768114" lon="-73.980889">
        <ele>28.1</ele>
        <time>2026-04-21T12:46:35Z</time>
      </trkpt>
      <trkpt lat="40.768224" lon="-73.980784">
        <ele>28.1</ele>
        <time>2026-04-21T12:46:52Z</time>
      </trkpt>
      <trkpt lat="40.768327" lon="-73.980653">
        <ele>28.2</ele>
        <time>2026-04-21T12:47:10Z</time>
      </trkpt>
      <trkpt lat="40.768422" lon="-73.980496">
        <ele>28.3</ele>
        <time>2026-04-21T12:47:27Z</time>
      </trkpt>
      <trkpt lat="40.768517" lon="-73.980311">
        <ele>28.4</ele>
        <time>2026-04-21T12:47:45Z</time>
      </trkpt>
      <trkpt lat="40.768621" lon="-73.980098">
        <ele>28.5</ele>
        <time>2026-04-21T12:48:02Z</time>
      </trkpt>
      <trkpt lat="40.768741" lon="-73.979858">
        <ele>28.5</ele>
        <time>2026-04-21T12:48:20Z</time>
      </trkpt>
      <trkpt lat="40.768877" lon="-73.979593">
        <ele>28.6</ele>
        <time>2026-04-21T12:48:37Z</time>
      </trkpt>
      <trkpt lat="40.769024" lon="-73.979307">
        <ele>28.7</ele>
        <time>2026-04-21T12:48:55Z</time>
      </trkpt>
      <trkpt lat="40.769173" lon="-73.979007">
        <ele>28.8</ele>
        <time>2026-04-21T12:49:12Z</time>
      </trkpt>
      <trkpt lat="40.769313" lon="-73.978698">
        <ele>28.9</ele>
        <time>2026-04-21T12:49:30Z</time>
      </trkpt>
      <trkpt lat="40.769440" lon="-73.978386">
        <ele>29.0</ele>
        <time>2026-04-21T12:49:47Z</time>
      </trkpt>
      <trkpt lat="40.769555" lon="-73.978074">
        <ele>29.0</ele>
        <time>2026-04-21T12:50:05Z</time>
      </trkpt>
      <trkpt lat="40.769664" lon="-73.977765">
        <ele>29.1</ele>
        <time>2026-04-21T12:50:22Z</time>
      </trkpt>
      <trkpt lat="40.769777" lon="-73.977460">
        <ele>29.2</ele>
        <time>2026-04-21T12:50:40Z</time>
      </trkpt>
      <trkpt lat="40.769901" lon="-73.977157">
        <ele>29.3</ele>
        <time>2026-04-21T12:50:57Z</time>
      </trkpt>
      <trkpt lat="40.770037" lon="-73.976856">
        <ele>29.4</ele>
        <time>2026-04-21T12:51:15Z</time>
      </trkpt>
      <trkpt lat="40.770178" lon="-73.976556">
        <ele>29.4</ele>
        <time>2026-04-21T12:51:32Z</time>
      </trkpt>
      <trkpt lat="40.770315" lon="-73.976256">
        <ele>29.5</ele>
        <time>2026-04-21T12:51:50Z</time>
      </trkpt>
      <trkpt lat="40.770438" lon="-73.975958">
        <ele>29.6</ele>
        <time>2026-04-21T12:52:07Z</time>
      </trkpt>
      <trkpt lat="40.770543" lon="-73.975666">
        <ele>29.6</ele>
        <time>2026-04-21T12:52:25Z</time>
      </trkpt>
      <trkpt lat="40.770630" lon="-73.975384">
        <ele>29.7</ele>
        <time>2026-04-21T12:52:42Z</time>
      </trkpt>
      <trkpt lat="40.770707" lon="-73.975118">
        <ele>29.8</ele>
        <time>2026-04-21T12:53:00Z</time>
      </trkpt>
      <trkpt lat="40.770784" lon="-73.974875">
        <ele>29.8</ele>
        <time>2026-04-21T12:53:17Z</time>
      </trkpt>
      <trkpt lat="40.770865" lon="-73.974658">
        <ele>29.9</ele>
        <time>2026-04-21T12:53:35Z</time>
      </trkpt>
      <trkpt lat="40.770953" lon="-73.974472">
        <ele>29.9</ele>
        <time>2026-04-21T12:53:52Z</time>
      </trkpt>
      <trkpt lat="40.771042" lon="-73.974318">
        <ele>30.0</ele>
        <time>2026-04-21T12:54:10Z</time>
      </trkpt>
    </trkseg>
  </trk>
</gpx>
